zip,county,state
00873,,
01001,Hampden,MA
01008,Hampden,MA
01010,Hampden,MA
01011,Hampden,MA
01012,Hampshire,MA
01013,Hampden,MA
01020,Hampden,MA
01022,Hampden,MA
01026,Hampshire,MA
01027,Hampshire,MA
01028,Hampden,MA
01030,Hampden,MA
01032,Hampshire,MA
01034,Hampden,MA
01036,Hampden,MA
01039,Hampshire,MA
01040,Hampden,MA
01050,Hampshire,MA
01053,Hampshire,MA
01056,Hampden,MA
01057,Hampden,MA
01068,Worcester,MA
01069,Hampden,MA
01070,Hampshire,MA
01071,Hampden,MA
01073,Hampshire,MA
01077,Hampden,MA
01081,Hampden,MA
01083,Worcester,MA
01084,Hampshire,MA
01085,Hampden,MA
01088,Hampshire,MA
01089,Hampden,MA
01092,Worcester,MA
01095,Hampden,MA
01096,Hampshire,MA
01098,Hampshire,MA
01103,Hampden,MA
01104,Hampden,MA
01105,Hampden,MA
01106,Hampden,MA
01107,Hampden,MA
01108,Hampden,MA
01109,Hampden,MA
01118,Hampden,MA
01119,Hampden,MA
01128,Hampden,MA
01129,Hampden,MA
01151,Hampden,MA
01199,Hampden,MA
01201,Berkshire,MA
01220,Berkshire,MA
01222,Berkshire,MA
01223,Berkshire,MA
01224,Berkshire,MA
01225,Berkshire,MA
01226,Berkshire,MA
01230,Berkshire,MA
01235,Berkshire,MA
01236,Berkshire,MA
01237,Berkshire,MA
01238,Berkshire,MA
01240,Berkshire,MA
01243,Hampshire,MA
01245,Berkshire,MA
01247,Berkshire,MA
01253,Berkshire,MA
01254,Berkshire,MA
01255,Berkshire,MA
01256,Berkshire,MA
01257,Berkshire,MA
01258,Berkshire,MA
01259,Berkshire,MA
01262,Berkshire,MA
01266,Berkshire,MA
01267,Berkshire,MA
01270,Berkshire,MA
01301,Franklin,MA
01330,Franklin,MA
01338,Franklin,MA
01339,Franklin,MA
01340,Franklin,MA
01341,Franklin,MA
01343,Berkshire,MA
01346,Franklin,MA
01350,Franklin,MA
01367,Franklin,MA
01370,Franklin,MA
01373,Franklin,MA
01420,Worcester,MA
01430,Worcester,MA
01431,Middlesex,MA
01432,Middlesex,MA
01434,Worcester,MA
01440,Worcester,MA
01450,Middlesex,MA
01451,Worcester,MA
01452,Worcester,MA
01453,Worcester,MA
01460,Middlesex,MA
01462,Worcester,MA
01463,Middlesex,MA
01464,Middlesex,MA
01469,Middlesex,MA
01473,Worcester,MA
01474,Middlesex,MA
01501,Worcester,MA
01503,Worcester,MA
01504,Worcester,MA
01505,Worcester,MA
01506,Worcester,MA
01510,Worcester,MA
01515,Worcester,MA
01516,Worcester,MA
01518,Worcester,MA
01519,Worcester,MA
01520,Worcester,MA
01521,Hampden,MA
01522,Worcester,MA
01523,Worcester,MA
01524,Worcester,MA
01527,Worcester,MA
01529,Worcester,MA
01532,Worcester,MA
01534,Worcester,MA
01535,Worcester,MA
01536,Worcester,MA
01540,Worcester,MA
01541,Worcester,MA
01542,Worcester,MA
01543,Worcester,MA
01545,Worcester,MA
01550,Worcester,MA
01560,Worcester,MA
01562,Worcester,MA
01564,Worcester,MA
01566,Worcester,MA
01568,Worcester,MA
01569,Worcester,MA
01570,Worcester,MA
01571,Worcester,MA
01581,Worcester,MA
01583,Worcester,MA
01585,Worcester,MA
01588,Worcester,MA
01590,Worcester,MA
01602,Worcester,MA
01605,Worcester,MA
01606,Worcester,MA
01608,Worcester,MA
01609,Worcester,MA
01612,Worcester,MA
01701,Middlesex,MA
01702,Middlesex,MA
01703,Middlesex,MA
01704,Middlesex,MA
01705,Middlesex,MA
01719,Middlesex,MA
01720,Middlesex,MA
01730,Middlesex,MA
01731,Middlesex,MA
01740,Worcester,MA
01741,Middlesex,MA
01742,Middlesex,MA
01746,Middlesex,MA
01748,Middlesex,MA
01749,Middlesex,MA
01752,Middlesex,MA
01754,Middlesex,MA
01756,Worcester,MA
01757,Worcester,MA
01760,Middlesex,MA
01772,Worcester,MA
01773,Middlesex,MA
01775,Middlesex,MA
01776,Middlesex,MA
01778,Middlesex,MA
01801,Middlesex,MA
01803,Middlesex,MA
01805,Middlesex,MA
01810,Essex,MA
01813,Middlesex,MA
01815,Middlesex,MA
01821,Middlesex,MA
01824,Middlesex,MA
01826,Middlesex,MA
01827,Middlesex,MA
01830,Essex,MA
01832,Essex,MA
01833,Essex,MA
01834,Essex,MA
01835,Essex,MA
01844,Essex,MA
01845,Essex,MA
01852,Middlesex,MA
01854,Middlesex,MA
01860,Essex,MA
01862,Middlesex,MA
01863,Middlesex,MA
01864,Middlesex,MA
01867,Middlesex,MA
01876,Middlesex,MA
01879,Middlesex,MA
01880,Middlesex,MA
01886,Middlesex,MA
01887,Middlesex,MA
01888,Middlesex,MA
01890,Middlesex,MA
01904,Essex,MA
01905,Essex,MA
01906,Essex,MA
01907,Essex,MA
01913,Essex,MA
01915,Essex,MA
01921,Essex,MA
01922,Essex,MA
01923,Essex,MA
01929,Essex,MA
01930,Essex,MA
01938,Essex,MA
01940,Essex,MA
01944,Essex,MA
01945,Essex,MA
01949,Essex,MA
01950,Essex,MA
01951,Essex,MA
01952,Essex,MA
01960,Essex,MA
01969,Essex,MA
01970,Essex,MA
01982,Essex,MA
01983,Essex,MA
01984,Essex,MA
01985,Essex,MA
02021,Norfolk,MA
02025,Norfolk,MA
02026,Norfolk,MA
02035,Norfolk,MA
02038,Norfolk,MA
02043,Plymouth,MA
02048,Bristol,MA
02050,Plymouth,MA
02054,Norfolk,MA
02056,Norfolk,MA
02061,Plymouth,MA
02062,Norfolk,MA
02066,Plymouth,MA
02067,Norfolk,MA
02071,Norfolk,MA
02072,Norfolk,MA
02081,Norfolk,MA
02090,Norfolk,MA
02093,Norfolk,MA
02129,Suffolk,MA
02131,Suffolk,MA
02141,Middlesex,MA
02143,Middlesex,MA
02148,Middlesex,MA
02149,Middlesex,MA
02150,Suffolk,MA
02151,Suffolk,MA
02153,Middlesex,MA
02155,Middlesex,MA
02169,Norfolk,MA
02170,Norfolk,MA
02171,Norfolk,MA
02176,Middlesex,MA
02180,Middlesex,MA
02184,Norfolk,MA
02186,Norfolk,MA
02188,Norfolk,MA
02189,Norfolk,MA
02190,Norfolk,MA
02204,Suffolk,MA
02269,Norfolk,MA
02301,Plymouth,MA
02302,Plymouth,MA
02303,Plymouth,MA
02304,Plymouth,MA
02305,Plymouth,MA
02322,Norfolk,MA
02324,Plymouth,MA
02325,Plymouth,MA
02330,Plymouth,MA
02332,Plymouth,MA
02333,Plymouth,MA
02337,Plymouth,MA
02338,Plymouth,MA
02339,Plymouth,MA
02341,Plymouth,MA
02343,Norfolk,MA
02346,Plymouth,MA
02347,Plymouth,MA
02350,Plymouth,MA
02351,Plymouth,MA
02355,Plymouth,MA
02356,Bristol,MA
02359,Plymouth,MA
02360,Plymouth,MA
02364,Plymouth,MA
02366,Plymouth,MA
02367,Plymouth,MA
02368,Norfolk,MA
02370,Plymouth,MA
02375,Bristol,MA
02379,Plymouth,MA
02382,Plymouth,MA
02420,Middlesex,MA
02421,Middlesex,MA
02445,Norfolk,MA
02446,Norfolk,MA
02451,Middlesex,MA
02452,Middlesex,MA
02453,Middlesex,MA
02458,Middlesex,MA
02459,Middlesex,MA
02460,Middlesex,MA
02461,Middlesex,MA
02462,Middlesex,MA
02464,Middlesex,MA
02465,Middlesex,MA
02466,Middlesex,MA
02467,Norfolk,MA
02468,Middlesex,MA
02472,Middlesex,MA
02474,Middlesex,MA
02476,Middlesex,MA
02478,Middlesex,MA
02481,Norfolk,MA
02482,Norfolk,MA
02492,Norfolk,MA
02493,Middlesex,MA
02494,Norfolk,MA
02532,Barnstable,MA
02536,Barnstable,MA
02537,Barnstable,MA
02538,Plymouth,MA
02540,Barnstable,MA
02542,Barnstable,MA
02543,Barnstable,MA
02556,Barnstable,MA
02559,Barnstable,MA
02562,Barnstable,MA
02563,Barnstable,MA
02571,Plymouth,MA
02601,Barnstable,MA
02630,Barnstable,MA
02631,Barnstable,MA
02632,Barnstable,MA
02633,Barnstable,MA
02635,Barnstable,MA
02638,Barnstable,MA
02639,Barnstable,MA
02642,Barnstable,MA
02644,Barnstable,MA
02645,Barnstable,MA
02646,Barnstable,MA
02648,Barnstable,MA
02649,Barnstable,MA
02650,Barnstable,MA
02653,Barnstable,MA
02655,Barnstable,MA
02659,Barnstable,MA
02660,Barnstable,MA
02661,Barnstable,MA
02664,Barnstable,MA
02667,Barnstable,MA
02668,Barnstable,MA
02670,Barnstable,MA
02671,Barnstable,MA
02673,Barnstable,MA
02675,Barnstable,MA
02703,Bristol,MA
02717,Bristol,MA
02718,Bristol,MA
02719,Bristol,MA
02721,Bristol,MA
02724,Bristol,MA
02738,Plymouth,MA
02739,Plymouth,MA
02740,Bristol,MA
02744,Bristol,MA
02745,Bristol,MA
02746,Bristol,MA
02747,Bristol,MA
02748,Bristol,MA
02760,Bristol,MA
02762,Norfolk,MA
02763,Bristol,MA
02764,Bristol,MA
02766,Bristol,MA
02767,Bristol,MA
02768,Bristol,MA
02769,Bristol,MA
02771,Bristol,MA
02777,Bristol,MA
02779,Bristol,MA
02790,Bristol,MA
02804,Washington,RI
02806,Bristol,RI
02808,Washington,RI
02809,Bristol,RI
02812,Washington,RI
02813,Washington,RI
02814,Providence,RI
02815,Providence,RI
02816,Kent,RI
02817,Kent,RI
02818,Kent,RI
02822,Washington,RI
02824,Providence,RI
02825,Providence,RI
02826,Providence,RI
02827,Kent,RI
02828,Providence,RI
02830,Providence,RI
02831,Providence,RI
02832,Washington,RI
02833,Washington,RI
02835,Newport,RI
02836,Washington,RI
02837,Newport,RI
02838,Providence,RI
02839,Providence,RI
02840,Newport,RI
02841,Newport,RI
02842,Newport,RI
02852,Washington,RI
02857,Providence,RI
02858,Providence,RI
02859,Providence,RI
02860,Providence,RI
02864,Providence,RI
02865,Providence,RI
02871,Newport,RI
02873,Washington,RI
02874,Washington,RI
02875,Washington,RI
02876,Providence,RI
02877,Washington,RI
02878,Newport,RI
02879,Washington,RI
02881,Washington,RI
02882,Washington,RI
02885,Bristol,RI
02886,Kent,RI
02888,Kent,RI
02889,Kent,RI
02891,Washington,RI
02892,Washington,RI
02893,Kent,RI
02894,Washington,RI
02895,Providence,RI
02896,Providence,RI
02898,Washington,RI
02903,Providence,RI
02904,Providence,RI
02905,Providence,RI
02906,Providence,RI
02907,Providence,RI
02908,Providence,RI
02910,Providence,RI
02911,Providence,RI
02914,Providence,RI
02915,Providence,RI
02916,Providence,RI
02917,Providence,RI
02919,Providence,RI
02920,Providence,RI
02921,Providence,RI
03031,Hillsborough,NH
03032,Rockingham,NH
03033,Hillsborough,NH
03034,Rockingham,NH
03038,Rockingham,NH
03045,Hillsborough,NH
03046,Merrimack,NH
03049,Hillsborough,NH
03051,Hillsborough,NH
03052,Hillsborough,NH
03053,Rockingham,NH
03054,Hillsborough,NH
03055,Hillsborough,NH
03057,Hillsborough,NH
03060,Hillsborough,NH
03062,Hillsborough,NH
03063,Hillsborough,NH
03064,Hillsborough,NH
03076,Hillsborough,NH
03077,Rockingham,NH
03079,Rockingham,NH
03087,Rockingham,NH
03101,Hillsborough,NH
03102,Hillsborough,NH
03103,Hillsborough,NH
03104,Hillsborough,NH
03106,Merrimack,NH
03109,Hillsborough,NH
03110,Hillsborough,NH
03217,Grafton,NH
03220,Belknap,NH
03222,Grafton,NH
03223,Grafton,NH
03224,Merrimack,NH
03226,Belknap,NH
03227,Carroll,NH
03235,Merrimack,NH
03237,Belknap,NH
03240,Grafton,NH
03241,Grafton,NH
03243,Merrimack,NH
03245,Grafton,NH
03246,Belknap,NH
03249,Belknap,NH
03253,Belknap,NH
03254,Carroll,NH
03256,Belknap,NH
03262,Grafton,NH
03264,Grafton,NH
03266,Grafton,NH
03269,Belknap,NH
03275,Merrimack,NH
03276,Merrimack,NH
03279,Grafton,NH
03280,Sullivan,NH
03281,Hillsborough,NH
03282,Grafton,NH
03284,Sullivan,NH
03301,Merrimack,NH
03303,Merrimack,NH
03304,Merrimack,NH
03307,Merrimack,NH
03431,Cheshire,NH
03435,Cheshire,NH
03441,Cheshire,NH
03443,Cheshire,NH
03444,Cheshire,NH
03445,Cheshire,NH
03446,Cheshire,NH
03447,Cheshire,NH
03448,Cheshire,NH
03450,Cheshire,NH
03451,Cheshire,NH
03452,Cheshire,NH
03455,Cheshire,NH
03456,Cheshire,NH
03457,Cheshire,NH
03461,Cheshire,NH
03462,Cheshire,NH
03464,Cheshire,NH
03465,Cheshire,NH
03466,Cheshire,NH
03467,Cheshire,NH
03470,Cheshire,NH
03601,Sullivan,NH
03602,Cheshire,NH
03603,Sullivan,NH
03605,Sullivan,NH
03607,Sullivan,NH
03608,Cheshire,NH
03609,Cheshire,NH
03741,Grafton,NH
03743,Sullivan,NH
03745,Sullivan,NH
03748,Grafton,NH
03750,Grafton,NH
03752,Sullivan,NH
03753,Sullivan,NH
03755,Grafton,NH
03766,Grafton,NH
03768,Grafton,NH
03770,Sullivan,NH
03773,Sullivan,NH
03777,Grafton,NH
03781,Sullivan,NH
03782,Sullivan,NH
03784,Grafton,NH
03801,Rockingham,NH
03809,Belknap,NH
03810,Belknap,NH
03816,Carroll,NH
03827,Rockingham,NH
03833,Rockingham,NH
03837,Belknap,NH
03840,Rockingham,NH
03842,Rockingham,NH
03844,Rockingham,NH
03848,Rockingham,NH
03850,Carroll,NH
03853,Carroll,NH
03856,Rockingham,NH
03857,Rockingham,NH
03858,Rockingham,NH
03862,Rockingham,NH
03865,Rockingham,NH
03870,Rockingham,NH
03874,Rockingham,NH
03885,Rockingham,NH
03894,Carroll,NH
03904,York,ME
03909,York,ME
04005,York,ME
04011,Cumberland,ME
04021,Cumberland,ME
04032,Cumberland,ME
04043,York,ME
04072,York,ME
04074,Cumberland,ME
04086,Sagadahoc,ME
04090,York,ME
04096,Cumberland,ME
04101,Cumberland,ME
04102,Cumberland,ME
04103,Cumberland,ME
04105,Cumberland,ME
04106,Cumberland,ME
04107,Cumberland,ME
04210,Androscoggin,ME
04240,Androscoggin,ME
04250,Androscoggin,ME
04252,Androscoggin,ME
04259,Kennebec,ME
04280,Androscoggin,ME
04287,Sagadahoc,ME
04330,Kennebec,ME
04351,Kennebec,ME
04401,Penobscot,ME
04412,Penobscot,ME
04444,Penobscot,ME
04473,Penobscot,ME
04530,Sagadahoc,ME
04901,Kennebec,ME
04932,Penobscot,ME
04987,Waldo,ME
04988,Waldo,ME
05101,Windham,VT
05156,Windsor,VT
05158,Windham,VT
05301,Windham,VT
05346,Windham,VT
05354,Windham,VT
05401,Chittenden,VT
05402,Chittenden,VT
05403,Chittenden,VT
05404,Chittenden,VT
05406,Chittenden,VT
05407,Chittenden,VT
05439,Chittenden,VT
05445,Chittenden,VT
05446,Chittenden,VT
05449,Chittenden,VT
05451,Chittenden,VT
05452,Chittenden,VT
05453,Chittenden,VT
05465,Chittenden,VT
05466,Chittenden,VT
05468,Chittenden,VT
05477,Chittenden,VT
05478,Franklin,VT
05479,Franklin,VT
05481,Franklin,VT
05482,Chittenden,VT
05486,Grand Isle,VT
05494,Chittenden,VT
05495,Chittenden,VT
05601,Washington,VT
05602,Washington,VT
05603,Washington,VT
05604,Washington,VT
05609,Washington,VT
05620,Washington,VT
05633,Washington,VT
05641,Washington,VT
05662,Lamoille,VT
05670,Washington,VT
05671,Washington,VT
05672,Lamoille,VT
05676,Washington,VT
05677,Washington,VT
06001,Hartford,CT
06002,Hartford,CT
06010,Hartford,CT
06013,Hartford,CT
06016,Hartford,CT
06019,Hartford,CT
06026,Hartford,CT
06027,Hartford,CT
06028,Hartford,CT
06029,Tolland,CT
06032,Hartford,CT
06033,Hartford,CT
06035,Hartford,CT
06037,Hartford,CT
06040,Hartford,CT
06043,Tolland,CT
06045,Hartford,CT
06051,Hartford,CT
06052,Hartford,CT
06053,Hartford,CT
06057,Litchfield,CT
06060,Hartford,CT
06062,Hartford,CT
06063,Litchfield,CT
06066,Tolland,CT
06067,Hartford,CT
06070,Hartford,CT
06071,Tolland,CT
06073,Hartford,CT
06074,Hartford,CT
06076,Tolland,CT
06078,Hartford,CT
06082,Hartford,CT
06083,Hartford,CT
06084,Tolland,CT
06085,Hartford,CT
06088,Hartford,CT
06089,Hartford,CT
06090,Hartford,CT
06091,Hartford,CT
06092,Hartford,CT
06093,Hartford,CT
06095,Hartford,CT
06096,Hartford,CT
06105,Hartford,CT
06106,Hartford,CT
06107,Hartford,CT
06108,Hartford,CT
06109,Hartford,CT
06110,Hartford,CT
06111,Hartford,CT
06117,Hartford,CT
06118,Hartford,CT
06119,Hartford,CT
06128,Hartford,CT
06138,Hartford,CT
06226,Windham,CT
06231,Tolland,CT
06232,Tolland,CT
06234,Windham,CT
06235,Windham,CT
06237,Tolland,CT
06238,Tolland,CT
06239,Windham,CT
06241,Windham,CT
06242,Windham,CT
06243,Windham,CT
06247,Windham,CT
06248,Tolland,CT
06249,New London,CT
06250,Tolland,CT
06254,New London,CT
06255,Windham,CT
06256,Windham,CT
06259,Windham,CT
06260,Windham,CT
06262,Windham,CT
06264,Windham,CT
06266,Windham,CT
06268,Tolland,CT
06269,Tolland,CT
06277,Windham,CT
06278,Windham,CT
06279,Tolland,CT
06280,Windham,CT
06281,Windham,CT
06282,Windham,CT
06320,New London,CT
06330,New London,CT
06331,Windham,CT
06333,New London,CT
06334,New London,CT
06335,New London,CT
06336,New London,CT
06338,New London,CT
06339,New London,CT
06340,New London,CT
06349,New London,CT
06351,New London,CT
06353,New London,CT
06354,Windham,CT
06355,New London,CT
06357,New London,CT
06359,New London,CT
06360,New London,CT
06365,New London,CT
06370,New London,CT
06371,New London,CT
06373,Windham,CT
06374,Windham,CT
06375,New London,CT
06377,Windham,CT
06378,New London,CT
06379,New London,CT
06380,New London,CT
06382,New London,CT
06384,New London,CT
06385,New London,CT
06389,New London,CT
06403,New Haven,CT
06405,New Haven,CT
06409,Middlesex,CT
06410,New Haven,CT
06412,Middlesex,CT
06413,Middlesex,CT
06414,Middlesex,CT
06415,New London,CT
06416,Middlesex,CT
06417,Middlesex,CT
06418,New Haven,CT
06419,Middlesex,CT
06420,New London,CT
06422,Middlesex,CT
06423,Middlesex,CT
06424,Middlesex,CT
06426,Middlesex,CT
06437,New Haven,CT
06438,Middlesex,CT
06441,Middlesex,CT
06442,Middlesex,CT
06443,New Haven,CT
06447,Hartford,CT
06450,New Haven,CT
06451,New Haven,CT
06455,Middlesex,CT
06457,Middlesex,CT
06460,New Haven,CT
06461,New Haven,CT
06468,Fairfield,CT
06469,Middlesex,CT
06470,Fairfield,CT
06471,New Haven,CT
06472,New Haven,CT
06473,New Haven,CT
06475,Middlesex,CT
06477,New Haven,CT
06478,New Haven,CT
06479,Hartford,CT
06480,Middlesex,CT
06481,Middlesex,CT
06482,Fairfield,CT
06483,New Haven,CT
06484,Fairfield,CT
06488,New Haven,CT
06489,Hartford,CT
06491,Fairfield,CT
06492,New Haven,CT
06498,Middlesex,CT
06510,New Haven,CT
06511,New Haven,CT
06514,New Haven,CT
06517,New Haven,CT
06518,New Haven,CT
06519,New Haven,CT
06524,New Haven,CT
06525,New Haven,CT
06601,Fairfield,CT
06602,Fairfield,CT
06604,Fairfield,CT
06605,Fairfield,CT
06606,Fairfield,CT
06607,Fairfield,CT
06608,Fairfield,CT
06610,Fairfield,CT
06611,Fairfield,CT
06612,Fairfield,CT
06614,Fairfield,CT
06615,Fairfield,CT
06673,Fairfield,CT
06699,Fairfield,CT
06702,New Haven,CT
06704,New Haven,CT
06705,New Haven,CT
06706,New Haven,CT
06708,New Haven,CT
06710,New Haven,CT
06712,New Haven,CT
06716,New Haven,CT
06750,Litchfield,CT
06751,Litchfield,CT
06752,Litchfield,CT
06754,Litchfield,CT
06755,Litchfield,CT
06756,Litchfield,CT
06757,Litchfield,CT
06758,Litchfield,CT
06759,Litchfield,CT
06762,New Haven,CT
06763,Litchfield,CT
06770,New Haven,CT
06776,Litchfield,CT
06777,Litchfield,CT
06778,Litchfield,CT
06779,Litchfield,CT
06782,Litchfield,CT
06783,Litchfield,CT
06784,Fairfield,CT
06785,Litchfield,CT
06786,Litchfield,CT
06787,Litchfield,CT
06790,Litchfield,CT
06791,Litchfield,CT
06793,Litchfield,CT
06794,Litchfield,CT
06795,Litchfield,CT
06798,Litchfield,CT
06801,Fairfield,CT
06804,Fairfield,CT
06807,Fairfield,CT
06810,Fairfield,CT
06811,Fairfield,CT
06812,Fairfield,CT
06820,Fairfield,CT
06824,Fairfield,CT
06825,Fairfield,CT
06828,Fairfield,CT
06830,Fairfield,CT
06831,Fairfield,CT
06838,Fairfield,CT
06840,Fairfield,CT
06850,Fairfield,CT
06851,Fairfield,CT
06852,Fairfield,CT
06853,Fairfield,CT
06854,Fairfield,CT
06855,Fairfield,CT
06856,Fairfield,CT
06857,Fairfield,CT
06858,Fairfield,CT
06860,Fairfield,CT
06870,Fairfield,CT
06877,Fairfield,CT
06878,Fairfield,CT
06880,Fairfield,CT
06881,Fairfield,CT
06883,Fairfield,CT
06888,Fairfield,CT
06889,Fairfield,CT
06890,Fairfield,CT
06896,Fairfield,CT
06897,Fairfield,CT
06901,Fairfield,CT
06902,Fairfield,CT
06903,Fairfield,CT
06905,Fairfield,CT
06906,Fairfield,CT
06907,Fairfield,CT
07002,Hudson,NJ
07003,Essex,NJ
07005,Morris,NJ
07006,Essex,NJ
07009,Essex,NJ
07010,Bergen,NJ
07011,Passaic,NJ
07012,Passaic,NJ
07013,Passaic,NJ
07014,Passaic,NJ
07016,Union,NJ
07021,Essex,NJ
07022,Bergen,NJ
07023,Union,NJ
07024,Bergen,NJ
07027,Union,NJ
07028,Essex,NJ
07030,Hudson,NJ
07031,Bergen,NJ
07032,Hudson,NJ
07033,Union,NJ
07034,Morris,NJ
07035,Morris,NJ
07039,Essex,NJ
07040,Essex,NJ
07042,Essex,NJ
07043,Essex,NJ
07044,Essex,NJ
07045,Morris,NJ
07046,Morris,NJ
07047,Hudson,NJ
07052,Essex,NJ
07054,Morris,NJ
07055,Passaic,NJ
07058,Morris,NJ
07059,Somerset,NJ
07060,Union,NJ
07066,Union,NJ
07067,Middlesex,NJ
07068,Essex,NJ
07069,Somerset,NJ
07070,Bergen,NJ
07071,Bergen,NJ
07072,Bergen,NJ
07073,Bergen,NJ
07075,Bergen,NJ
07076,Union,NJ
07078,Essex,NJ
07079,Essex,NJ
07080,Middlesex,NJ
07081,Union,NJ
07082,Morris,NJ
07083,Union,NJ
07086,Hudson,NJ
07087,Hudson,NJ
07090,Union,NJ
07092,Union,NJ
07093,Hudson,NJ
07094,Hudson,NJ
07109,Essex,NJ
07110,Essex,NJ
07204,Union,NJ
07302,Hudson,NJ
07304,Hudson,NJ
07305,Hudson,NJ
07310,Hudson,NJ
07401,Bergen,NJ
07405,Morris,NJ
07410,Bergen,NJ
07416,Sussex,NJ
07417,Bergen,NJ
07418,Sussex,NJ
07419,Sussex,NJ
07421,Passaic,NJ
07422,Sussex,NJ
07423,Bergen,NJ
07424,Passaic,NJ
07430,Bergen,NJ
07432,Bergen,NJ
07438,Morris,NJ
07439,Sussex,NJ
07440,Morris,NJ
07442,Passaic,NJ
07444,Morris,NJ
07446,Bergen,NJ
07450,Bergen,NJ
07452,Bergen,NJ
07456,Passaic,NJ
07457,Morris,NJ
07458,Bergen,NJ
07461,Sussex,NJ
07462,Sussex,NJ
07463,Bergen,NJ
07470,Passaic,NJ
07480,Passaic,NJ
07481,Bergen,NJ
07503,Passaic,NJ
07506,Passaic,NJ
07508,Passaic,NJ
07512,Passaic,NJ
07601,Bergen,NJ
07603,Bergen,NJ
07604,Bergen,NJ
07605,Bergen,NJ
07606,Bergen,NJ
07607,Bergen,NJ
07608,Bergen,NJ
07621,Bergen,NJ
07624,Bergen,NJ
07626,Bergen,NJ
07627,Bergen,NJ
07628,Bergen,NJ
07631,Bergen,NJ
07632,Bergen,NJ
07642,Bergen,NJ
07644,Bergen,NJ
07646,Bergen,NJ
07649,Bergen,NJ
07652,Bergen,NJ
07660,Bergen,NJ
07661,Bergen,NJ
07662,Bergen,NJ
07663,Bergen,NJ
07666,Bergen,NJ
07670,Bergen,NJ
07675,Bergen,NJ
07676,Bergen,NJ
07677,Bergen,NJ
07701,Monmouth,NJ
07702,Monmouth,NJ
07703,Monmouth,NJ
07704,Monmouth,NJ
07711,Monmouth,NJ
07712,Monmouth,NJ
07716,Monmouth,NJ
07717,Monmouth,NJ
07718,Monmouth,NJ
07719,Monmouth,NJ
07720,Monmouth,NJ
07721,Monmouth,NJ
07722,Monmouth,NJ
07723,Monmouth,NJ
07724,Monmouth,NJ
07727,Monmouth,NJ
07728,Monmouth,NJ
07730,Monmouth,NJ
07731,Monmouth,NJ
07732,Monmouth,NJ
07733,Monmouth,NJ
07734,Monmouth,NJ
07735,Monmouth,NJ
07737,Monmouth,NJ
07738,Monmouth,NJ
07739,Monmouth,NJ
07740,Monmouth,NJ
07746,Monmouth,NJ
07747,Monmouth,NJ
07748,Monmouth,NJ
07750,Monmouth,NJ
07751,Monmouth,NJ
07753,Monmouth,NJ
07755,Monmouth,NJ
07756,Monmouth,NJ
07757,Monmouth,NJ
07758,Monmouth,NJ
07760,Monmouth,NJ
07762,Monmouth,NJ
07764,Monmouth,NJ
07801,Morris,NJ
07802,Morris,NJ
07803,Morris,NJ
07806,Morris,NJ
07821,Sussex,NJ
07828,Morris,NJ
07830,Hunterdon,NJ
07834,Morris,NJ
07836,Morris,NJ
07840,Warren,NJ
07842,Morris,NJ
07843,Sussex,NJ
07845,Morris,NJ
07847,Morris,NJ
07848,Sussex,NJ
07849,Morris,NJ
07850,Morris,NJ
07852,Morris,NJ
07853,Morris,NJ
07856,Morris,NJ
07857,Morris,NJ
07860,Sussex,NJ
07865,Warren,NJ
07866,Morris,NJ
07869,Morris,NJ
07870,Morris,NJ
07871,Sussex,NJ
07874,Sussex,NJ
07876,Morris,NJ
07878,Morris,NJ
07885,Morris,NJ
07901,Union,NJ
07920,Somerset,NJ
07921,Somerset,NJ
07922,Union,NJ
07924,Somerset,NJ
07926,Morris,NJ
07927,Morris,NJ
07928,Morris,NJ
07930,Morris,NJ
07931,Somerset,NJ
07932,Morris,NJ
07933,Morris,NJ
07934,Somerset,NJ
07935,Morris,NJ
07936,Morris,NJ
07938,Somerset,NJ
07939,Somerset,NJ
07940,Morris,NJ
07945,Morris,NJ
07946,Morris,NJ
07950,Morris,NJ
07960,Morris,NJ
07961,Morris,NJ
07962,Morris,NJ
07963,Morris,NJ
07970,Morris,NJ
07974,Union,NJ
07976,Morris,NJ
07977,Somerset,NJ
07978,Somerset,NJ
07979,Hunterdon,NJ
07980,Morris,NJ
07981,Morris,NJ
07983,Morris,NJ
07999,Morris,NJ
08005,Ocean,NJ
08006,Ocean,NJ
08008,Ocean,NJ
08010,Burlington,NJ
08012,Camden,NJ
08014,Gloucester,NJ
08015,Burlington,NJ
08016,Burlington,NJ
08019,Burlington,NJ
08020,Gloucester,NJ
08022,Burlington,NJ
08027,Gloucester,NJ
08028,Gloucester,NJ
08032,Gloucester,NJ
08036,Burlington,NJ
08037,Atlantic,NJ
08041,Burlington,NJ
08046,Burlington,NJ
08048,Burlington,NJ
08050,Ocean,NJ
08051,Gloucester,NJ
08053,Burlington,NJ
08054,Burlington,NJ
08055,Burlington,NJ
08056,Gloucester,NJ
08057,Burlington,NJ
08060,Burlington,NJ
08061,Gloucester,NJ
08062,Gloucester,NJ
08063,Gloucester,NJ
08065,Burlington,NJ
08066,Gloucester,NJ
08068,Burlington,NJ
08071,Gloucester,NJ
08075,Burlington,NJ
08077,Burlington,NJ
08080,Gloucester,NJ
08086,Gloucester,NJ
08087,Ocean,NJ
08088,Burlington,NJ
08090,Gloucester,NJ
08092,Ocean,NJ
08093,Gloucester,NJ
08094,Gloucester,NJ
08096,Gloucester,NJ
08097,Gloucester,NJ
08201,Atlantic,NJ
08202,Cape May,NJ
08203,Atlantic,NJ
08204,Cape May,NJ
08205,Atlantic,NJ
08210,Cape May,NJ
08215,Atlantic,NJ
08221,Atlantic,NJ
08223,Cape May,NJ
08225,Atlantic,NJ
08226,Cape May,NJ
08230,Cape May,NJ
08232,Atlantic,NJ
08234,Atlantic,NJ
08240,Atlantic,NJ
08241,Atlantic,NJ
08242,Cape May,NJ
08243,Cape May,NJ
08244,Atlantic,NJ
08247,Cape May,NJ
08248,Cape May,NJ
08251,Cape May,NJ
08260,Cape May,NJ
08270,Cape May,NJ
08310,Atlantic,NJ
08314,Cumberland,NJ
08317,Atlantic,NJ
08318,Salem,NJ
08319,Atlantic,NJ
08322,Gloucester,NJ
08326,Atlantic,NJ
08328,Gloucester,NJ
08330,Atlantic,NJ
08332,Cumberland,NJ
08340,Atlantic,NJ
08343,Gloucester,NJ
08344,Gloucester,NJ
08346,Atlantic,NJ
08350,Atlantic,NJ
08360,Cumberland,NJ
08361,Cumberland,NJ
08401,Atlantic,NJ
08402,Atlantic,NJ
08403,Atlantic,NJ
08406,Atlantic,NJ
08501,Monmouth,NJ
08502,Somerset,NJ
08505,Burlington,NJ
08510,Monmouth,NJ
08511,Burlington,NJ
08514,Monmouth,NJ
08525,Mercer,NJ
08527,Ocean,NJ
08530,Hunterdon,NJ
08533,Ocean,NJ
08534,Mercer,NJ
08535,Monmouth,NJ
08540,Mercer,NJ
08542,Mercer,NJ
08550,Mercer,NJ
08558,Somerset,NJ
08560,Mercer,NJ
08562,Burlington,NJ
08619,Mercer,NJ
08620,Mercer,NJ
08628,Mercer,NJ
08648,Mercer,NJ
08690,Mercer,NJ
08691,Mercer,NJ
08701,Ocean,NJ
08721,Ocean,NJ
08722,Ocean,NJ
08723,Ocean,NJ
08724,Ocean,NJ
08730,Monmouth,NJ
08731,Ocean,NJ
08732,Ocean,NJ
08733,Ocean,NJ
08734,Ocean,NJ
08735,Ocean,NJ
08736,Monmouth,NJ
08738,Ocean,NJ
08740,Ocean,NJ
08741,Ocean,NJ
08742,Ocean,NJ
08750,Monmouth,NJ
08751,Ocean,NJ
08752,Ocean,NJ
08753,Ocean,NJ
08755,Ocean,NJ
08757,Ocean,NJ
08758,Ocean,NJ
08759,Ocean,NJ
08801,Hunterdon,NJ
08805,Somerset,NJ
08807,Somerset,NJ
08809,Hunterdon,NJ
08812,Middlesex,NJ
08817,Middlesex,NJ
08820,Middlesex,NJ
08822,Hunterdon,NJ
08830,Middlesex,NJ
08833,Hunterdon,NJ
08844,Somerset,NJ
08854,Middlesex,NJ
08857,Middlesex,NJ
08858,Hunterdon,NJ
08859,Middlesex,NJ
08869,Somerset,NJ
08870,Hunterdon,NJ
08872,Middlesex,NJ
08873,Somerset,NJ
08876,Somerset,NJ
08877,,
08879,Middlesex,NJ
08888,Hunterdon,NJ
08889,Hunterdon,NJ
10502,Westchester,NY
10504,Westchester,NY
10507,Westchester,NY
10510,Westchester,NY
10514,Westchester,NY
10522,Westchester,NY
10523,Westchester,NY
10528,Westchester,NY
10530,Westchester,NY
10532,Westchester,NY
10533,Westchester,NY
10538,Westchester,NY
10543,Westchester,NY
10546,Westchester,NY
10549,Westchester,NY
10562,Westchester,NY
10570,Westchester,NY
10573,Westchester,NY
10577,Westchester,NY
10580,Westchester,NY
10583,Westchester,NY
10591,Westchester,NY
10594,Westchester,NY
10595,Westchester,NY
10601,Westchester,NY
10603,Westchester,NY
10604,Westchester,NY
10605,Westchester,NY
10606,Westchester,NY
10607,Westchester,NY
10707,Westchester,NY
10708,Westchester,NY
10709,Westchester,NY
10801,Westchester,NY
10804,Westchester,NY
10805,Westchester,NY
12077,Albany,NY
12084,Albany,NY
12110,Albany,NY
12203,Albany,NY
12204,Albany,NY
12205,Albany,NY
12206,Albany,NY
12208,Albany,NY
12211,Albany,NY
12303,Schenectady,NY
12304,Schenectady,NY
14529,Steuben,NY
14572,Steuben,NY
14801,Steuben,NY
14806,Allegany,NY
14807,Steuben,NY
14808,Steuben,NY
14809,Steuben,NY
14810,Steuben,NY
14812,Schuyler,NY
14814,Chemung,NY
14815,Schuyler,NY
14816,Chemung,NY
14819,Steuben,NY
14820,Steuben,NY
14821,Steuben,NY
14823,Steuben,NY
14824,Schuyler,NY
14825,Chemung,NY
14826,Steuben,NY
14827,Steuben,NY
14830,Steuben,NY
14831,Steuben,NY
14838,Chemung,NY
14839,Steuben,NY
14840,Steuben,NY
14843,Steuben,NY
14845,Chemung,NY
14855,Steuben,NY
14856,Steuben,NY
14858,Steuben,NY
14859,Tioga,NY
14861,Chemung,NY
14864,Chemung,NY
14870,Steuben,NY
14871,Chemung,NY
14872,Chemung,NY
14873,Steuben,NY
14874,Steuben,NY
14877,Steuben,NY
14879,Steuben,NY
14885,Steuben,NY
14889,Chemung,NY
14892,Tioga,NY
14894,Chemung,NY
14898,Steuben,NY
14901,Chemung,NY
14902,Chemung,NY
14903,Chemung,NY
14904,Chemung,NY
14905,Chemung,NY
15012,Westmoreland,PA
15017,Allegheny,PA
15025,Allegheny,PA
15031,Allegheny,PA
15033,Washington,PA
15037,Allegheny,PA
15044,Allegheny,PA
15057,Washington,PA
15063,Washington,PA
15064,Allegheny,PA
15067,Washington,PA
15068,Westmoreland,PA
15071,Allegheny,PA
15083,Westmoreland,PA
15086,Allegheny,PA
15089,Westmoreland,PA
15090,Allegheny,PA
15101,Allegheny,PA
15102,Allegheny,PA
15106,Allegheny,PA
15108,Allegheny,PA
15116,Allegheny,PA
15120,Allegheny,PA
15122,Allegheny,PA
15126,Allegheny,PA
15129,Allegheny,PA
15132,Allegheny,PA
15136,Allegheny,PA
15142,Allegheny,PA
15143,Allegheny,PA
15146,Allegheny,PA
15147,Allegheny,PA
15203,Allegheny,PA
15204,Allegheny,PA
15205,Allegheny,PA
15206,Allegheny,PA
15207,Allegheny,PA
15209,Allegheny,PA
15210,Allegheny,PA
15211,Allegheny,PA
15212,Allegheny,PA
15213,Allegheny,PA
15215,Allegheny,PA
15216,Allegheny,PA
15217,Allegheny,PA
15220,Allegheny,PA
15222,Allegheny,PA
15223,Allegheny,PA
15224,Allegheny,PA
15225,Allegheny,PA
15226,Allegheny,PA
15227,Allegheny,PA
15228,Allegheny,PA
15229,Allegheny,PA
15232,Allegheny,PA
15233,Allegheny,PA
15234,Allegheny,PA
15235,Allegheny,PA
15236,Allegheny,PA
15237,Allegheny,PA
15238,Allegheny,PA
15239,Allegheny,PA
15241,Allegheny,PA
15243,Allegheny,PA
15275,Allegheny,PA
15290,Allegheny,PA
15301,Washington,PA
15310,Greene,PA
15314,Washington,PA
15317,Washington,PA
15320,Greene,PA
15330,Washington,PA
15332,Washington,PA
15336,Washington,PA
15337,Greene,PA
15340,Washington,PA
15341,Greene,PA
15344,Greene,PA
15349,Greene,PA
15352,Greene,PA
15362,Greene,PA
15367,Washington,PA
15370,Greene,PA
15380,Greene,PA
15401,Fayette,PA
15410,Fayette,PA
15425,Fayette,PA
15431,Fayette,PA
15456,Fayette,PA
15458,Fayette,PA
15479,Westmoreland,PA
15601,Westmoreland,PA
15611,Westmoreland,PA
15623,Westmoreland,PA
15634,Westmoreland,PA
15636,Westmoreland,PA
15637,Westmoreland,PA
15639,Westmoreland,PA
15642,Westmoreland,PA
15644,Westmoreland,PA
15647,Westmoreland,PA
15665,Westmoreland,PA
15668,Westmoreland,PA
15672,Westmoreland,PA
15675,Westmoreland,PA
15678,Westmoreland,PA
15679,Westmoreland,PA
15692,Westmoreland,PA
15697,Westmoreland,PA
15698,Westmoreland,PA
16046,Butler,PA
16059,Butler,PA
16066,Butler,PA
16114,Mercer,PA
16121,Mercer,PA
16124,Mercer,PA
16125,Mercer,PA
16127,Mercer,PA
16130,Mercer,PA
16133,Mercer,PA
16137,Mercer,PA
16142,Lawrence,PA
16145,Mercer,PA
16146,Mercer,PA
16148,Mercer,PA
16150,Mercer,PA
16153,Mercer,PA
16154,Mercer,PA
16159,Mercer,PA
17001,Cumberland,PA
17003,Lebanon,PA
17007,Cumberland,PA
17011,Cumberland,PA
17013,Cumberland,PA
17015,Cumberland,PA
17019,York,PA
17022,Lancaster,PA
17033,Dauphin,PA
17034,Dauphin,PA
17036,Dauphin,PA
17042,Lebanon,PA
17043,Cumberland,PA
17046,Lebanon,PA
17055,Cumberland,PA
17057,Dauphin,PA
17065,Cumberland,PA
17067,Lebanon,PA
17070,Cumberland,PA
17073,Lebanon,PA
17078,Lebanon,PA
17089,Cumberland,PA
17091,Lebanon,PA
17101,Dauphin,PA
17102,Dauphin,PA
17105,Dauphin,PA
17106,Dauphin,PA
17107,Dauphin,PA
17108,Dauphin,PA
17109,Dauphin,PA
17110,Dauphin,PA
17111,Dauphin,PA
17112,Dauphin,PA
17120,Dauphin,PA
17121,Dauphin,PA
17122,Dauphin,PA
17123,Dauphin,PA
17124,Dauphin,PA
17125,Dauphin,PA
17126,Dauphin,PA
17127,Dauphin,PA
17128,Dauphin,PA
17129,Dauphin,PA
17130,Dauphin,PA
17140,Dauphin,PA
17177,Dauphin,PA
17201,Franklin,PA
17202,Franklin,PA
17214,Franklin,PA
17222,Franklin,PA
17225,Franklin,PA
17236,Franklin,PA
17237,Franklin,PA
17257,Cumberland,PA
17266,Cumberland,PA
17268,Franklin,PA
17301,Adams,PA
17304,Adams,PA
17307,Adams,PA
17311,York,PA
17312,York,PA
17313,York,PA
17315,York,PA
17316,Adams,PA
17317,York,PA
17318,York,PA
17320,Adams,PA
17324,Cumberland,PA
17325,Adams,PA
17327,York,PA
17331,York,PA
17332,York,PA
17333,York,PA
17334,York,PA
17339,York,PA
17340,Adams,PA
17342,York,PA
17345,York,PA
17349,York,PA
17350,Adams,PA
17353,Adams,PA
17354,York,PA
17355,York,PA
17356,York,PA
17358,York,PA
17361,York,PA
17362,York,PA
17363,York,PA
17364,York,PA
17365,York,PA
17368,York,PA
17371,York,PA
17372,Adams,PA
17401,York,PA
17402,York,PA
17403,York,PA
17404,York,PA
17405,York,PA
17406,York,PA
17407,York,PA
17408,York,PA
17415,York,PA
17501,Lancaster,PA
17502,Lancaster,PA
17503,Lancaster,PA
17504,Lancaster,PA
17505,Lancaster,PA
17506,Lancaster,PA
17507,Lancaster,PA
17508,Lancaster,PA
17509,Lancaster,PA
17512,Lancaster,PA
17516,Lancaster,PA
17517,Lancaster,PA
17518,Lancaster,PA
17519,Lancaster,PA
17520,Lancaster,PA
17521,Lancaster,PA
17522,Lancaster,PA
17527,Lancaster,PA
17528,Lancaster,PA
17529,Lancaster,PA
17532,Lancaster,PA
17533,Lancaster,PA
17534,Lancaster,PA
17535,Lancaster,PA
17536,Lancaster,PA
17537,Lancaster,PA
17538,Lancaster,PA
17540,Lancaster,PA
17543,Lancaster,PA
17545,Lancaster,PA
17547,Lancaster,PA
17549,Lancaster,PA
17550,Lancaster,PA
17551,Lancaster,PA
17552,Lancaster,PA
17554,Lancaster,PA
17555,Lancaster,PA
17557,Lancaster,PA
17560,Lancaster,PA
17562,Lancaster,PA
17563,Lancaster,PA
17564,Lancaster,PA
17565,Lancaster,PA
17566,Lancaster,PA
17567,Lancaster,PA
17568,Lancaster,PA
17569,Lancaster,PA
17570,Lancaster,PA
17572,Lancaster,PA
17573,Lancaster,PA
17575,Lancaster,PA
17576,Lancaster,PA
17578,Lancaster,PA
17579,Lancaster,PA
17580,Lancaster,PA
17581,Lancaster,PA
17582,Lancaster,PA
17583,Lancaster,PA
17584,Lancaster,PA
17585,Lancaster,PA
17601,Lancaster,PA
17602,Lancaster,PA
17603,Lancaster,PA
17604,Lancaster,PA
17605,Lancaster,PA
17606,Lancaster,PA
17607,Lancaster,PA
17608,Lancaster,PA
17611,Lancaster,PA
17622,Lancaster,PA
17699,Lancaster,PA
17701,Lycoming,PA
17702,Lycoming,PA
17752,Lycoming,PA
17756,Lycoming,PA
17777,Northumberland,PA
17801,Northumberland,PA
17810,Union,PA
17815,Columbia,PA
17821,Montour,PA
17835,Union,PA
17837,Union,PA
17842,Snyder,PA
17843,Snyder,PA
17844,Union,PA
17847,Northumberland,PA
17850,Northumberland,PA
17855,Union,PA
17856,Union,PA
17857,Northumberland,PA
17868,Northumberland,PA
17870,Snyder,PA
17877,Northumberland,PA
17889,Union,PA
18011,Lehigh,PA
18013,Northampton,PA
18014,Northampton,PA
18015,Northampton,PA
18017,Northampton,PA
18018,Lehigh,PA
18020,Northampton,PA
18031,Lehigh,PA
18034,Lehigh,PA
18036,Lehigh,PA
18038,Northampton,PA
18040,Northampton,PA
18041,Montgomery,PA
18042,Northampton,PA
18045,Northampton,PA
18049,Lehigh,PA
18054,Montgomery,PA
18055,Northampton,PA
18056,Berks,PA
18058,Monroe,PA
18062,Lehigh,PA
18064,Northampton,PA
18067,Northampton,PA
18069,Lehigh,PA
18070,Montgomery,PA
18072,Northampton,PA
18073,Montgomery,PA
18074,Montgomery,PA
18076,Montgomery,PA
18077,Bucks,PA
18087,Lehigh,PA
18088,Northampton,PA
18091,Northampton,PA
18092,Lehigh,PA
18101,Lehigh,PA
18102,Lehigh,PA
18103,Lehigh,PA
18104,Lehigh,PA
18106,Lehigh,PA
18109,Lehigh,PA
18301,Monroe,PA
18302,Monroe,PA
18321,Monroe,PA
18324,Pike,PA
18327,Monroe,PA
18328,Pike,PA
18332,Monroe,PA
18337,Pike,PA
18343,Northampton,PA
18344,Monroe,PA
18346,Monroe,PA
18350,Monroe,PA
18352,Monroe,PA
18353,Monroe,PA
18354,Monroe,PA
18355,Monroe,PA
18360,Monroe,PA
18370,Monroe,PA
18371,Pike,PA
18372,Monroe,PA
18411,Lackawanna,PA
18414,Lackawanna,PA
18434,Lackawanna,PA
18444,Lackawanna,PA
18447,Lackawanna,PA
18452,Lackawanna,PA
18466,Monroe,PA
18471,Lackawanna,PA
18503,Lackawanna,PA
18504,Lackawanna,PA
18505,Lackawanna,PA
18507,Lackawanna,PA
18508,Lackawanna,PA
18509,Lackawanna,PA
18510,Lackawanna,PA
18512,Lackawanna,PA
18517,Lackawanna,PA
18518,Lackawanna,PA
18519,Lackawanna,PA
18603,Columbia,PA
18612,Luzerne,PA
18615,Wyoming,PA
18634,Luzerne,PA
18640,Luzerne,PA
18641,Luzerne,PA
18642,Luzerne,PA
18643,Luzerne,PA
18644,Luzerne,PA
18657,Wyoming,PA
18660,Luzerne,PA
18701,Luzerne,PA
18702,Luzerne,PA
18704,Luzerne,PA
18705,Luzerne,PA
18706,Luzerne,PA
18707,Luzerne,PA
18708,Luzerne,PA
18709,Luzerne,PA
18901,Bucks,PA
18902,Bucks,PA
18912,Bucks,PA
18913,Bucks,PA
18914,Bucks,PA
18915,Montgomery,PA
18916,Bucks,PA
18917,Bucks,PA
18920,Bucks,PA
18922,Bucks,PA
18923,Bucks,PA
18925,Bucks,PA
18926,Bucks,PA
18927,Bucks,PA
18928,Bucks,PA
18929,Bucks,PA
18930,Bucks,PA
18931,Bucks,PA
18932,Bucks,PA
18933,Bucks,PA
18934,Bucks,PA
18936,Montgomery,PA
18938,Bucks,PA
18940,Bucks,PA
18942,Bucks,PA
18943,Bucks,PA
18944,Bucks,PA
18946,Bucks,PA
18947,Bucks,PA
18949,Bucks,PA
18950,Bucks,PA
18951,Bucks,PA
18954,Bucks,PA
18955,Bucks,PA
18956,Bucks,PA
18960,Bucks,PA
18963,Bucks,PA
18964,Montgomery,PA
18966,Bucks,PA
18969,Montgomery,PA
18972,Bucks,PA
18974,Bucks,PA
18976,Bucks,PA
18977,Bucks,PA
18980,Bucks,PA
19001,Montgomery,PA
19002,Montgomery,PA
19003,Montgomery,PA
19004,Montgomery,PA
19006,Montgomery,PA
19007,Bucks,PA
19008,Delaware,PA
19010,Delaware,PA
19012,Montgomery,PA
19013,Delaware,PA
19014,Delaware,PA
19015,Delaware,PA
19016,Delaware,PA
19017,Delaware,PA
19018,Delaware,PA
19020,Bucks,PA
19022,Delaware,PA
19023,Delaware,PA
19025,Montgomery,PA
19026,Delaware,PA
19027,Montgomery,PA
19028,Delaware,PA
19029,Delaware,PA
19030,Bucks,PA
19031,Montgomery,PA
19032,Delaware,PA
19033,Delaware,PA
19034,Montgomery,PA
19035,Montgomery,PA
19036,Delaware,PA
19037,Delaware,PA
19038,Montgomery,PA
19039,Delaware,PA
19040,Montgomery,PA
19041,Delaware,PA
19043,Delaware,PA
19044,Montgomery,PA
19046,Montgomery,PA
19047,Bucks,PA
19050,Delaware,PA
19052,Delaware,PA
19053,Bucks,PA
19054,Bucks,PA
19055,Bucks,PA
19056,Bucks,PA
19057,Bucks,PA
19060,Delaware,PA
19061,Delaware,PA
19063,Delaware,PA
19064,Delaware,PA
19065,Delaware,PA
19066,Montgomery,PA
19067,Bucks,PA
19070,Delaware,PA
19072,Montgomery,PA
19073,Delaware,PA
19074,Delaware,PA
19075,Montgomery,PA
19076,Delaware,PA
19078,Delaware,PA
19079,Delaware,PA
19080,Delaware,PA
19081,Delaware,PA
19082,Delaware,PA
19083,Delaware,PA
19085,Delaware,PA
19086,Delaware,PA
19087,Chester,PA
19088,Delaware,PA
19089,Delaware,PA
19091,Delaware,PA
19092,Philadelphia,PA
19093,Philadelphia,PA
19094,Delaware,PA
19095,Montgomery,PA
19096,Montgomery,PA
19098,Delaware,PA
19099,Philadelphia,PA
19101,Philadelphia,PA
19102,Philadelphia,PA
19103,Philadelphia,PA
19104,Philadelphia,PA
19105,Philadelphia,PA
19106,Philadelphia,PA
19107,Philadelphia,PA
19108,Philadelphia,PA
19109,Philadelphia,PA
19110,Philadelphia,PA
19111,Philadelphia,PA
19112,Philadelphia,PA
19113,Delaware,PA
19114,Philadelphia,PA
19115,Philadelphia,PA
19116,Philadelphia,PA
19118,Philadelphia,PA
19120,Philadelphia,PA
19121,Philadelphia,PA
19122,Philadelphia,PA
19123,Philadelphia,PA
19124,Philadelphia,PA
19125,Philadelphia,PA
19126,Philadelphia,PA
19127,Philadelphia,PA
19128,Philadelphia,PA
19129,Philadelphia,PA
19130,Philadelphia,PA
19131,Philadelphia,PA
19132,Philadelphia,PA
19133,Philadelphia,PA
19134,Philadelphia,PA
19135,Philadelphia,PA
19136,Philadelphia,PA
19137,Philadelphia,PA
19139,Philadelphia,PA
19140,Philadelphia,PA
19142,Philadelphia,PA
19143,Philadelphia,PA
19145,Philadelphia,PA
19146,Philadelphia,PA
19147,Philadelphia,PA
19148,Philadelphia,PA
19149,Philadelphia,PA
19151,Philadelphia,PA
19152,Philadelphia,PA
19153,Philadelphia,PA
19154,Philadelphia,PA
19160,Philadelphia,PA
19161,Philadelphia,PA
19162,Philadelphia,PA
19170,Philadelphia,PA
19171,Philadelphia,PA
19172,Philadelphia,PA
19173,Philadelphia,PA
19177,Philadelphia,PA
19178,Philadelphia,PA
19181,Philadelphia,PA
19182,Philadelphia,PA
19183,Philadelphia,PA
19184,Philadelphia,PA
19185,Philadelphia,PA
19187,Philadelphia,PA
19188,Philadelphia,PA
19191,Philadelphia,PA
19192,Philadelphia,PA
19193,Philadelphia,PA
19194,Philadelphia,PA
19196,Philadelphia,PA
19197,Philadelphia,PA
19301,Chester,PA
19310,Chester,PA
19311,Chester,PA
19312,Chester,PA
19317,Delaware,PA
19319,Delaware,PA
19320,Chester,PA
19330,Chester,PA
19331,Delaware,PA
19333,Chester,PA
19335,Chester,PA
19339,Delaware,PA
19340,Delaware,PA
19341,Chester,PA
19342,Delaware,PA
19343,Chester,PA
19344,Chester,PA
19348,Chester,PA
19350,Chester,PA
19352,Chester,PA
19355,Chester,PA
19362,Chester,PA
19363,Chester,PA
19373,Delaware,PA
19374,Chester,PA
19380,Chester,PA
19382,Chester,PA
19390,Chester,PA
19397,Chester,PA
19398,Chester,PA
19399,Chester,PA
19401,Montgomery,PA
19403,Montgomery,PA
19405,Montgomery,PA
19406,Montgomery,PA
19422,Montgomery,PA
19425,Chester,PA
19426,Montgomery,PA
19428,Montgomery,PA
19429,Montgomery,PA
19435,Montgomery,PA
19436,Montgomery,PA
19438,Montgomery,PA
19440,Montgomery,PA
19446,Montgomery,PA
19453,Montgomery,PA
19454,Montgomery,PA
19460,Chester,PA
19462,Montgomery,PA
19464,Montgomery,PA
19465,Chester,PA
19468,Montgomery,PA
19473,Montgomery,PA
19475,Chester,PA
19477,Montgomery,PA
19492,Montgomery,PA
19501,Lancaster,PA
19503,Berks,PA
19504,Berks,PA
19505,Berks,PA
19508,Berks,PA
19510,Berks,PA
19512,Berks,PA
19518,Berks,PA
19520,Chester,PA
19522,Berks,PA
19525,Montgomery,PA
19530,Berks,PA
19533,Berks,PA
19539,Berks,PA
19540,Berks,PA
19543,Berks,PA
19547,Berks,PA
19551,Berks,PA
19555,Berks,PA
19560,Berks,PA
19562,Berks,PA
19565,Berks,PA
19567,Berks,PA
19604,Berks,PA
19605,Berks,PA
19606,Berks,PA
19607,Berks,PA
19608,Berks,PA
19609,Berks,PA
19610,Berks,PA
19611,Berks,PA
19702,New Castle,DE
19703,New Castle,DE
19707,New Castle,DE
19711,New Castle,DE
19713,New Castle,DE
19736,New Castle,DE
19803,New Castle,DE
19804,New Castle,DE
19806,New Castle,DE
19807,New Castle,DE
19808,New Castle,DE
19809,New Castle,DE
19810,New Castle,DE
19930,Sussex,DE
19931,Sussex,DE
19933,Sussex,DE
19939,Sussex,DE
19941,Sussex,DE
19944,Sussex,DE
19945,Sussex,DE
19947,Sussex,DE
19950,Sussex,DE
19951,Sussex,DE
19956,Sussex,DE
19958,Sussex,DE
19960,Sussex,DE
19963,Sussex,DE
19966,Sussex,DE
19967,Sussex,DE
19968,Sussex,DE
19970,Sussex,DE
19971,Sussex,DE
19973,Sussex,DE
20001,District of Columbia,DC
20002,District of Columbia,DC
20004,District of Columbia,DC
20005,District of Columbia,DC
20006,District of Columbia,DC
20007,District of Columbia,DC
20008,District of Columbia,DC
20009,District of Columbia,DC
20010,District of Columbia,DC
20011,District of Columbia,DC
20012,District of Columbia,DC
20015,District of Columbia,DC
20016,District of Columbia,DC
20036,District of Columbia,DC
20037,District of Columbia,DC
20052,District of Columbia,DC
20059,District of Columbia,DC
20064,District of Columbia,DC
20101,Loudoun,VA
20102,Loudoun,VA
20103,Loudoun,VA
20104,Loudoun,VA
20105,Loudoun,VA
20107,Loudoun,VA
20109,Prince William,VA
20110,Manassas city,VA
20111,Prince William,VA
20112,Prince William,VA
20115,Fauquier,VA
20117,Loudoun,VA
20118,Loudoun,VA
20119,Fauquier,VA
20120,Fairfax,VA
20121,Fairfax,VA
20124,Fairfax,VA
20129,Loudoun,VA
20130,Clarke,VA
20131,Loudoun,VA
20132,Loudoun,VA
20134,Loudoun,VA
20135,Clarke,VA
20136,Prince William,VA
20137,Fauquier,VA
20141,Loudoun,VA
20142,Loudoun,VA
20143,Prince William,VA
20144,Fauquier,VA
20146,Loudoun,VA
20147,Loudoun,VA
20148,Loudoun,VA
20149,Loudoun,VA
20151,Fairfax,VA
20152,Loudoun,VA
20155,Prince William,VA
20158,Loudoun,VA
20159,Loudoun,VA
20160,Loudoun,VA
20163,Loudoun,VA
20164,Loudoun,VA
20165,Loudoun,VA
20166,Loudoun,VA
20167,Loudoun,VA
20169,Prince William,VA
20170,Fairfax,VA
20171,Fairfax,VA
20175,Loudoun,VA
20176,Loudoun,VA
20177,Loudoun,VA
20178,Loudoun,VA
20180,Loudoun,VA
20181,Prince William,VA
20184,Fauquier,VA
20186,Fauquier,VA
20187,Fauquier,VA
20189,Loudoun,VA
20190,Fairfax,VA
20191,Fairfax,VA
20194,Fairfax,VA
20197,Loudoun,VA
20198,Fauquier,VA
20199,Loudoun,VA
20422,District of Columbia,DC
20441,District of Columbia,DC
20500,District of Columbia,DC
20601,Charles,MD
20602,Charles,MD
20603,Charles,MD
20606,St. Mary's,MD
20607,Prince George's,MD
20608,Prince George's,MD
20609,St. Mary's,MD
20611,Charles,MD
20613,Prince George's,MD
20615,Calvert,MD
20616,Charles,MD
20617,Charles,MD
20618,St. Mary's,MD
20619,St. Mary's,MD
20620,St. Mary's,MD
20621,St. Mary's,MD
20622,Charles,MD
20623,Prince George's,MD
20624,St. Mary's,MD
20626,St. Mary's,MD
20628,St. Mary's,MD
20630,St. Mary's,MD
20632,Charles,MD
20634,St. Mary's,MD
20636,St. Mary's,MD
20637,Charles,MD
20639,Calvert,MD
20640,Charles,MD
20646,Charles,MD
20650,St. Mary's,MD
20653,St. Mary's,MD
20657,Calvert,MD
20658,Charles,MD
20659,St. Mary's,MD
20662,Charles,MD
20664,Charles,MD
20667,St. Mary's,MD
20670,St. Mary's,MD
20674,St. Mary's,MD
20675,Charles,MD
20676,Calvert,MD
20677,Charles,MD
20678,Calvert,MD
20680,St. Mary's,MD
20684,St. Mary's,MD
20685,Calvert,MD
20687,St. Mary's,MD
20688,Calvert,MD
20689,Calvert,MD
20690,St. Mary's,MD
20692,St. Mary's,MD
20693,Charles,MD
20695,Charles,MD
20701,Howard,MD
20705,Prince George's,MD
20706,Prince George's,MD
20707,Prince George's,MD
20708,Prince George's,MD
20710,Prince George's,MD
20711,Anne Arundel,MD
20712,Prince George's,MD
20715,Prince George's,MD
20716,Prince George's,MD
20720,Prince George's,MD
20721,Prince George's,MD
20722,Prince George's,MD
20723,Howard,MD
20724,Anne Arundel,MD
20732,Calvert,MD
20735,Prince George's,MD
20736,Calvert,MD
20737,Prince George's,MD
20738,Prince George's,MD
20740,Prince George's,MD
20742,Prince George's,MD
20743,Prince George's,MD
20744,Prince George's,MD
20745,Prince George's,MD
20746,Prince George's,MD
20747,Prince George's,MD
20748,Prince George's,MD
20751,Anne Arundel,MD
20754,Calvert,MD
20755,Anne Arundel,MD
20758,Anne Arundel,MD
20759,Howard,MD
20762,Prince George's,MD
20764,Anne Arundel,MD
20769,Prince George's,MD
20770,Prince George's,MD
20771,Prince George's,MD
20772,Prince George's,MD
20774,Prince George's,MD
20776,Anne Arundel,MD
20777,Howard,MD
20778,Anne Arundel,MD
20779,Anne Arundel,MD
20781,Prince George's,MD
20782,Prince George's,MD
20783,Prince George's,MD
20784,Prince George's,MD
20785,Prince George's,MD
20788,Prince George's,MD
20794,Howard,MD
20812,Montgomery,MD
20813,Montgomery,MD
20814,Montgomery,MD
20815,Montgomery,MD
20816,Montgomery,MD
20817,Montgomery,MD
20818,Montgomery,MD
20832,Montgomery,MD
20833,Montgomery,MD
20837,Montgomery,MD
20841,Montgomery,MD
20842,Montgomery,MD
20850,Montgomery,MD
20851,Montgomery,MD
20852,Montgomery,MD
20853,Montgomery,MD
20854,Montgomery,MD
20855,Montgomery,MD
20860,Montgomery,MD
20861,Montgomery,MD
20866,Montgomery,MD
20868,Montgomery,MD
20871,Montgomery,MD
20872,Montgomery,MD
20874,Montgomery,MD
20876,Montgomery,MD
20877,Montgomery,MD
20878,Montgomery,MD
20879,Montgomery,MD
20882,Montgomery,MD
20886,Montgomery,MD
20895,Montgomery,MD
20896,Montgomery,MD
20901,Montgomery,MD
20902,Montgomery,MD
20903,Montgomery,MD
20904,Montgomery,MD
20905,Montgomery,MD
20906,Montgomery,MD
20910,Montgomery,MD
20912,Montgomery,MD
21001,Harford,MD
21005,Harford,MD
21009,Harford,MD
21012,Anne Arundel,MD
21013,Baltimore,MD
21014,Harford,MD
21015,Harford,MD
21017,Harford,MD
21028,Harford,MD
21029,Howard,MD
21030,Baltimore,MD
21031,Baltimore,MD
21032,Anne Arundel,MD
21035,Anne Arundel,MD
21037,Anne Arundel,MD
21040,Harford,MD
21042,Howard,MD
21043,Howard,MD
21044,Howard,MD
21045,Howard,MD
21046,Howard,MD
21047,Harford,MD
21048,Carroll,MD
21050,Harford,MD
21051,Baltimore,MD
21054,Anne Arundel,MD
21057,Baltimore,MD
21060,Anne Arundel,MD
21061,Anne Arundel,MD
21071,Baltimore,MD
21075,Howard,MD
21076,Anne Arundel,MD
21078,Harford,MD
21082,Baltimore,MD
21084,Harford,MD
21085,Harford,MD
21087,Baltimore,MD
21090,Anne Arundel,MD
21093,Baltimore,MD
21104,Carroll,MD
21108,Anne Arundel,MD
21111,Baltimore,MD
21113,Anne Arundel,MD
21114,Anne Arundel,MD
21117,Baltimore,MD
21120,Baltimore,MD
21122,Anne Arundel,MD
21128,Baltimore,MD
21131,Baltimore,MD
21133,Baltimore,MD
21136,Baltimore,MD
21140,Anne Arundel,MD
21144,Anne Arundel,MD
21146,Anne Arundel,MD
21156,Baltimore,MD
21157,Carroll,MD
21158,Carroll,MD
21162,Baltimore,MD
21163,Howard,MD
21201,Baltimore city,MD
21202,Baltimore city,MD
21204,Baltimore,MD
21206,Baltimore city,MD
21207,Baltimore,MD
21208,Baltimore,MD
21209,Baltimore,MD
21210,Baltimore city,MD
21211,Baltimore city,MD
21212,Baltimore city,MD
21214,Baltimore city,MD
21215,Baltimore city,MD
21220,Baltimore,MD
21221,Baltimore,MD
21224,Baltimore city,MD
21225,Baltimore city,MD
21227,Baltimore,MD
21228,Baltimore,MD
21229,Baltimore city,MD
21234,Baltimore,MD
21236,Baltimore,MD
21237,Baltimore,MD
21239,Baltimore city,MD
21244,Baltimore,MD
21250,Baltimore,MD
21252,Baltimore,MD
21286,Baltimore,MD
21307,,
21401,Anne Arundel,MD
21403,Anne Arundel,MD
21601,Talbot,MD
21607,Queen Anne's,MD
21612,Talbot,MD
21613,Dorchester,MD
21617,Queen Anne's,MD
21619,Queen Anne's,MD
21620,Kent,MD
21623,Queen Anne's,MD
21625,Talbot,MD
21628,Queen Anne's,MD
21629,Caroline,MD
21632,Caroline,MD
21636,Caroline,MD
21638,Queen Anne's,MD
21640,Caroline,MD
21644,Queen Anne's,MD
21647,Talbot,MD
21649,Caroline,MD
21651,Kent,MD
21654,Talbot,MD
21655,Caroline,MD
21657,Queen Anne's,MD
21658,Queen Anne's,MD
21660,Caroline,MD
21662,Talbot,MD
21663,Talbot,MD
21665,Talbot,MD
21666,Queen Anne's,MD
21668,Queen Anne's,MD
21671,Talbot,MD
21673,Talbot,MD
21676,Talbot,MD
21679,Talbot,MD
21701,Frederick,MD
21702,Frederick,MD
21703,Frederick,MD
21704,Frederick,MD
21710,Frederick,MD
21713,Washington,MD
21719,Washington,MD
21722,Washington,MD
21727,Frederick,MD
21733,Washington,MD
21740,Washington,MD
21742,Washington,MD
21754,Frederick,MD
21755,Frederick,MD
21756,Washington,MD
21758,Frederick,MD
21767,Washington,MD
21769,Frederick,MD
21770,Frederick,MD
21771,Frederick,MD
21773,Frederick,MD
21774,Frederick,MD
21777,Frederick,MD
21778,Frederick,MD
21779,Washington,MD
21780,Frederick,MD
21782,Washington,MD
21783,Washington,MD
21784,Carroll,MD
21787,Carroll,MD
21788,Frederick,MD
21790,Frederick,MD
21791,Carroll,MD
21793,Frederick,MD
21794,Howard,MD
21795,Washington,MD
21797,Howard,MD
21798,Frederick,MD
21801,Wicomico,MD
21804,Wicomico,MD
21811,Worcester,MD
21813,Worcester,MD
21814,Wicomico,MD
21821,Somerset,MD
21822,Somerset,MD
21826,Wicomico,MD
21829,Worcester,MD
21830,Wicomico,MD
21837,Wicomico,MD
21840,Wicomico,MD
21841,Worcester,MD
21842,Worcester,MD
21849,Wicomico,MD
21850,Wicomico,MD
21851,Worcester,MD
21853,Somerset,MD
21856,Wicomico,MD
21863,Worcester,MD
21864,Worcester,MD
21865,Wicomico,MD
21871,Somerset,MD
21872,Worcester,MD
21875,Wicomico,MD
21901,Cecil,MD
21903,Cecil,MD
21904,Cecil,MD
21911,Cecil,MD
21921,Cecil,MD
22003,Fairfax,VA
22015,Fairfax,VA
22025,Prince William,VA
22026,Prince William,VA
22030,Fairfax,VA
22031,Fairfax,VA
22032,Fairfax,VA
22033,Fairfax,VA
22039,Fairfax,VA
22041,Fairfax,VA
22042,Fairfax,VA
22043,Fairfax,VA
22044,Fairfax,VA
22046,Falls Church city,VA
22060,Fairfax,VA
22066,Fairfax,VA
22079,Fairfax,VA
22093,Loudoun,VA
22101,Fairfax,VA
22102,Fairfax,VA
22124,Fairfax,VA
22125,Prince William,VA
22134,Prince William,VA
22150,Fairfax,VA
22151,Fairfax,VA
22152,Fairfax,VA
22153,Fairfax,VA
22172,Prince William,VA
22180,Fairfax,VA
22181,Fairfax,VA
22182,Fairfax,VA
22191,Prince William,VA
22192,Prince William,VA
22193,Prince William,VA
22201,Arlington,VA
22202,Arlington,VA
22203,Arlington,VA
22204,Arlington,VA
22205,Arlington,VA
22206,Arlington,VA
22207,Arlington,VA
22209,Arlington,VA
22211,Arlington,VA
22213,Arlington,VA
22301,Alexandria city,VA
22302,Alexandria city,VA
22303,Fairfax,VA
22304,Alexandria city,VA
22305,Alexandria city,VA
22306,Fairfax,VA
22307,Fairfax,VA
22308,Fairfax,VA
22309,Fairfax,VA
22310,Fairfax,VA
22311,Alexandria city,VA
22312,Fairfax,VA
22314,Alexandria city,VA
22315,Fairfax,VA
22401,Fredericksburg city,VA
22405,Stafford,VA
22406,Stafford,VA
22407,Spotsylvania,VA
22408,Spotsylvania,VA
22427,Caroline,VA
22432,Northumberland,VA
22435,Northumberland,VA
22436,Essex,VA
22437,Essex,VA
22438,Essex,VA
22443,Westmoreland,VA
22448,King George,VA
22454,Essex,VA
22460,Richmond,VA
22473,Northumberland,VA
22476,Essex,VA
22480,Lancaster,VA
22482,Lancaster,VA
22485,King George,VA
22503,Lancaster,VA
22504,Essex,VA
22508,Orange,VA
22509,Essex,VA
22511,Northumberland,VA
22514,Caroline,VA
22535,Caroline,VA
22538,Caroline,VA
22539,Northumberland,VA
22551,Spotsylvania,VA
22553,Spotsylvania,VA
22554,Stafford,VA
22556,Stafford,VA
22560,Essex,VA
22572,Richmond,VA
22576,Lancaster,VA
22578,Lancaster,VA
22579,Northumberland,VA
22580,Caroline,VA
22601,Winchester city,VA
22602,Frederick,VA
22603,Frederick,VA
22611,Clarke,VA
22620,Clarke,VA
22624,Frederick,VA
22625,Frederick,VA
22630,Warren,VA
22637,Frederick,VA
22639,Fauquier,VA
22642,Warren,VA
22643,Fauquier,VA
22645,Frederick,VA
22654,Frederick,VA
22655,Frederick,VA
22656,Frederick,VA
22663,Frederick,VA
22712,Fauquier,VA
22720,Fauquier,VA
22728,Fauquier,VA
22742,Fauquier,VA
22901,Albemarle,VA
22902,Charlottesville city,VA
22903,Charlottesville city,VA
22904,Albemarle,VA
22911,Albemarle,VA
22920,Nelson,VA
22931,Albemarle,VA
22932,Albemarle,VA
22936,Albemarle,VA
22937,Albemarle,VA
22939,Augusta,VA
22940,Albemarle,VA
22942,Louisa,VA
22943,Albemarle,VA
22946,Albemarle,VA
22947,Albemarle,VA
22959,Albemarle,VA
22980,Waynesboro city,VA
23032,Middlesex,VA
23043,Middlesex,VA
23050,Mathews,VA
23059,Henrico,VA
23060,Henrico,VA
23061,Gloucester,VA
23062,Gloucester,VA
23070,Middlesex,VA
23071,Middlesex,VA
23072,Gloucester,VA
23079,Middlesex,VA
23092,Middlesex,VA
23093,Louisa,VA
23103,Goochland,VA
23111,Hanover,VA
23112,Chesterfield,VA
23113,Chesterfield,VA
23114,Chesterfield,VA
23116,Hanover,VA
23117,Louisa,VA
23120,Chesterfield,VA
23139,Powhatan,VA
23149,Middlesex,VA
23169,Middlesex,VA
23173,Richmond city,VA
23175,Middlesex,VA
23176,Middlesex,VA
23180,Middlesex,VA
23185,James City,VA
23188,James City,VA
23219,Richmond city,VA
23220,Richmond city,VA
23221,Richmond city,VA
23225,Richmond city,VA
23226,Richmond city,VA
23227,Henrico,VA
23228,Henrico,VA
23229,Henrico,VA
23230,Henrico,VA
23233,Henrico,VA
23235,Chesterfield,VA
23236,Chesterfield,VA
23238,Henrico,VA
23294,Henrico,VA
23298,Richmond City,VA
23314,Isle of Wight,VA
23320,Chesapeake city,VA
23322,Chesapeake city,VA
23323,Chesapeake city,VA
23324,Chesapeake city,VA
23430,Isle of Wight,VA
23432,Suffolk city,VA
23433,Suffolk city,VA
23434,Suffolk city,VA
23435,Suffolk city,VA
23436,Suffolk city,VA
23439,Suffolk City,VA
23451,Virginia Beach city,VA
23452,Virginia Beach city,VA
23453,Virginia Beach city,VA
23454,Virginia Beach city,VA
23455,Virginia Beach city,VA
23456,Virginia Beach city,VA
23460,Virginia Beach city,VA
23462,Virginia Beach city,VA
23464,Virginia Beach city,VA
23502,Norfolk city,VA
23505,Norfolk city,VA
23506,Norfolk City,VA
23507,Norfolk city,VA
23509,Norfolk city,VA
23510,Norfolk city,VA
23511,Norfolk city,VA
23514,Norfolk City,VA
23517,Norfolk city,VA
23541,Norfolk City,VA
23601,Newport News city,VA
23602,Newport News city,VA
23603,Newport News city,VA
23605,Newport News city,VA
23606,Newport News city,VA
23607,Newport News city,VA
23608,Newport News city,VA
23661,Hampton city,VA
23662,Poquoson city,VA
23663,Hampton city,VA
23664,Hampton city,VA
23666,Hampton city,VA
23669,Hampton city,VA
23690,York,VA
23692,York,VA
23693,York,VA
23696,York,VA
23701,Portsmouth city,VA
23703,Portsmouth city,VA
23704,Portsmouth city,VA
23705,Portsmouth City,VA
23707,Portsmouth city,VA
23708,Portsmouth city,VA
24011,Roanoke city,VA
24012,Roanoke city,VA
24013,Roanoke city,VA
24014,Roanoke city,VA
24015,Roanoke city,VA
24016,Roanoke city,VA
24017,Roanoke city,VA
24018,Roanoke,VA
24019,Roanoke,VA
24059,Roanoke,VA
24069,Pittsylvania,VA
24112,Henry,VA
24148,Henry,VA
24153,Salem city,VA
24401,Staunton city,VA
24416,Buena Vista city,VA
24441,Rockingham,VA
24477,Augusta,VA
24482,Augusta,VA
24501,Lynchburg city,VA
24502,Lynchburg city,VA
24503,Lynchburg city,VA
24504,Lynchburg city,VA
24505,Lynchburg City,VA
24513,Lynchburg City,VA
24514,Lynchburg City,VA
24515,Lynchburg City,VA
24521,Amherst,VA
24522,Appomattox,VA
24526,Bedford,VA
24533,Amherst,VA
24536,Bedford,VA
24538,Campbell,VA
24540,Danville city,VA
24541,Danville city,VA
24550,Campbell,VA
24551,Bedford,VA
24553,Nelson,VA
24556,Bedford,VA
24572,Amherst,VA
24574,Amherst,VA
24588,Campbell,VA
24593,Appomattox,VA
24595,Amherst,VA
25003,Lincoln,WV
25025,Kanawha,WV
25039,Kanawha,WV
25064,Kanawha,WV
25071,Kanawha,WV
25079,Kanawha,WV
25082,Putnam,WV
25083,Kanawha,WV
25103,Kanawha,WV
25124,Putnam,WV
25143,Kanawha,WV
25159,Putnam,WV
25168,Putnam,WV
25177,Kanawha,WV
25202,Kanawha,WV
25213,Putnam,WV
25302,Kanawha,WV
25303,Kanawha,WV
25304,Kanawha,WV
25309,Kanawha,WV
25312,Kanawha,WV
25313,Kanawha,WV
25314,Kanawha,WV
25315,Kanawha,WV
25320,Kanawha,WV
25504,Cabell,WV
25510,Cabell,WV
25526,Putnam,WV
25541,Cabell,WV
25560,Putnam,WV
25701,Cabell,WV
25702,Cabell,WV
25703,Cabell,WV
25704,Wayne,WV
25705,Cabell,WV
26003,Ohio,WV
26032,Brooke,WV
26033,Marshall,WV
26035,Brooke,WV
26036,Marshall,WV
26037,Brooke,WV
26039,Marshall,WV
26041,Marshall,WV
26055,Marshall,WV
26059,Ohio,WV
26060,Ohio,WV
26062,Hancock,WV
26070,Brooke,WV
26101,Wood,WV
26104,Wood,WV
26105,Wood,WV
26146,Tyler,WV
26155,Wetzel,WV
26159,Wetzel,WV
26175,Tyler,WV
26187,Wood,WV
26201,Upshur,WV
26210,Upshur,WV
26215,Webster,WV
26218,Upshur,WV
26228,Upshur,WV
26234,Upshur,WV
26236,Upshur,WV
26237,Upshur,WV
26238,Barbour,WV
26250,Barbour,WV
26267,Randolph,WV
26301,Harrison,WV
26321,Lewis,WV
26330,Harrison,WV
26332,,
26338,Lewis,WV
26343,Lewis,WV
26347,Taylor,WV
26354,Taylor,WV
26372,Lewis,WV
26378,Lewis,WV
26385,Harrison,WV
26386,Harrison,WV
26404,Harrison,WV
26405,Barbour,WV
26408,Harrison,WV
26412,Lewis,WV
26416,Barbour,WV
26426,Harrison,WV
26431,Harrison,WV
26440,Taylor,WV
26447,Lewis,WV
26448,Harrison,WV
26451,Harrison,WV
26452,Lewis,WV
26501,Monongalia,WV
26505,Monongalia,WV
26506,Monongalia,WV
26508,Monongalia,WV
26521,Monongalia,WV
26541,Monongalia,WV
26546,Monongalia,WV
26554,Marion,WV
26560,Marion,WV
26562,Wetzel,WV
26568,Harrison,WV
26570,Monongalia,WV
26571,Marion,WV
26582,Marion,WV
26585,Marion,WV
26587,Marion,WV
26588,Marion,WV
26590,Monongalia,WV
26591,Marion,WV
27012,Forsyth,NC
27101,Forsyth,NC
27103,Forsyth,NC
27104,Forsyth,NC
27106,Forsyth,NC
27215,Alamance,NC
27217,Alamance,NC
27231,Orange,NC
27243,Orange,NC
27244,Alamance,NC
27249,Guilford,NC
27253,Alamance,NC
27258,Alamance,NC
27262,Guilford,NC
27265,Guilford,NC
27278,Orange,NC
27282,Guilford,NC
27284,Forsyth,NC
27298,Randolph,NC
27302,Alamance,NC
27310,Guilford,NC
27312,Chatham,NC
27401,Guilford,NC
27403,Guilford,NC
27408,Guilford,NC
27409,Guilford,NC
27410,Guilford,NC
27502,Wake,NC
27510,Orange,NC
27511,Wake,NC
27512,Wake,NC
27513,Wake,NC
27514,Orange,NC
27516,Orange,NC
27517,Orange,NC
27518,Wake,NC
27519,Wake,NC
27523,Wake,NC
27526,Wake,NC
27529,Wake,NC
27539,Wake,NC
27540,Wake,NC
27545,Wake,NC
27546,Harnett,NC
27560,Wake,NC
27562,Chatham,NC
27571,Wake,NC
27587,Wake,NC
27588,Wake,NC
27591,Wake,NC
27592,Wake,NC
27597,Wake,NC
27601,Wake,NC
27602,Wake,NC
27603,Wake,NC
27604,Wake,NC
27605,Wake,NC
27606,Wake,NC
27607,Wake,NC
27608,Wake,NC
27609,Wake,NC
27610,Wake,NC
27611,Wake,NC
27612,Wake,NC
27613,Wake,NC
27614,Wake,NC
27615,Wake,NC
27616,Wake,NC
27617,Wake,NC
27619,Wake,NC
27620,Wake,NC
27621,Wake,NC
27622,Wake,NC
27623,Wake,NC
27624,Wake,NC
27625,Wake,NC
27626,Wake,NC
27627,Wake,NC
27628,Wake,NC
27629,Wake,NC
27634,Wake,NC
27635,Wake,NC
27636,Wake,NC
27640,Wake,NC
27650,Wake,NC
27656,Wake,NC
27658,Wake,NC
27661,Wake,NC
27668,Wake,NC
27675,Wake,NC
27676,Wake,NC
27690,Wake,NC
27695,Wake,NC
27697,Wake,NC
27698,Wake,NC
27699,Wake,NC
27705,Durham,NC
27707,Durham,NC
27709,Durham,NC
27710,Durham,NC
27713,Durham,NC
27817,Beaufort,NC
27824,Hyde,NC
27828,Pitt,NC
27834,Pitt,NC
27837,Pitt,NC
27858,Pitt,NC
27885,Hyde,NC
27889,Beaufort,NC
27909,Pasquotank,NC
27916,Currituck,NC
27917,Currituck,NC
27921,Camden,NC
27923,Currituck,NC
27925,Tyrrell,NC
27927,Currituck,NC
27929,Currituck,NC
27939,Currituck,NC
27941,Currituck,NC
27947,Currituck,NC
27948,Dare,NC
27949,Dare,NC
27950,Currituck,NC
27953,Dare,NC
27954,Dare,NC
27956,Currituck,NC
27958,Currituck,NC
27959,Dare,NC
27964,Currituck,NC
27965,Currituck,NC
27966,Currituck,NC
27973,Currituck,NC
27974,Camden,NC
27976,Camden,NC
27978,Dare,NC
27981,Dare,NC
28012,Gaston,NC
28025,Cabarrus,NC
28027,Cabarrus,NC
28031,Mecklenburg,NC
28032,Gaston,NC
28036,Mecklenburg,NC
28037,Lincoln,NC
28052,Gaston,NC
28054,Gaston,NC
28056,Gaston,NC
28075,Cabarrus,NC
28078,Mecklenburg,NC
28079,Union,NC
28086,Cleveland,NC
28098,Gaston,NC
28104,Union,NC
28105,Mecklenburg,NC
28115,Iredell,NC
28117,Iredell,NC
28120,Gaston,NC
28150,Cleveland,NC
28166,Iredell,NC
28173,Union,NC
28203,Mecklenburg,NC
28204,Mecklenburg,NC
28207,Mecklenburg,NC
28210,Mecklenburg,NC
28211,Mecklenburg,NC
28213,Mecklenburg,NC
28226,Mecklenburg,NC
28262,Mecklenburg,NC
28270,Mecklenburg,NC
28277,Mecklenburg,NC
28301,Cumberland,NC
28303,Cumberland,NC
28304,Cumberland,NC
28305,Cumberland,NC
28306,Bladen,NC
28307,Cumberland,NC
28308,Cumberland,NC
28310,Cumberland,NC
28311,Cumberland,NC
28312,Cumberland,NC
28314,Cumberland,NC
28315,Moore,NC
28323,Harnett,NC
28334,Sampson,NC
28337,Bladen,NC
28339,Harnett,NC
28348,Cumberland,NC
28356,Harnett,NC
28358,Robeson,NC
28360,Robeson,NC
28374,Moore,NC
28376,Hoke,NC
28384,Bladen,NC
28387,Moore,NC
28390,Harnett,NC
28395,Cumberland,NC
28399,Bladen,NC
28401,New Hanover,NC
28402,New Hanover,NC
28403,New Hanover,NC
28405,New Hanover,NC
28406,New Hanover,NC
28407,New Hanover,NC
28408,New Hanover,NC
28409,New Hanover,NC
28410,New Hanover,NC
28411,New Hanover,NC
28412,New Hanover,NC
28428,New Hanover,NC
28443,Pender,NC
28445,Onslow,NC
28449,New Hanover,NC
28451,Brunswick,NC
28460,Onslow,NC
28461,Brunswick,NC
28479,Brunswick,NC
28480,New Hanover,NC
28540,Onslow,NC
28545,Onslow,NC
28546,Onslow,NC
28557,Carteret,NC
28560,Craven,NC
28562,Craven,NC
28570,Carteret,NC
28571,Pamlico,NC
28590,Pitt,NC
28601,Catawba,NC
28602,Catawba,NC
28605,Watauga,NC
28612,Burke,NC
28613,Catawba,NC
28625,Iredell,NC
28630,Caldwell,NC
28637,Burke,NC
28638,Caldwell,NC
28645,Caldwell,NC
28655,Burke,NC
28658,Catawba,NC
28671,Burke,NC
28673,Catawba,NC
28677,Iredell,NC
28681,Alexander,NC
28690,Burke,NC
28704,Buncombe,NC
28711,Buncombe,NC
28730,Buncombe,NC
28739,Henderson,NC
28745,Haywood,NC
28751,Haywood,NC
28752,McDowell,NC
28785,Haywood,NC
28787,Buncombe,NC
28792,Henderson,NC
28801,Buncombe,NC
28803,Buncombe,NC
28804,Buncombe,NC
28805,Buncombe,NC
28806,Buncombe,NC
29001,Clarendon,SC
29002,Richland,SC
29006,Lexington,SC
29010,Lee,SC
29016,Richland,SC
29033,Lexington,SC
29036,Lexington,SC
29040,Sumter,SC
29041,Clarendon,SC
29044,Richland,SC
29046,Lee,SC
29051,Sumter,SC
29052,Richland,SC
29053,Lexington,SC
29054,Lexington,SC
29061,Richland,SC
29062,Sumter,SC
29063,Richland,SC
29070,Lexington,SC
29071,Lexington,SC
29072,Lexington,SC
29073,Lexington,SC
29080,Lee,SC
29102,Clarendon,SC
29104,Sumter,SC
29111,Clarendon,SC
29114,Florence,SC
29123,Lexington,SC
29125,Sumter,SC
29128,Sumter,SC
29143,Clarendon,SC
29147,Richland,SC
29148,Clarendon,SC
29150,Sumter,SC
29151,Sumter,SC
29152,Sumter,SC
29153,Sumter,SC
29154,Sumter,SC
29160,Lexington,SC
29161,Florence,SC
29162,Clarendon,SC
29168,Sumter,SC
29169,Lexington,SC
29170,Lexington,SC
29171,Lexington,SC
29172,Lexington,SC
29177,Richland,SC
29201,Richland,SC
29202,Richland,SC
29203,Richland,SC
29204,Richland,SC
29205,Richland,SC
29206,Richland,SC
29207,Richland,SC
29208,Richland,SC
29209,Richland,SC
29210,Richland,SC
29211,Richland,SC
29212,Lexington,SC
29214,Richland,SC
29215,Richland,SC
29216,Richland,SC
29217,Richland,SC
29218,Richland,SC
29219,Richland,SC
29220,Richland,SC
29221,Richland,SC
29222,Richland,SC
29223,Richland,SC
29224,Richland,SC
29225,Richland,SC
29226,Richland,SC
29227,Richland,SC
29228,Richland,SC
29229,Richland,SC
29230,Richland,SC
29240,Richland,SC
29250,Richland,SC
29260,Richland,SC
29290,Richland,SC
29292,Richland,SC
29301,Spartanburg,SC
29302,Spartanburg,SC
29303,Spartanburg,SC
29304,Spartanburg,SC
29305,Spartanburg,SC
29306,Spartanburg,SC
29319,Spartanburg,SC
29320,Spartanburg,SC
29334,Spartanburg,SC
29336,Spartanburg,SC
29365,Spartanburg,SC
29377,Spartanburg,SC
29378,Spartanburg,SC
29385,Spartanburg,SC
29386,Spartanburg,SC
29401,Charleston,SC
29402,Charleston,SC
29404,Charleston,SC
29406,Charleston,SC
29407,Charleston,SC
29410,Berkeley,SC
29412,Charleston,SC
29414,Charleston,SC
29415,Charleston,SC
29416,Charleston,SC
29417,Charleston,SC
29419,Charleston,SC
29420,Dorchester,SC
29422,Charleston,SC
29445,Berkeley,SC
29446,Colleton,SC
29451,Charleston,SC
29455,Charleston,SC
29456,Dorchester,SC
29457,Charleston,SC
29464,Charleston,SC
29465,Charleston,SC
29466,Charleston,SC
29482,Charleston,SC
29483,Dorchester,SC
29485,Dorchester,SC
29492,Berkeley,SC
29501,Florence,SC
29502,Florence,SC
29503,Florence,SC
29504,Florence,SC
29505,Florence,SC
29506,Florence,SC
29526,Horry,SC
29530,Florence,SC
29541,Florence,SC
29555,Florence,SC
29560,Florence,SC
29566,Horry,SC
29568,Horry,SC
29572,Horry,SC
29575,Horry,SC
29576,Horry,SC
29577,Horry,SC
29579,Horry,SC
29582,Horry,SC
29583,Florence,SC
29585,Georgetown,SC
29588,Horry,SC
29591,Florence,SC
29601,Greenville,SC
29605,Greenville,SC
29607,Greenville,SC
29609,Greenville,SC
29611,Greenville,SC
29615,Greenville,SC
29616,Greenville,SC
29621,Anderson,SC
29624,Anderson,SC
29625,Anderson,SC
29626,Anderson,SC
29650,Greenville,SC
29651,Greenville,SC
29662,Greenville,SC
29673,Greenville,SC
29681,Greenville,SC
29687,Greenville,SC
29688,Greenville,SC
29690,Greenville,SC
29697,Anderson,SC
29706,Chester,SC
29707,Lancaster,SC
29708,York,SC
29710,York,SC
29715,York,SC
29720,Lancaster,SC
29730,York,SC
29732,York,SC
29745,York,SC
29803,Aiken,SC
29809,Aiken,SC
29828,Aiken,SC
29829,Aiken,SC
29831,Aiken,SC
29841,Aiken,SC
29842,Aiken,SC
29851,Aiken,SC
29860,Edgefield,SC
29902,Beaufort,SC
29906,Beaufort,SC
29907,Beaufort,SC
29909,Beaufort,SC
29910,Beaufort,SC
29920,Beaufort,SC
29926,Beaufort,SC
29927,Jasper,SC
29928,Beaufort,SC
29936,Jasper,SC
29940,Beaufort,SC
29945,Hampton,SC
30002,DeKalb,GA
30004,Fulton,GA
30005,Fulton,GA
30007,Cobb,GA
30009,Fulton,GA
30011,Barrow,GA
30012,Rockdale,GA
30013,Rockdale,GA
30014,Newton,GA
30016,Newton,GA
30017,Gwinnett,GA
30019,Gwinnett,GA
30022,Fulton,GA
30024,Gwinnett,GA
30025,Walton,GA
30026,Gwinnett,GA
30028,Forsyth,GA
30029,Gwinnett,GA
30030,DeKalb,GA
30032,DeKalb,GA
30033,DeKalb,GA
30034,DeKalb,GA
30038,DeKalb,GA
30039,Gwinnett,GA
30040,Forsyth,GA
30041,Forsyth,GA
30043,Gwinnett,GA
30044,Gwinnett,GA
30045,Gwinnett,GA
30046,Gwinnett,GA
30047,Gwinnett,GA
30052,Walton,GA
30054,Newton,GA
30055,Jasper,GA
30056,Jasper,GA
30058,DeKalb,GA
30060,Cobb,GA
30061,Cobb,GA
30062,Cobb,GA
30064,Cobb,GA
30065,Cobb,GA
30066,Cobb,GA
30067,Cobb,GA
30068,Cobb,GA
30069,Cobb,GA
30071,Gwinnett,GA
30075,Fulton,GA
30076,Fulton,GA
30078,Gwinnett,GA
30080,Cobb,GA
30081,Cobb,GA
30082,Cobb,GA
30083,DeKalb,GA
30084,DeKalb,GA
30087,DeKalb,GA
30088,DeKalb,GA
30092,Gwinnett,GA
30093,Gwinnett,GA
30094,Rockdale,GA
30095,Gwinnett,GA
30096,Gwinnett,GA
30097,Fulton,GA
30099,Gwinnett,GA
30101,Cobb,GA
30102,Cherokee,GA
30106,Cobb,GA
30107,Cherokee,GA
30114,Cherokee,GA
30115,Cherokee,GA
30120,Bartow,GA
30121,Bartow,GA
30122,Douglas,GA
30126,Cobb,GA
30127,Cobb,GA
30132,Paulding,GA
30134,Douglas,GA
30135,Douglas,GA
30137,Bartow,GA
30141,Paulding,GA
30143,Pickens,GA
30144,Cobb,GA
30148,Pickens,GA
30152,Cobb,GA
30157,Paulding,GA
30168,Cobb,GA
30177,Pickens,GA
30188,Cherokee,GA
30189,Cherokee,GA
30205,Fayette,GA
30206,Pike,GA
30214,Fayette,GA
30215,Fayette,GA
30216,Butts,GA
30218,Meriwether,GA
30220,Coweta,GA
30222,Meriwether,GA
30223,Spalding,GA
30224,Spalding,GA
30228,Henry,GA
30230,Troup,GA
30233,Butts,GA
30234,Butts,GA
30236,Clayton,GA
30237,Clayton,GA
30240,Troup,GA
30241,Troup,GA
30248,Henry,GA
30251,Meriwether,GA
30252,Henry,GA
30253,Henry,GA
30256,Pike,GA
30257,Lamar,GA
30258,Pike,GA
30259,Coweta,GA
30260,Clayton,GA
30263,Coweta,GA
30265,Coweta,GA
30269,Fayette,GA
30272,Fulton,GA
30274,Clayton,GA
30276,Coweta,GA
30277,Coweta,GA
30281,Henry,GA
30287,Clayton,GA
30290,Fayette,GA
30292,Pike,GA
30293,Meriwether,GA
30294,DeKalb,GA
30295,Pike,GA
30303,Fulton,GA
30305,Fulton,GA
30306,Fulton,GA
30307,DeKalb,GA
30308,Fulton,GA
30309,Fulton,GA
30310,Fulton,GA
30311,Fulton,GA
30313,Fulton,GA
30317,DeKalb,GA
30318,Fulton,GA
30319,DeKalb,GA
30322,DeKalb,GA
30324,Fulton,GA
30326,Fulton,GA
30327,Fulton,GA
30328,Fulton,GA
30329,DeKalb,GA
30331,Fulton,GA
30338,DeKalb,GA
30339,Cobb,GA
30340,DeKalb,GA
30341,DeKalb,GA
30342,Fulton,GA
30345,DeKalb,GA
30346,DeKalb,GA
30349,Fulton,GA
30350,Fulton,GA
30360,DeKalb,GA
30362,Fulton,GA
30366,Fulton,GA
30501,Hall,GA
30504,Hall,GA
30506,Hall,GA
30507,Hall,GA
30510,Habersham,GA
30511,Banks,GA
30517,Jackson,GA
30518,Gwinnett,GA
30519,Gwinnett,GA
30521,Franklin,GA
30523,Habersham,GA
30525,Rabun,GA
30527,Hall,GA
30528,White,GA
30529,Jackson,GA
30530,Banks,GA
30531,Habersham,GA
30533,Lumpkin,GA
30534,Dawson,GA
30535,Habersham,GA
30542,Hall,GA
30543,Hall,GA
30545,White,GA
30547,Banks,GA
30548,Jackson,GA
30549,Jackson,GA
30552,Rabun,GA
30554,Hall,GA
30558,Jackson,GA
30562,Rabun,GA
30563,Habersham,GA
30564,Hall,GA
30566,Hall,GA
30567,Jackson,GA
30571,White,GA
30575,Jackson,GA
30576,Rabun,GA
30577,Stephens,GA
30598,Stephens,GA
30601,Clarke,GA
30602,Clarke,GA
30605,Clarke,GA
30606,Clarke,GA
30607,Clarke,GA
30609,Clarke,GA
30619,Oglethorpe,GA
30620,Barrow,GA
30621,Oconee,GA
30622,Oconee,GA
30625,Morgan,GA
30630,Oglethorpe,GA
30641,Walton,GA
30642,Greene,GA
30650,Morgan,GA
30655,Walton,GA
30656,Walton,GA
30663,Morgan,GA
30666,Barrow,GA
30667,Oglethorpe,GA
30669,Greene,GA
30677,Oconee,GA
30678,Greene,GA
30680,Barrow,GA
30683,Clarke,GA
30809,Columbia,GA
30904,Richmond,GA
30906,Richmond,GA
30907,Columbia,GA
30909,Richmond,GA
31005,Houston,GA
31007,Dooly,GA
31008,Peach,GA
31015,Crisp,GA
31017,Twiggs,GA
31020,Twiggs,GA
31024,Putnam,GA
31025,Houston,GA
31028,Houston,GA
31029,Monroe,GA
31030,Peach,GA
31044,Twiggs,GA
31047,Houston,GA
31051,Dooly,GA
31052,Bibb,GA
31064,Jasper,GA
31069,Houston,GA
31070,Dooly,GA
31072,Wilcox,GA
31085,Jasper,GA
31088,Houston,GA
31091,Dooly,GA
31092,Dooly,GA
31093,Houston,GA
31098,Houston,GA
31141,Fulton,GA
31201,Bibb,GA
31204,Bibb,GA
31206,Bibb,GA
31207,Bibb,GA
31210,Bibb,GA
31216,Bibb,GA
31217,Bibb,GA
31220,Bibb,GA
31302,Effingham,GA
31305,McIntosh,GA
31322,Chatham,GA
31328,Chatham,GA
31404,Chatham,GA
31405,Chatham,GA
31406,Chatham,GA
31407,Chatham,GA
31408,Chatham,GA
31409,Chatham,GA
31410,Chatham,GA
31411,Chatham,GA
31419,Chatham,GA
31501,Ware,GA
31503,Ware,GA
31516,Pierce,GA
31520,Glynn,GA
31522,Glynn,GA
31523,Glynn,GA
31525,Glynn,GA
31527,Glynn,GA
31537,Charlton,GA
31542,Brantley,GA
31547,Camden,GA
31548,Camden,GA
31553,Brantley,GA
31558,Camden,GA
31565,Camden,GA
31566,Brantley,GA
31568,Camden,GA
31569,Camden,GA
31637,Cook,GA
31712,Crisp,GA
31714,Turner,GA
31733,Tift,GA
31735,Sumter,GA
31775,Tift,GA
31790,Turner,GA
31793,Tift,GA
31794,Tift,GA
31816,Meriwether,GA
31830,Meriwether,GA
31901,Muscogee,GA
31903,Muscogee,GA
31904,Muscogee,GA
31906,Muscogee,GA
31907,Muscogee,GA
31909,Muscogee,GA
32003,Clay,FL
32006,Clay,FL
32030,Clay,FL
32034,Nassau,FL
32043,Clay,FL
32065,Clay,FL
32067,Clay,FL
32073,Clay,FL
32080,St. Johns,FL
32081,St. Johns,FL
32082,St. Johns,FL
32084,St. Johns,FL
32086,St. Johns,FL
32092,St. Johns,FL
32095,St. Johns,FL
32110,Flagler,FL
32114,Volusia,FL
32115,Volusia,FL
32117,Volusia,FL
32118,Volusia,FL
32119,Volusia,FL
32127,Volusia,FL
32128,Volusia,FL
32129,Volusia,FL
32136,Flagler,FL
32137,Flagler,FL
32159,Lake,FL
32162,Sumter,FL
32163,Sumter,FL
32164,Flagler,FL
32168,Volusia,FL
32174,Volusia,FL
32176,Volusia,FL
32179,Marion,FL
32195,Marion,FL
32202,Duval,FL
32204,Duval,FL
32205,Duval,FL
32207,Duval,FL
32210,Duval,FL
32211,Duval,FL
32212,Duval,FL
32214,Duval,FL
32216,Duval,FL
32217,Duval,FL
32222,Duval,FL
32223,Duval,FL
32224,Duval,FL
32225,Duval,FL
32226,Duval,FL
32227,Duval,FL
32233,Duval,FL
32238,Duval,FL
32244,Duval,FL
32246,Duval,FL
32250,Duval,FL
32256,Duval,FL
32257,Duval,FL
32258,Duval,FL
32259,St. Johns,FL
32266,Duval,FL
32301,Leon,FL
32303,Leon,FL
32306,Leon,FL
32307,Leon,FL
32308,Leon,FL
32309,Leon,FL
32311,Leon,FL
32312,Leon,FL
32313,Leon,FL
32317,Leon,FL
32399,Leon,FL
32401,Bay,FL
32405,Bay,FL
32407,Bay,FL
32408,Bay,FL
32413,Bay,FL
32444,Bay,FL
32459,Walton,FL
32501,Escambia,FL
32502,Escambia,FL
32503,Escambia,FL
32504,Escambia,FL
32505,Escambia,FL
32506,Escambia,FL
32507,Escambia,FL
32513,Escambia,FL
32514,Escambia,FL
32520,Escambia,FL
32522,Escambia,FL
32523,Escambia,FL
32526,Escambia,FL
32530,Santa Rosa,FL
32531,Okaloosa,FL
32533,Escambia,FL
32534,Escambia,FL
32536,Okaloosa,FL
32541,Okaloosa,FL
32547,Okaloosa,FL
32548,Okaloosa,FL
32550,Walton,FL
32561,Santa Rosa,FL
32563,Santa Rosa,FL
32564,Okaloosa,FL
32565,Santa Rosa,FL
32569,Okaloosa,FL
32570,Santa Rosa,FL
32571,Santa Rosa,FL
32572,Santa Rosa,FL
32577,Escambia,FL
32578,Okaloosa,FL
32579,Okaloosa,FL
32580,Okaloosa,FL
32583,Santa Rosa,FL
32591,Escambia,FL
32603,Alachua,FL
32605,Alachua,FL
32606,Alachua,FL
32607,Alachua,FL
32608,Alachua,FL
32609,Alachua,FL
32615,Alachua,FL
32617,Marion,FL
32618,Alachua,FL
32653,Alachua,FL
32669,Alachua,FL
32701,Seminole,FL
32703,Orange,FL
32704,Orange,FL
32708,Seminole,FL
32712,Orange,FL
32714,Seminole,FL
32720,Volusia,FL
32721,Volusia,FL
32722,Volusia,FL
32723,Volusia,FL
32724,Volusia,FL
32726,Lake,FL
32735,Lake,FL
32746,Seminole,FL
32750,Seminole,FL
32751,Orange,FL
32754,Brevard,FL
32757,Lake,FL
32763,Volusia,FL
32765,Seminole,FL
32771,Seminole,FL
32775,Brevard,FL
32776,Lake,FL
32778,Lake,FL
32779,Seminole,FL
32780,Brevard,FL
32784,Lake,FL
32789,Orange,FL
32792,Orange,FL
32796,Brevard,FL
32801,Orange,FL
32803,Orange,FL
32804,Orange,FL
32806,Orange,FL
32807,Orange,FL
32809,Orange,FL
32811,Orange,FL
32814,Orange,FL
32815,Brevard,FL
32816,Orange,FL
32817,Orange,FL
32819,Orange,FL
32820,Orange,FL
32821,Orange,FL
32822,Orange,FL
32824,Orange,FL
32825,Orange,FL
32826,Orange,FL
32827,Orange,FL
32828,Orange,FL
32829,Orange,FL
32832,Orange,FL
32835,Orange,FL
32836,Orange,FL
32837,Orange,FL
32899,Brevard,FL
32901,Brevard,FL
32903,Brevard,FL
32904,Brevard,FL
32905,Brevard,FL
32907,Brevard,FL
32908,Brevard,FL
32909,Brevard,FL
32920,Brevard,FL
32922,Brevard,FL
32925,Brevard,FL
32926,Brevard,FL
32927,Brevard,FL
32931,Brevard,FL
32934,Brevard,FL
32935,Brevard,FL
32937,Brevard,FL
32940,Brevard,FL
32949,Brevard,FL
32950,Brevard,FL
32951,Brevard,FL
32952,Brevard,FL
32953,Brevard,FL
32955,Brevard,FL
32960,Indian River,FL
32962,Indian River,FL
32968,Indian River,FL
32976,Brevard,FL
33063,Broward,FL
33064,Broward,FL
33065,Broward,FL
33066,Broward,FL
33067,Broward,FL
33071,Broward,FL
33073,Broward,FL
33076,Broward,FL
33134,Miami-Dade,FL
33138,Miami-Dade,FL
33140,Miami-Dade,FL
33141,Miami-Dade,FL
33143,Miami-Dade,FL
33146,Miami-Dade,FL
33149,Miami-Dade,FL
33154,Miami-Dade,FL
33155,Miami-Dade,FL
33156,Miami-Dade,FL
33157,Miami-Dade,FL
33158,Miami-Dade,FL
33160,Miami-Dade,FL
33165,Miami-Dade,FL
33173,Miami-Dade,FL
33180,Miami-Dade,FL
33181,Miami-Dade,FL
33183,Miami-Dade,FL
33256,Miami-Dade,FL
33283,Miami-Dade,FL
33321,Broward,FL
33322,Broward,FL
33351,Broward,FL
33401,Palm Beach,FL
33406,Palm Beach,FL
33407,Palm Beach,FL
33408,Palm Beach,FL
33410,Palm Beach,FL
33411,Palm Beach,FL
33414,Palm Beach,FL
33418,Palm Beach,FL
33426,Palm Beach,FL
33428,Palm Beach,FL
33431,Palm Beach,FL
33432,Palm Beach,FL
33433,Palm Beach,FL
33434,Palm Beach,FL
33435,Palm Beach,FL
33436,Palm Beach,FL
33437,Palm Beach,FL
33441,Broward,FL
33442,Broward,FL
33444,Palm Beach,FL
33445,Palm Beach,FL
33446,Palm Beach,FL
33449,Palm Beach,FL
33455,Martin,FL
33458,Palm Beach,FL
33461,Palm Beach,FL
33462,Palm Beach,FL
33467,Palm Beach,FL
33469,Palm Beach,FL
33472,Palm Beach,FL
33473,Palm Beach,FL
33477,Palm Beach,FL
33480,Palm Beach,FL
33483,Palm Beach,FL
33484,Palm Beach,FL
33486,Palm Beach,FL
33487,Palm Beach,FL
33496,Palm Beach,FL
33498,Palm Beach,FL
33510,Hillsborough,FL
33511,Hillsborough,FL
33513,Sumter,FL
33514,Sumter,FL
33525,Pasco,FL
33527,Hillsborough,FL
33534,Hillsborough,FL
33538,Sumter,FL
33541,Pasco,FL
33543,Pasco,FL
33544,Pasco,FL
33545,Pasco,FL
33547,Hillsborough,FL
33548,Hillsborough,FL
33549,Hillsborough,FL
33556,Hillsborough,FL
33558,Hillsborough,FL
33559,Hillsborough,FL
33563,Hillsborough,FL
33565,Hillsborough,FL
33566,Hillsborough,FL
33567,Hillsborough,FL
33569,Hillsborough,FL
33570,Hillsborough,FL
33572,Hillsborough,FL
33573,Hillsborough,FL
33578,Hillsborough,FL
33579,Hillsborough,FL
33584,Hillsborough,FL
33585,Sumter,FL
33586,Hillsborough,FL
33592,Hillsborough,FL
33594,Hillsborough,FL
33596,Hillsborough,FL
33597,Sumter,FL
33598,Hillsborough,FL
33602,Hillsborough,FL
33603,Hillsborough,FL
33604,Hillsborough,FL
33606,Hillsborough,FL
33607,Hillsborough,FL
33609,Hillsborough,FL
33611,Hillsborough,FL
33612,Hillsborough,FL
33613,Hillsborough,FL
33614,Hillsborough,FL
33617,Hillsborough,FL
33618,Hillsborough,FL
33624,Hillsborough,FL
33625,Hillsborough,FL
33626,Hillsborough,FL
33629,Hillsborough,FL
33634,Hillsborough,FL
33635,Hillsborough,FL
33647,Hillsborough,FL
33701,Pinellas,FL
33702,Pinellas,FL
33703,Pinellas,FL
33704,Pinellas,FL
33705,Pinellas,FL
33706,Pinellas,FL
33707,Pinellas,FL
33708,Pinellas,FL
33709,Pinellas,FL
33710,Pinellas,FL
33711,Pinellas,FL
33712,Pinellas,FL
33713,Pinellas,FL
33714,Pinellas,FL
33715,Pinellas,FL
33716,Pinellas,FL
33755,Pinellas,FL
33756,Pinellas,FL
33757,Pinellas,FL
33758,Pinellas,FL
33759,Pinellas,FL
33760,Pinellas,FL
33761,Pinellas,FL
33762,Pinellas,FL
33763,Pinellas,FL
33764,Pinellas,FL
33765,Pinellas,FL
33766,Pinellas,FL
33767,Pinellas,FL
33769,Pinellas,FL
33770,Pinellas,FL
33771,Pinellas,FL
33772,Pinellas,FL
33773,Pinellas,FL
33774,Pinellas,FL
33776,Pinellas,FL
33777,Pinellas,FL
33778,Pinellas,FL
33781,Pinellas,FL
33782,Pinellas,FL
33785,Pinellas,FL
33786,Pinellas,FL
33901,Lee,FL
33903,Lee,FL
33904,Lee,FL
33907,Lee,FL
33908,Lee,FL
33909,Lee,FL
33910,Lee,FL
33912,Lee,FL
33913,Lee,FL
33914,Lee,FL
33915,Lee,FL
33917,Lee,FL
33918,Lee,FL
33919,Lee,FL
33921,Lee,FL
33924,Lee,FL
33928,Lee,FL
33946,Charlotte,FL
33947,Charlotte,FL
33948,Charlotte,FL
33950,Charlotte,FL
33951,Charlotte,FL
33952,Charlotte,FL
33953,Charlotte,FL
33954,Charlotte,FL
33955,Charlotte,FL
33957,Lee,FL
33966,Lee,FL
33967,Lee,FL
33980,Charlotte,FL
33981,Charlotte,FL
33982,Charlotte,FL
33983,Charlotte,FL
33990,Lee,FL
33991,Lee,FL
33993,Lee,FL
34102,Collier,FL
34103,Collier,FL
34104,Collier,FL
34105,Collier,FL
34108,Collier,FL
34109,Collier,FL
34110,Collier,FL
34112,Collier,FL
34113,Collier,FL
34114,Collier,FL
34116,Collier,FL
34117,Collier,FL
34119,Collier,FL
34120,Collier,FL
34134,Lee,FL
34135,Lee,FL
34138,Collier,FL
34139,Collier,FL
34140,Collier,FL
34141,Collier,FL
34142,Collier,FL
34145,Collier,FL
34201,Manatee,FL
34202,Manatee,FL
34203,Manatee,FL
34205,Manatee,FL
34207,Manatee,FL
34208,Manatee,FL
34209,Manatee,FL
34210,Manatee,FL
34211,Manatee,FL
34212,Manatee,FL
34217,Manatee,FL
34219,Manatee,FL
34221,Manatee,FL
34222,Manatee,FL
34223,Sarasota,FL
34224,Charlotte,FL
34228,Sarasota,FL
34229,Sarasota,FL
34231,Sarasota,FL
34232,Sarasota,FL
34233,Sarasota,FL
34234,Sarasota,FL
34235,Sarasota,FL
34236,Sarasota,FL
34237,Sarasota,FL
34238,Sarasota,FL
34239,Sarasota,FL
34240,Sarasota,FL
34241,Sarasota,FL
34242,Sarasota,FL
34243,Manatee,FL
34251,Manatee,FL
34266,DeSoto,FL
34269,DeSoto,FL
34275,Sarasota,FL
34285,Sarasota,FL
34286,Sarasota,FL
34287,Sarasota,FL
34288,Sarasota,FL
34291,Sarasota,FL
34292,Sarasota,FL
34293,Sarasota,FL
34420,Marion,FL
34421,Marion,FL
34428,Citrus,FL
34430,Marion,FL
34432,Marion,FL
34433,Citrus,FL
34434,Citrus,FL
34436,Citrus,FL
34442,Citrus,FL
34446,Citrus,FL
34448,Citrus,FL
34450,Citrus,FL
34452,Citrus,FL
34453,Citrus,FL
34461,Citrus,FL
34465,Citrus,FL
34470,Marion,FL
34471,Marion,FL
34472,Marion,FL
34473,Marion,FL
34474,Marion,FL
34475,Marion,FL
34476,Marion,FL
34477,Marion,FL
34478,Marion,FL
34479,Marion,FL
34480,Marion,FL
34481,Marion,FL
34482,Marion,FL
34483,Marion,FL
34484,Sumter,FL
34488,Marion,FL
34489,Marion,FL
34491,Marion,FL
34492,Marion,FL
34498,Levy,FL
34601,Hernando,FL
34602,Hernando,FL
34604,Hernando,FL
34606,Hernando,FL
34607,Hernando,FL
34608,Hernando,FL
34609,Hernando,FL
34610,Pasco,FL
34613,Hernando,FL
34614,Hernando,FL
34638,Pasco,FL
34639,Pasco,FL
34652,Pasco,FL
34653,Pasco,FL
34654,Pasco,FL
34655,Pasco,FL
34661,Hernando,FL
34667,Pasco,FL
34668,Pasco,FL
34677,Pinellas,FL
34682,Pinellas,FL
34683,Pinellas,FL
34684,Pinellas,FL
34685,Pinellas,FL
34688,Pinellas,FL
34689,Pinellas,FL
34690,Pasco,FL
34691,Pasco,FL
34695,Pinellas,FL
34697,Pinellas,FL
34698,Pinellas,FL
34705,Lake,FL
34711,Lake,FL
34714,Lake,FL
34715,Lake,FL
34731,Lake,FL
34736,Lake,FL
34737,Lake,FL
34741,Osceola,FL
34743,Osceola,FL
34744,Osceola,FL
34746,Osceola,FL
34747,Osceola,FL
34748,Lake,FL
34753,Lake,FL
34756,Lake,FL
34758,Osceola,FL
34759,Polk,FL
34761,Orange,FL
34762,Lake,FL
34769,Osceola,FL
34771,Osceola,FL
34772,Osceola,FL
34773,Osceola,FL
34785,Sumter,FL
34786,Orange,FL
34787,Orange,FL
34788,Lake,FL
34797,Lake,FL
34945,St. Lucie,FL
34946,St. Lucie,FL
34947,St. Lucie,FL
34949,St. Lucie,FL
34950,St. Lucie,FL
34951,St. Lucie,FL
34952,St. Lucie,FL
34953,St. Lucie,FL
34981,St. Lucie,FL
34982,St. Lucie,FL
34983,St. Lucie,FL
34984,St. Lucie,FL
34986,St. Lucie,FL
34987,St. Lucie,FL
34990,Martin,FL
34994,Martin,FL
34996,Martin,FL
35004,St. Clair,AL
35006,Jefferson,AL
35007,Shelby,AL
35016,Marshall,AL
35019,Cullman,AL
35022,Jefferson,AL
35023,Jefferson,AL
35031,Blount,AL
35033,Cullman,AL
35035,Bibb,AL
35040,Shelby,AL
35042,Bibb,AL
35045,Chilton,AL
35053,Cullman,AL
35055,Cullman,AL
35057,Cullman,AL
35058,Cullman,AL
35063,Walker,AL
35077,Cullman,AL
35078,Shelby,AL
35079,Blount,AL
35083,Cullman,AL
35085,Chilton,AL
35087,Cullman,AL
35094,Jefferson,AL
35098,Cullman,AL
35111,Tuscaloosa,AL
35120,St. Clair,AL
35121,Blount,AL
35124,Shelby,AL
35125,St. Clair,AL
35128,St. Clair,AL
35135,St. Clair,AL
35147,Shelby,AL
35160,Talladega,AL
35171,Chilton,AL
35173,Jefferson,AL
35175,Marshall,AL
35176,Shelby,AL
35179,Cullman,AL
35180,Jefferson,AL
35188,Bibb,AL
35203,Jefferson,AL
35206,Jefferson,AL
35207,Jefferson,AL
35209,Jefferson,AL
35210,Jefferson,AL
35212,Jefferson,AL
35213,Jefferson,AL
35215,Jefferson,AL
35216,Jefferson,AL
35217,Jefferson,AL
35222,Jefferson,AL
35223,Jefferson,AL
35226,Jefferson,AL
35229,Jefferson,AL
35235,Jefferson,AL
35242,Shelby,AL
35243,Jefferson,AL
35244,Jefferson,AL
35404,Tuscaloosa,AL
35405,Tuscaloosa,AL
35406,Tuscaloosa,AL
35444,Tuscaloosa,AL
35452,Tuscaloosa,AL
35453,Tuscaloosa,AL
35456,Tuscaloosa,AL
35457,Tuscaloosa,AL
35458,Tuscaloosa,AL
35461,Pickens,AL
35463,Tuscaloosa,AL
35466,Pickens,AL
35473,Tuscaloosa,AL
35474,Hale,AL
35475,Tuscaloosa,AL
35490,Tuscaloosa,AL
35501,Walker,AL
35503,Walker,AL
35504,Walker,AL
35505,,
35540,Winston,AL
35541,Winston,AL
35542,Fayette,AL
35546,Fayette,AL
35550,Walker,AL
35555,Fayette,AL
35572,Winston,AL
35574,Lamar,AL
35576,Lamar,AL
35581,Franklin,AL
35582,Franklin,AL
35601,Morgan,AL
35602,Morgan,AL
35603,Morgan,AL
35609,Morgan,AL
35611,Limestone,AL
35612,Limestone,AL
35613,Limestone,AL
35614,Limestone,AL
35615,Limestone,AL
35619,Morgan,AL
35620,Limestone,AL
35621,Morgan,AL
35622,Morgan,AL
35630,Lauderdale,AL
35632,Lauderdale,AL
35633,Lauderdale,AL
35634,Lauderdale,AL
35640,Morgan,AL
35645,Lauderdale,AL
35647,Limestone,AL
35649,Limestone,AL
35650,Lawrence,AL
35652,Lauderdale,AL
35653,Franklin,AL
35654,Franklin,AL
35660,Colbert,AL
35661,Colbert,AL
35670,Morgan,AL
35671,Limestone,AL
35673,Morgan,AL
35674,Colbert,AL
35699,Morgan,AL
35739,Limestone,AL
35741,Madison,AL
35742,Limestone,AL
35748,Madison,AL
35749,Madison,AL
35750,Madison,AL
35754,Morgan,AL
35756,Limestone,AL
35757,Madison,AL
35758,Madison,AL
35759,Madison,AL
35760,Madison,AL
35761,Madison,AL
35762,Madison,AL
35763,Madison,AL
35767,Madison,AL
35773,Madison,AL
35775,Morgan,AL
35801,Madison,AL
35802,Madison,AL
35803,Madison,AL
35804,Madison,AL
35805,Madison,AL
35806,Madison,AL
35807,Madison,AL
35808,Madison,AL
35809,Madison,AL
35810,Madison,AL
35811,Madison,AL
35812,Madison,AL
35813,Madison,AL
35814,Madison,AL
35815,Madison,AL
35816,Madison,AL
35824,Madison,AL
35893,Madison,AL
35894,Madison,AL
35895,Madison,AL
35896,Madison,AL
35897,Madison,AL
35898,Madison,AL
35899,Madison,AL
35901,Etowah,AL
35904,Etowah,AL
35906,Etowah,AL
35952,Etowah,AL
35954,Etowah,AL
35976,Marshall,AL
36054,Elmore,AL
36064,Montgomery,AL
36066,Autauga,AL
36067,Autauga,AL
36078,Elmore,AL
36093,Elmore,AL
36104,Montgomery,AL
36106,Montgomery,AL
36107,Montgomery,AL
36109,Montgomery,AL
36110,Montgomery,AL
36111,Montgomery,AL
36112,Montgomery,AL
36113,Montgomery,AL
36114,Montgomery,AL
36115,Montgomery,AL
36117,Montgomery,AL
36130,Montgomery,AL
36201,Calhoun,AL
36203,Calhoun,AL
36205,Calhoun,AL
36206,Calhoun,AL
36207,Calhoun,AL
36260,Calhoun,AL
36265,Calhoun,AL
36511,Baldwin,AL
36526,Baldwin,AL
36527,Baldwin,AL
36532,Baldwin,AL
36533,Baldwin,AL
36535,Baldwin,AL
36551,Baldwin,AL
36577,Baldwin,AL
36578,Baldwin,AL
36601,Mobile,AL
36602,Mobile,AL
36603,Mobile,AL
36607,Mobile,AL
36608,Mobile,AL
36609,Mobile,AL
36628,Mobile,AL
36633,Mobile,AL
36641,Mobile,AL
36652,Mobile,AL
36670,Mobile,AL
36685,Mobile,AL
36689,Mobile,AL
36691,Mobile,AL
36801,Lee,AL
36804,Lee,AL
36830,Lee,AL
36832,Lee,AL
36849,Lee,AL
36866,Macon,AL
36867,Russell,AL
37013,Davidson,TN
37014,Williamson,TN
37015,Cheatham,TN
37018,Coffee,TN
37020,Bedford,TN
37027,Williamson,TN
37037,Rutherford,TN
37046,Williamson,TN
37060,Rutherford,TN
37064,Williamson,TN
37067,Williamson,TN
37069,Williamson,TN
37075,Sumner,TN
37076,Davidson,TN
37082,Cheatham,TN
37087,Wilson,TN
37091,Marshall,TN
37122,Wilson,TN
37128,Rutherford,TN
37129,Rutherford,TN
37135,Williamson,TN
37143,Cheatham,TN
37145,Smith,TN
37151,Smith,TN
37153,Rutherford,TN
37160,Bedford,TN
37180,Bedford,TN
37183,Bedford,TN
37187,Dickson,TN
37189,Davidson,TN
37201,Davidson,TN
37203,Davidson,TN
37204,Davidson,TN
37205,Davidson,TN
37206,Davidson,TN
37211,Davidson,TN
37212,Davidson,TN
37213,Davidson,TN
37214,Davidson,TN
37215,Davidson,TN
37219,Davidson,TN
37220,Davidson,TN
37221,Davidson,TN
37327,Sequatchie,TN
37334,Lincoln,TN
37340,Marion,TN
37350,Hamilton,TN
37351,Hamilton,TN
37352,Moore,TN
37355,Coffee,TN
37360,Coffee,TN
37377,Hamilton,TN
37388,Coffee,TN
37396,Marion,TN
37397,Marion,TN
37402,Hamilton,TN
37403,Hamilton,TN
37404,Hamilton,TN
37405,Hamilton,TN
37406,Hamilton,TN
37407,Hamilton,TN
37408,Hamilton,TN
37409,Hamilton,TN
37410,Hamilton,TN
37411,Hamilton,TN
37412,Hamilton,TN
37415,Hamilton,TN
37419,Hamilton,TN
37421,Hamilton,TN
37601,Washington,TN
37604,Washington,TN
37615,Washington,TN
37617,Sullivan,TN
37620,Sullivan,TN
37660,Sullivan,TN
37663,Sullivan,TN
37664,Sullivan,TN
37694,Carter,TN
37771,Loudon,TN
37772,Loudon,TN
37774,Loudon,TN
37830,Anderson,TN
37909,Knox,TN
37919,Knox,TN
37922,Knox,TN
37923,Knox,TN
37931,Knox,TN
37932,Knox,TN
38016,Shelby,TN
38017,Shelby,TN
38018,Shelby,TN
38103,Shelby,TN
38104,Shelby,TN
38106,Shelby,TN
38111,Shelby,TN
38114,Shelby,TN
38117,Shelby,TN
38119,Shelby,TN
38120,Shelby,TN
38126,Shelby,TN
38133,Shelby,TN
38134,Shelby,TN
38138,Shelby,TN
38139,Shelby,TN
38501,Putnam,TN
38506,Putnam,TN
38554,Overton,TN
38555,Cumberland,TN
38562,Jackson,TN
38571,Cumberland,TN
38574,Putnam,TN
38580,Overton,TN
38652,Union,MS
38655,Lafayette,MS
38801,Lee,MS
38804,Lee,MS
38821,Monroe,MS
38829,Prentiss,MS
38834,Alcorn,MS
38843,Itawamba,MS
38852,Tishomingo,MS
38863,Pontotoc,MS
39042,Rankin,MS
39056,Hinds,MS
39058,Hinds,MS
39074,Scott,MS
39092,Scott,MS
39117,Scott,MS
39145,Rankin,MS
39157,Madison,MS
39201,Hinds,MS
39202,Hinds,MS
39206,Hinds,MS
39208,Rankin,MS
39209,Hinds,MS
39210,Hinds,MS
39211,Hinds,MS
39212,Hinds,MS
39216,Hinds,MS
39218,Rankin,MS
39232,Rankin,MS
39272,Hinds,MS
39301,Lauderdale,MS
39307,Lauderdale,MS
39323,Newton,MS
39327,Newton,MS
39332,Newton,MS
39336,Newton,MS
39355,Clarke,MS
39366,Jasper,MS
39401,Forrest,MS
39406,Forrest,MS
39407,Forrest,MS
39425,Forrest,MS
39437,Jones,MS
39439,Jasper,MS
39440,Jones,MS
39443,Jones,MS
39459,Jones,MS
39464,Jones,MS
39465,Forrest,MS
39475,Lamar,MS
39479,Covington,MS
39482,Lamar,MS
39701,Lowndes,MS
39705,Lowndes,MS
39759,Oktibbeha,MS
39901,Fulton,GA
40003,Shelby,KY
40004,Nelson,KY
40008,Nelson,KY
40009,Marion,KY
40010,Oldham,KY
40012,Nelson,KY
40013,Nelson,KY
40014,Oldham,KY
40019,Henry,KY
40025,Jefferson,KY
40031,Oldham,KY
40033,Marion,KY
40036,Henry,KY
40037,Marion,KY
40047,Bullitt,KY
40051,Nelson,KY
40052,Nelson,KY
40055,Henry,KY
40056,Oldham,KY
40057,Henry,KY
40059,Jefferson,KY
40060,Marion,KY
40062,Marion,KY
40065,Shelby,KY
40069,Washington,KY
40076,Shelby,KY
40078,Washington,KY
40107,Nelson,KY
40109,Bullitt,KY
40150,Bullitt,KY
40162,Hardin,KY
40165,Bullitt,KY
40177,Hardin,KY
40205,Jefferson,KY
40206,Jefferson,KY
40207,Jefferson,KY
40220,Jefferson,KY
40222,Jefferson,KY
40223,Jefferson,KY
40241,Jefferson,KY
40242,Jefferson,KY
40243,Jefferson,KY
40291,Jefferson,KY
40299,Jefferson,KY
40324,Scott,KY
40328,Marion,KY
40330,Mercer,KY
40342,Anderson,KY
40347,Woodford,KY
40356,Jessamine,KY
40359,Owen,KY
40370,Scott,KY
40372,Mercer,KY
40379,Scott,KY
40383,Woodford,KY
40385,Madison,KY
40390,Jessamine,KY
40391,Clark,KY
40403,Madison,KY
40422,Boyle,KY
40440,Boyle,KY
40444,Garrard,KY
40475,Madison,KY
40502,Fayette,KY
40503,Fayette,KY
40504,Fayette,KY
40505,Fayette,KY
40507,Fayette,KY
40508,Fayette,KY
40509,Fayette,KY
40510,Fayette,KY
40511,Fayette,KY
40513,Fayette,KY
40514,Fayette,KY
40515,Fayette,KY
40517,Fayette,KY
40536,Fayette,KY
40601,Franklin,KY
41001,Campbell,KY
41005,Boone,KY
41007,Campbell,KY
41011,Kenton,KY
41012,Kenton,KY
41014,Kenton,KY
41015,Kenton,KY
41016,Kenton,KY
41017,Kenton,KY
41018,Kenton,KY
41019,Kenton,KY
41022,Boone,KY
41042,Boone,KY
41048,Boone,KY
41051,Kenton,KY
41053,Kenton,KY
41059,Campbell,KY
41063,Kenton,KY
41071,Campbell,KY
41072,Campbell,KY
41073,Campbell,KY
41074,Campbell,KY
41075,Campbell,KY
41076,Campbell,KY
41080,Boone,KY
41085,Campbell,KY
41091,Boone,KY
41092,Boone,KY
41094,Boone,KY
41099,Campbell,KY
42701,Hardin,KY
42716,Larue,KY
42748,Larue,KY
43001,Licking,OH
43005,Knox,OH
43011,Knox,OH
43015,Delaware,OH
43016,Franklin,OH
43017,Franklin,OH
43019,Knox,OH
43021,Delaware,OH
43022,Knox,OH
43023,Licking,OH
43025,Licking,OH
43026,Franklin,OH
43028,Knox,OH
43031,Licking,OH
43035,Delaware,OH
43037,Knox,OH
43046,Fairfield,OH
43050,Knox,OH
43054,Franklin,OH
43055,Licking,OH
43061,Delaware,OH
43062,Licking,OH
43064,Madison,OH
43065,Delaware,OH
43068,Franklin,OH
43074,Delaware,OH
43080,Licking,OH
43081,Franklin,OH
43082,Delaware,OH
43085,Franklin,OH
43105,Fairfield,OH
43110,Franklin,OH
43112,Fairfield,OH
43113,Pickaway,OH
43115,Ross,OH
43119,Franklin,OH
43123,Franklin,OH
43125,Franklin,OH
43130,Fairfield,OH
43136,Fairfield,OH
43137,Pickaway,OH
43140,Madison,OH
43146,Pickaway,OH
43147,Fairfield,OH
43160,Fayette,OH
43162,Madison,OH
43164,Pickaway,OH
43205,Franklin,OH
43206,Franklin,OH
43209,Franklin,OH
43210,Franklin,OH
43212,Franklin,OH
43213,Franklin,OH
43214,Franklin,OH
43217,Franklin,OH
43220,Franklin,OH
43221,Franklin,OH
43223,Franklin,OH
43228,Franklin,OH
43229,Franklin,OH
43230,Franklin,OH
43235,Franklin,OH
43240,Delaware,OH
43321,Morrow,OH
43334,Morrow,OH
43338,Morrow,OH
43402,Wood,OH
43403,Wood,OH
43460,Wood,OH
43501,Williams,OH
43502,Fulton,OH
43504,Lucas,OH
43506,Williams,OH
43512,Defiance,OH
43515,Fulton,OH
43516,Henry,OH
43517,Williams,OH
43518,Williams,OH
43521,Fulton,OH
43522,Wood,OH
43524,Henry,OH
43525,Wood,OH
43526,Defiance,OH
43527,Henry,OH
43528,Lucas,OH
43532,Henry,OH
43533,Fulton,OH
43534,Henry,OH
43535,Henry,OH
43536,Defiance,OH
43537,Lucas,OH
43540,Fulton,OH
43542,Lucas,OH
43543,Williams,OH
43545,Henry,OH
43548,Henry,OH
43549,Defiance,OH
43551,Wood,OH
43554,Williams,OH
43556,Defiance,OH
43557,Williams,OH
43558,Fulton,OH
43560,Lucas,OH
43566,Lucas,OH
43567,Fulton,OH
43570,Williams,OH
43571,Lucas,OH
43606,Lucas,OH
43608,Lucas,OH
43611,Lucas,OH
43612,Lucas,OH
43613,Lucas,OH
43614,Lucas,OH
43615,Lucas,OH
43617,Lucas,OH
43623,Lucas,OH
43701,Muskingum,OH
43713,Belmont,OH
43718,Belmont,OH
43719,Belmont,OH
43725,Guernsey,OH
43755,Guernsey,OH
43762,Muskingum,OH
43767,Muskingum,OH
43773,Guernsey,OH
43778,Guernsey,OH
43912,Belmont,OH
43920,Columbiana,OH
43930,Jefferson,OH
43935,Belmont,OH
43943,Jefferson,OH
43946,Monroe,OH
43950,Belmont,OH
43952,Jefferson,OH
43953,Jefferson,OH
43968,Columbiana,OH
44001,Lorain,OH
44011,Lorain,OH
44012,Lorain,OH
44017,Cuyahoga,OH
44021,Geauga,OH
44022,Cuyahoga,OH
44023,Geauga,OH
44024,Geauga,OH
44026,Geauga,OH
44028,Lorain,OH
44035,Lorain,OH
44039,Lorain,OH
44040,Cuyahoga,OH
44046,Geauga,OH
44052,Lorain,OH
44053,Lorain,OH
44054,Lorain,OH
44055,Lorain,OH
44056,Summit,OH
44057,Lake,OH
44060,Lake,OH
44064,Geauga,OH
44065,Geauga,OH
44067,Summit,OH
44070,Cuyahoga,OH
44072,Geauga,OH
44074,Lorain,OH
44077,Lake,OH
44081,Lake,OH
44086,Geauga,OH
44087,Summit,OH
44089,Erie,OH
44092,Lake,OH
44094,Lake,OH
44095,Lake,OH
44106,Cuyahoga,OH
44107,Cuyahoga,OH
44108,Cuyahoga,OH
44109,Cuyahoga,OH
44111,Cuyahoga,OH
44113,Cuyahoga,OH
44116,Cuyahoga,OH
44117,Cuyahoga,OH
44119,Cuyahoga,OH
44120,Cuyahoga,OH
44122,Cuyahoga,OH
44123,Cuyahoga,OH
44124,Cuyahoga,OH
44125,Cuyahoga,OH
44126,Cuyahoga,OH
44127,Cuyahoga,OH
44129,Cuyahoga,OH
44130,Cuyahoga,OH
44132,Cuyahoga,OH
44133,Cuyahoga,OH
44135,Cuyahoga,OH
44136,Cuyahoga,OH
44138,Cuyahoga,OH
44139,Cuyahoga,OH
44141,Cuyahoga,OH
44142,Cuyahoga,OH
44143,Cuyahoga,OH
44144,Cuyahoga,OH
44145,Cuyahoga,OH
44147,Cuyahoga,OH
44149,Cuyahoga,OH
44201,Portage,OH
44202,Portage,OH
44203,Summit,OH
44212,Medina,OH
44215,Medina,OH
44216,Summit,OH
44217,Wayne,OH
44221,Summit,OH
44222,Summit,OH
44223,Summit,OH
44224,Summit,OH
44230,Wayne,OH
44231,Portage,OH
44233,Medina,OH
44234,Portage,OH
44236,Summit,OH
44240,Portage,OH
44241,Portage,OH
44254,Medina,OH
44255,Portage,OH
44256,Medina,OH
44260,Portage,OH
44264,Summit,OH
44266,Portage,OH
44270,Wayne,OH
44272,Portage,OH
44273,Medina,OH
44276,Wayne,OH
44278,Summit,OH
44280,Medina,OH
44281,Medina,OH
44286,Summit,OH
44287,Wayne,OH
44301,Summit,OH
44302,Summit,OH
44303,Summit,OH
44304,Summit,OH
44305,Summit,OH
44306,Summit,OH
44307,Summit,OH
44308,Summit,OH
44309,Summit,OH
44310,Summit,OH
44311,Summit,OH
44312,Summit,OH
44313,Summit,OH
44314,Summit,OH
44315,Summit,OH
44316,Summit,OH
44317,Summit,OH
44319,Summit,OH
44320,Summit,OH
44321,Summit,OH
44325,Summit,OH
44326,Summit,OH
44328,Summit,OH
44333,Summit,OH
44334,Summit,OH
44372,Summit,OH
44396,Summit,OH
44398,Summit,OH
44401,Mahoning,OH
44402,Trumbull,OH
44403,Trumbull,OH
44404,Trumbull,OH
44405,Mahoning,OH
44406,Mahoning,OH
44408,Columbiana,OH
44410,Trumbull,OH
44411,Portage,OH
44412,Portage,OH
44413,Columbiana,OH
44415,Columbiana,OH
44417,Trumbull,OH
44418,Trumbull,OH
44420,Trumbull,OH
44425,Trumbull,OH
44429,Mahoning,OH
44430,Trumbull,OH
44431,Columbiana,OH
44436,Mahoning,OH
44437,Trumbull,OH
44438,Trumbull,OH
44440,Trumbull,OH
44441,Columbiana,OH
44442,Mahoning,OH
44443,Mahoning,OH
44444,Trumbull,OH
44445,Columbiana,OH
44446,Trumbull,OH
44449,Mahoning,OH
44451,Mahoning,OH
44452,Mahoning,OH
44454,Mahoning,OH
44460,Columbiana,OH
44470,Trumbull,OH
44471,Mahoning,OH
44473,Trumbull,OH
44481,Trumbull,OH
44483,Trumbull,OH
44484,Trumbull,OH
44485,Trumbull,OH
44490,Columbiana,OH
44491,Trumbull,OH
44492,Columbiana,OH
44493,Columbiana,OH
44502,Mahoning,OH
44503,Mahoning,OH
44504,Mahoning,OH
44505,Mahoning,OH
44506,Mahoning,OH
44507,Mahoning,OH
44509,Mahoning,OH
44510,Mahoning,OH
44511,Mahoning,OH
44512,Mahoning,OH
44513,Mahoning,OH
44514,Mahoning,OH
44515,Mahoning,OH
44555,Mahoning,OH
44601,Stark,OH
44606,Wayne,OH
44609,Mahoning,OH
44614,Stark,OH
44618,Wayne,OH
44625,Columbiana,OH
44634,Columbiana,OH
44645,Wayne,OH
44646,Stark,OH
44647,Stark,OH
44665,Columbiana,OH
44666,Stark,OH
44667,Wayne,OH
44672,Mahoning,OH
44677,Wayne,OH
44685,Summit,OH
44691,Wayne,OH
44708,Stark,OH
44709,Stark,OH
44714,Stark,OH
44718,Stark,OH
44720,Stark,OH
44721,Stark,OH
44805,Ashland,OH
44813,Richland,OH
44822,Richland,OH
44833,Crawford,OH
44839,Erie,OH
44840,Ashland,OH
44842,Ashland,OH
44843,Richland,OH
44864,Ashland,OH
44866,Ashland,OH
44870,Erie,OH
44875,Richland,OH
44902,Richland,OH
44903,Richland,OH
44904,Richland,OH
44905,Richland,OH
44906,Richland,OH
44907,Richland,OH
45002,Hamilton,OH
45005,Warren,OH
45011,Butler,OH
45013,Butler,OH
45014,Butler,OH
45015,Butler,OH
45030,Hamilton,OH
45036,Warren,OH
45039,Warren,OH
45040,Warren,OH
45042,Butler,OH
45044,Butler,OH
45050,Butler,OH
45052,Hamilton,OH
45053,Butler,OH
45054,Warren,OH
45056,Butler,OH
45064,Butler,OH
45065,Warren,OH
45066,Warren,OH
45067,Butler,OH
45068,Warren,OH
45069,Butler,OH
45103,Clermont,OH
45106,Clermont,OH
45107,Clinton,OH
45111,Hamilton,OH
45113,Clinton,OH
45114,Clinton,OH
45118,Brown,OH
45122,Clermont,OH
45123,Highland,OH
45132,Highland,OH
45133,Highland,OH
45135,Highland,OH
45140,Clermont,OH
45142,Highland,OH
45146,Clinton,OH
45148,Clinton,OH
45150,Clermont,OH
45152,Warren,OH
45154,Brown,OH
45158,Clermont,OH
45159,Clinton,OH
45160,Clermont,OH
45162,Warren,OH
45164,Clinton,OH
45166,Clinton,OH
45169,Clinton,OH
45171,Brown,OH
45174,Hamilton,OH
45176,Clermont,OH
45177,Clinton,OH
45206,Hamilton,OH
45207,Hamilton,OH
45208,Hamilton,OH
45209,Hamilton,OH
45211,Hamilton,OH
45212,Hamilton,OH
45213,Hamilton,OH
45214,Hamilton,OH
45215,Hamilton,OH
45216,Hamilton,OH
45217,Hamilton,OH
45218,Hamilton,OH
45220,Hamilton,OH
45223,Hamilton,OH
45224,Hamilton,OH
45226,Hamilton,OH
45227,Hamilton,OH
45228,Hamilton,OH
45229,Hamilton,OH
45230,Hamilton,OH
45231,Hamilton,OH
45233,Hamilton,OH
45236,Hamilton,OH
45237,Hamilton,OH
45238,Hamilton,OH
45239,Hamilton,OH
45240,Hamilton,OH
45241,Hamilton,OH
45242,Hamilton,OH
45243,Hamilton,OH
45244,Hamilton,OH
45245,Clermont,OH
45246,Hamilton,OH
45247,Hamilton,OH
45248,Hamilton,OH
45249,Hamilton,OH
45251,Hamilton,OH
45252,Hamilton,OH
45254,Hamilton,OH
45255,Hamilton,OH
45275,Hamilton,OH
45302,Shelby,OH
45304,Darke,OH
45305,Greene,OH
45306,Shelby,OH
45309,Montgomery,OH
45311,Preble,OH
45314,Greene,OH
45315,Montgomery,OH
45319,Clark,OH
45320,Preble,OH
45321,Preble,OH
45322,Montgomery,OH
45323,Clark,OH
45324,Greene,OH
45325,Montgomery,OH
45327,Montgomery,OH
45333,Shelby,OH
45335,Greene,OH
45337,Miami,OH
45338,Preble,OH
45339,Miami,OH
45342,Montgomery,OH
45345,Montgomery,OH
45347,Preble,OH
45356,Miami,OH
45359,Miami,OH
45363,Shelby,OH
45365,Shelby,OH
45370,Greene,OH
45371,Miami,OH
45373,Miami,OH
45377,Montgomery,OH
45381,Preble,OH
45382,Preble,OH
45383,Miami,OH
45385,Greene,OH
45420,Montgomery,OH
45424,Montgomery,OH
45429,Montgomery,OH
45430,Greene,OH
45431,Montgomery,OH
45432,Greene,OH
45434,Greene,OH
45440,Montgomery,OH
45458,Montgomery,OH
45459,Montgomery,OH
45601,Ross,OH
45612,Ross,OH
45613,Pike,OH
45628,Ross,OH
45640,Jackson,OH
45648,Scioto,OH
45661,Pike,OH
45681,Ross,OH
45690,Pike,OH
45750,Washington,OH
45767,Washington,OH
45768,Washington,OH
45773,Washington,OH
45845,Shelby,OH
45865,Auglaize,OH
45869,Auglaize,OH
45885,Auglaize,OH
45895,Auglaize,OH
46011,Madison,IN
46012,Madison,IN
46013,Madison,IN
46017,Madison,IN
46030,Hamilton,IN
46031,Hamilton,IN
46032,Hamilton,IN
46033,Hamilton,IN
46034,Hamilton,IN
46035,Clinton,IN
46036,Madison,IN
46037,Hamilton,IN
46038,Hamilton,IN
46039,Clinton,IN
46040,Hancock,IN
46041,Clinton,IN
46044,Madison,IN
46045,Tipton,IN
46047,Tipton,IN
46049,Tipton,IN
46050,Clinton,IN
46051,Madison,IN
46052,Boone,IN
46055,Hancock,IN
46057,Clinton,IN
46058,Clinton,IN
46060,Hamilton,IN
46062,Hamilton,IN
46064,Madison,IN
46065,Clinton,IN
46067,Clinton,IN
46068,Tipton,IN
46069,Hamilton,IN
46072,Tipton,IN
46074,Hamilton,IN
46076,Tipton,IN
46077,Boone,IN
46104,Rush,IN
46106,Johnson,IN
46107,Marion,IN
46110,Shelby,IN
46112,Hendricks,IN
46115,Rush,IN
46118,Hendricks,IN
46120,Putnam,IN
46121,Putnam,IN
46122,Hendricks,IN
46123,Hendricks,IN
46124,Johnson,IN
46126,Shelby,IN
46127,Rush,IN
46128,Putnam,IN
46130,Shelby,IN
46131,Johnson,IN
46133,Fayette,IN
46135,Putnam,IN
46140,Hancock,IN
46142,Johnson,IN
46143,Johnson,IN
46150,Rush,IN
46151,Morgan,IN
46156,Rush,IN
46157,Morgan,IN
46158,Morgan,IN
46160,Brown,IN
46161,Shelby,IN
46162,Johnson,IN
46163,Hancock,IN
46164,Johnson,IN
46168,Hendricks,IN
46173,Rush,IN
46176,Shelby,IN
46180,Hendricks,IN
46181,Johnson,IN
46182,Shelby,IN
46184,Johnson,IN
46202,Marion,IN
46205,Marion,IN
46217,Marion,IN
46219,Marion,IN
46220,Marion,IN
46227,Marion,IN
46228,Marion,IN
46229,Marion,IN
46234,Marion,IN
46235,Marion,IN
46236,Marion,IN
46237,Marion,IN
46240,Marion,IN
46250,Marion,IN
46256,Marion,IN
46260,Marion,IN
46268,Marion,IN
46280,Hamilton,IN
46290,Hamilton,IN
46303,Lake,IN
46307,Lake,IN
46311,Lake,IN
46319,Lake,IN
46321,Lake,IN
46322,Lake,IN
46342,Lake,IN
46350,LaPorte,IN
46356,Lake,IN
46360,LaPorte,IN
46371,LaPorte,IN
46373,Lake,IN
46375,Lake,IN
46383,Porter,IN
46385,Porter,IN
46410,Lake,IN
46506,Marshall,IN
46507,Elkhart,IN
46514,Elkhart,IN
46517,Elkhart,IN
46526,Elkhart,IN
46528,Elkhart,IN
46530,St. Joseph,IN
46538,Kosciusko,IN
46540,Elkhart,IN
46542,Kosciusko,IN
46544,St. Joseph,IN
46545,St. Joseph,IN
46550,Elkhart,IN
46552,St. Joseph,IN
46553,Elkhart,IN
46563,Marshall,IN
46573,Elkhart,IN
46580,Kosciusko,IN
46582,Kosciusko,IN
46601,St. Joseph,IN
46615,St. Joseph,IN
46617,St. Joseph,IN
46635,St. Joseph,IN
46637,St. Joseph,IN
46725,Whitley,IN
46748,Allen,IN
46750,Huntington,IN
46765,Allen,IN
46774,Allen,IN
46783,Huntington,IN
46802,Allen,IN
46803,Allen,IN
46804,Allen,IN
46805,Allen,IN
46807,Allen,IN
46808,Allen,IN
46809,Allen,IN
46814,Allen,IN
46815,Allen,IN
46818,Allen,IN
46819,Allen,IN
46825,Allen,IN
46835,Allen,IN
46845,Allen,IN
46901,Howard,IN
46902,Howard,IN
46904,Howard,IN
46936,Howard,IN
46937,Howard,IN
46965,Howard,IN
46979,Howard,IN
46995,Howard,IN
47106,Clark,IN
47112,Harrison,IN
47119,Floyd,IN
47122,Floyd,IN
47124,Floyd,IN
47126,Clark,IN
47129,Clark,IN
47130,Clark,IN
47136,Harrison,IN
47143,Clark,IN
47150,Floyd,IN
47164,Harrison,IN
47165,Washington,IN
47170,Scott,IN
47172,Clark,IN
47201,Bartholomew,IN
47203,Bartholomew,IN
47220,Jackson,IN
47232,Bartholomew,IN
47234,Shelby,IN
47236,Bartholomew,IN
47244,Bartholomew,IN
47246,Bartholomew,IN
47274,Jackson,IN
47303,Delaware,IN
47304,Delaware,IN
47334,Delaware,IN
47396,Delaware,IN
47401,Monroe,IN
47403,Monroe,IN
47404,Monroe,IN
47405,Monroe,IN
47406,Monroe,IN
47408,Monroe,IN
47429,Monroe,IN
47448,Brown,IN
47468,Monroe,IN
47618,Vanderburgh,IN
47629,Warrick,IN
47630,Warrick,IN
47708,Vanderburgh,IN
47710,Vanderburgh,IN
47711,Vanderburgh,IN
47712,Vanderburgh,IN
47714,Vanderburgh,IN
47715,Vanderburgh,IN
47716,Vanderburgh,IN
47719,Vanderburgh,IN
47720,Vanderburgh,IN
47724,Vanderburgh,IN
47725,Vanderburgh,IN
47728,Vanderburgh,IN
47802,Vigo,IN
47803,Vigo,IN
47804,Vigo,IN
47834,Clay,IN
47837,Clay,IN
47846,Clay,IN
47872,Parke,IN
47901,Tippecanoe,IN
47902,Tippecanoe,IN
47903,Tippecanoe,IN
47904,Tippecanoe,IN
47905,Tippecanoe,IN
47906,Tippecanoe,IN
47907,Tippecanoe,IN
47909,Tippecanoe,IN
47920,Tippecanoe,IN
47924,Tippecanoe,IN
47930,Tippecanoe,IN
47933,Montgomery,IN
47940,Montgomery,IN
47941,Tippecanoe,IN
47954,Montgomery,IN
47955,Montgomery,IN
47962,Tippecanoe,IN
47967,Montgomery,IN
47968,Montgomery,IN
47981,Tippecanoe,IN
47983,Tippecanoe,IN
47989,Montgomery,IN
47990,Montgomery,IN
47992,Tippecanoe,IN
47994,Montgomery,IN
47996,Tippecanoe,IN
48001,St. Clair,MI
48002,St. Clair,MI
48003,Lapeer,MI
48005,Macomb,MI
48006,St. Clair,MI
48009,Oakland,MI
48014,St. Clair,MI
48017,Oakland,MI
48022,St. Clair,MI
48023,St. Clair,MI
48025,Oakland,MI
48027,St. Clair,MI
48028,St. Clair,MI
48032,St. Clair,MI
48033,Oakland,MI
48034,Oakland,MI
48038,Macomb,MI
48039,St. Clair,MI
48040,St. Clair,MI
48041,St. Clair,MI
48042,Macomb,MI
48044,Macomb,MI
48045,Macomb,MI
48047,Macomb,MI
48048,Macomb,MI
48049,St. Clair,MI
48050,Macomb,MI
48054,St. Clair,MI
48059,St. Clair,MI
48060,St. Clair,MI
48062,Macomb,MI
48063,St. Clair,MI
48064,St. Clair,MI
48065,Macomb,MI
48067,Oakland,MI
48071,Oakland,MI
48072,Oakland,MI
48073,Oakland,MI
48074,St. Clair,MI
48075,Oakland,MI
48076,Oakland,MI
48079,St. Clair,MI
48080,Macomb,MI
48081,Macomb,MI
48082,Macomb,MI
48083,Oakland,MI
48084,Oakland,MI
48088,Macomb,MI
48093,Macomb,MI
48094,Macomb,MI
48095,Macomb,MI
48096,Macomb,MI
48097,St. Clair,MI
48098,Oakland,MI
48101,Wayne,MI
48103,Washtenaw,MI
48104,Washtenaw,MI
48105,Washtenaw,MI
48106,Washtenaw,MI
48107,Washtenaw,MI
48108,Washtenaw,MI
48109,Washtenaw,MI
48111,Wayne,MI
48113,Washtenaw,MI
48114,Livingston,MI
48116,Livingston,MI
48117,Monroe,MI
48118,Washtenaw,MI
48120,Wayne,MI
48124,Wayne,MI
48125,Wayne,MI
48126,Wayne,MI
48130,Washtenaw,MI
48131,Monroe,MI
48133,Monroe,MI
48134,Wayne,MI
48135,Wayne,MI
48137,Livingston,MI
48138,Wayne,MI
48140,Monroe,MI
48141,Wayne,MI
48144,Monroe,MI
48145,Monroe,MI
48146,Wayne,MI
48150,Wayne,MI
48152,Wayne,MI
48154,Wayne,MI
48157,Monroe,MI
48158,Washtenaw,MI
48159,Monroe,MI
48160,Washtenaw,MI
48161,Monroe,MI
48162,Monroe,MI
48164,Wayne,MI
48166,Monroe,MI
48167,Oakland,MI
48168,Wayne,MI
48169,Livingston,MI
48170,Wayne,MI
48173,Wayne,MI
48174,Wayne,MI
48176,Washtenaw,MI
48178,Oakland,MI
48179,Monroe,MI
48180,Wayne,MI
48182,Monroe,MI
48183,Wayne,MI
48184,Wayne,MI
48185,Wayne,MI
48186,Wayne,MI
48187,Wayne,MI
48188,Wayne,MI
48189,Washtenaw,MI
48191,Washtenaw,MI
48192,Wayne,MI
48193,Wayne,MI
48195,Wayne,MI
48197,Washtenaw,MI
48198,Washtenaw,MI
48201,Wayne,MI
48206,Wayne,MI
48208,Wayne,MI
48219,Wayne,MI
48221,Wayne,MI
48223,Wayne,MI
48226,Wayne,MI
48235,Wayne,MI
48236,Wayne,MI
48237,Oakland,MI
48238,Wayne,MI
48239,Wayne,MI
48240,Wayne,MI
48242,Wayne,MI
48301,Oakland,MI
48302,Oakland,MI
48304,Oakland,MI
48306,Oakland,MI
48307,Oakland,MI
48309,Oakland,MI
48310,Macomb,MI
48311,Macomb,MI
48312,Macomb,MI
48313,Macomb,MI
48314,Macomb,MI
48315,Macomb,MI
48316,Macomb,MI
48317,Macomb,MI
48322,Oakland,MI
48323,Oakland,MI
48324,Oakland,MI
48326,Oakland,MI
48329,Oakland,MI
48331,Oakland,MI
48334,Oakland,MI
48335,Oakland,MI
48336,Oakland,MI
48346,Oakland,MI
48348,Oakland,MI
48350,Oakland,MI
48353,Livingston,MI
48356,Oakland,MI
48357,Oakland,MI
48359,Oakland,MI
48360,Oakland,MI
48362,Oakland,MI
48363,Oakland,MI
48367,Oakland,MI
48370,Oakland,MI
48371,Oakland,MI
48374,Oakland,MI
48375,Oakland,MI
48377,Oakland,MI
48380,Oakland,MI
48381,Oakland,MI
48382,Oakland,MI
48390,Oakland,MI
48393,Oakland,MI
48414,Shiawassee,MI
48415,Saginaw,MI
48418,Shiawassee,MI
48420,Genesee,MI
48428,Lapeer,MI
48429,Shiawassee,MI
48430,Genesee,MI
48436,Genesee,MI
48438,Genesee,MI
48439,Genesee,MI
48442,Oakland,MI
48446,Lapeer,MI
48449,Shiawassee,MI
48451,Genesee,MI
48455,Lapeer,MI
48457,Genesee,MI
48458,Genesee,MI
48460,Shiawassee,MI
48462,Oakland,MI
48473,Genesee,MI
48476,Shiawassee,MI
48602,Saginaw,MI
48603,Saginaw,MI
48604,Saginaw,MI
48606,Saginaw,MI
48607,Saginaw,MI
48608,Saginaw,MI
48609,Saginaw,MI
48611,Bay,MI
48616,Saginaw,MI
48623,Saginaw,MI
48640,Midland,MI
48642,Midland,MI
48649,Saginaw,MI
48663,Saginaw,MI
48706,Bay,MI
48707,Bay,MI
48708,Bay,MI
48710,Bay,MI
48722,Saginaw,MI
48723,Tuscola,MI
48724,Saginaw,MI
48733,Tuscola,MI
48734,Saginaw,MI
48746,Tuscola,MI
48757,Tuscola,MI
48768,Tuscola,MI
48787,Saginaw,MI
48807,Gratiot,MI
48808,Clinton,MI
48813,Eaton,MI
48817,Shiawassee,MI
48819,Ingham,MI
48821,Eaton,MI
48823,Ingham,MI
48824,Ingham,MI
48825,Ingham,MI
48826,Ingham,MI
48827,Eaton,MI
48831,Clinton,MI
48836,Livingston,MI
48837,Eaton,MI
48840,Ingham,MI
48841,Shiawassee,MI
48842,Ingham,MI
48843,Livingston,MI
48848,Shiawassee,MI
48854,Ingham,MI
48855,Livingston,MI
48857,Shiawassee,MI
48864,Ingham,MI
48866,Clinton,MI
48867,Shiawassee,MI
48872,Shiawassee,MI
48876,Eaton,MI
48882,Shiawassee,MI
48892,Ingham,MI
48895,Ingham,MI
48897,Barry,MI
48910,Ingham,MI
48911,Ingham,MI
48912,Ingham,MI
48915,Ingham,MI
48917,Eaton,MI
48933,Ingham,MI
49001,Kalamazoo,MI
49002,Kalamazoo,MI
49004,Kalamazoo,MI
49006,Kalamazoo,MI
49007,Kalamazoo,MI
49008,Kalamazoo,MI
49009,Kalamazoo,MI
49010,Allegan,MI
49011,Calhoun,MI
49012,Kalamazoo,MI
49013,Van Buren,MI
49014,Calhoun,MI
49015,Calhoun,MI
49017,Calhoun,MI
49021,Eaton,MI
49024,Kalamazoo,MI
49026,Van Buren,MI
49029,Calhoun,MI
49030,St. Joseph,MI
49032,St. Joseph,MI
49033,Calhoun,MI
49034,Kalamazoo,MI
49037,Calhoun,MI
49040,St. Joseph,MI
49042,St. Joseph,MI
49043,Van Buren,MI
49046,Barry,MI
49048,Kalamazoo,MI
49050,Barry,MI
49051,Calhoun,MI
49052,Kalamazoo,MI
49053,Kalamazoo,MI
49055,Van Buren,MI
49056,Van Buren,MI
49058,Barry,MI
49060,Barry,MI
49064,Van Buren,MI
49065,Van Buren,MI
49066,St. Joseph,MI
49067,Cass,MI
49068,Calhoun,MI
49070,Allegan,MI
49071,Van Buren,MI
49072,St. Joseph,MI
49073,Barry,MI
49076,Eaton,MI
49078,Allegan,MI
49079,Van Buren,MI
49080,Allegan,MI
49083,Kalamazoo,MI
49087,Kalamazoo,MI
49088,Kalamazoo,MI
49090,Van Buren,MI
49091,St. Joseph,MI
49092,Calhoun,MI
49093,St. Joseph,MI
49096,Eaton,MI
49097,Kalamazoo,MI
49099,St. Joseph,MI
49101,Berrien,MI
49102,Berrien,MI
49103,Berrien,MI
49106,Berrien,MI
49107,Berrien,MI
49112,Cass,MI
49113,Berrien,MI
49117,Berrien,MI
49120,Berrien,MI
49125,Berrien,MI
49128,Berrien,MI
49201,Jackson,MI
49202,Jackson,MI
49203,Jackson,MI
49204,Jackson,MI
49220,Lenawee,MI
49221,Lenawee,MI
49228,Lenawee,MI
49229,Lenawee,MI
49230,Jackson,MI
49232,Hillsdale,MI
49233,Hillsdale,MI
49234,Jackson,MI
49235,Lenawee,MI
49236,Lenawee,MI
49238,Lenawee,MI
49239,Hillsdale,MI
49240,Jackson,MI
49242,Hillsdale,MI
49246,Jackson,MI
49248,Lenawee,MI
49249,Hillsdale,MI
49250,Hillsdale,MI
49253,Lenawee,MI
49254,Jackson,MI
49256,Lenawee,MI
49257,Hillsdale,MI
49258,Hillsdale,MI
49261,Jackson,MI
49263,Jackson,MI
49265,Lenawee,MI
49267,Monroe,MI
49268,Lenawee,MI
49270,Monroe,MI
49274,Hillsdale,MI
49279,Lenawee,MI
49281,Hillsdale,MI
49282,Hillsdale,MI
49285,Ingham,MI
49286,Lenawee,MI
49287,Lenawee,MI
49288,Hillsdale,MI
49289,Lenawee,MI
49301,Kent,MI
49302,Kent,MI
49306,Kent,MI
49315,Kent,MI
49316,Kent,MI
49317,Kent,MI
49319,Kent,MI
49321,Kent,MI
49323,Allegan,MI
49325,Barry,MI
49328,Allegan,MI
49331,Kent,MI
49333,Barry,MI
49341,Kent,MI
49344,Allegan,MI
49345,Kent,MI
49348,Allegan,MI
49406,Allegan,MI
49408,Allegan,MI
49418,Kent,MI
49419,Allegan,MI
49423,Ottawa,MI
49424,Ottawa,MI
49450,Allegan,MI
49453,Allegan,MI
49501,Kent,MI
49503,Kent,MI
49504,Kent,MI
49505,Kent,MI
49506,Kent,MI
49507,Kent,MI
49508,Kent,MI
49509,Kent,MI
49512,Kent,MI
49525,Kent,MI
49528,Kent,MI
49544,Kent,MI
49546,Kent,MI
49548,Kent,MI
50265,Polk,IA
50310,Polk,IA
50311,Polk,IA
50312,Polk,IA
50314,Polk,IA
50315,Polk,IA
50321,Polk,IA
50322,Polk,IA
50324,Polk,IA
51003,Sioux,IA
51004,Woodbury,IA
51005,Cherokee,IA
51009,O'Brien,IA
51012,Cherokee,IA
51014,Cherokee,IA
51016,Woodbury,IA
51022,Sioux,IA
51024,Plymouth,IA
51028,Plymouth,IA
51029,Cherokee,IA
51030,Woodbury,IA
51031,Plymouth,IA
51033,Buena Vista,IA
51035,Cherokee,IA
51037,Cherokee,IA
51038,Plymouth,IA
51039,Woodbury,IA
51041,Sioux,IA
51046,O'Brien,IA
51047,Clay,IA
51048,Woodbury,IA
51049,Cherokee,IA
51050,Plymouth,IA
51054,Woodbury,IA
51058,O'Brien,IA
51061,Cherokee,IA
51101,Woodbury,IA
51103,Woodbury,IA
51104,Woodbury,IA
51105,Woodbury,IA
51106,Woodbury,IA
51108,Woodbury,IA
51109,Woodbury,IA
51111,Woodbury,IA
51201,O'Brien,IA
51231,O'Brien,IA
51232,Osceola,IA
51238,Sioux,IA
51245,O'Brien,IA
51248,O'Brien,IA
51301,Clay,IA
51331,Dickinson,IA
51338,Clay,IA
51346,O'Brien,IA
51350,Osceola,IA
51351,Dickinson,IA
51355,Dickinson,IA
51357,Clay,IA
51360,Dickinson,IA
52227,Linn,IA
52233,Linn,IA
52240,Johnson,IA
52241,Johnson,IA
52242,Johnson,IA
52243,Johnson,IA
52244,Johnson,IA
52245,Johnson,IA
52246,Johnson,IA
52302,Linn,IA
52317,Johnson,IA
52328,Linn,IA
52333,Johnson,IA
52338,Johnson,IA
52340,Johnson,IA
52341,Linn,IA
52401,Linn,IA
52402,Linn,IA
52403,Linn,IA
52404,Linn,IA
52405,Linn,IA
52406,Linn,IA
52407,Linn,IA
52408,Linn,IA
52409,Linn,IA
52410,Linn,IA
52411,Linn,IA
52497,Linn,IA
52498,Linn,IA
52499,Linn,IA
52722,Scott,IA
52726,Scott,IA
52730,Clinton,IA
52747,Cedar,IA
52748,Scott,IA
52753,Scott,IA
52761,Muscatine,IA
52768,Scott,IA
52769,Muscatine,IA
52773,Scott,IA
52801,Scott,IA
52802,Scott,IA
52803,Scott,IA
52804,Scott,IA
52806,Scott,IA
52807,Scott,IA
53001,Sheboygan,WI
53002,Washington,WI
53005,Waukesha,WI
53006,Dodge,WI
53007,Waukesha,WI
53010,Fond du Lac,WI
53011,Sheboygan,WI
53012,Ozaukee,WI
53013,Sheboygan,WI
53014,Calumet,WI
53015,Manitowoc,WI
53016,Dodge,WI
53017,Washington,WI
53018,Waukesha,WI
53019,Fond du Lac,WI
53020,Sheboygan,WI
53022,Washington,WI
53023,Sheboygan,WI
53024,Ozaukee,WI
53027,Washington,WI
53029,Waukesha,WI
53031,Sheboygan,WI
53032,Dodge,WI
53033,Washington,WI
53034,Dodge,WI
53035,Dodge,WI
53036,Jefferson,WI
53037,Washington,WI
53038,Jefferson,WI
53039,Dodge,WI
53040,Washington,WI
53042,Manitowoc,WI
53044,Sheboygan,WI
53045,Waukesha,WI
53046,Waukesha,WI
53048,Dodge,WI
53049,Fond du Lac,WI
53050,Dodge,WI
53051,Waukesha,WI
53056,Waukesha,WI
53057,Fond du Lac,WI
53058,Waukesha,WI
53059,Dodge,WI
53061,Calumet,WI
53063,Manitowoc,WI
53065,Fond du Lac,WI
53066,Waukesha,WI
53069,Waukesha,WI
53070,Sheboygan,WI
53072,Waukesha,WI
53073,Sheboygan,WI
53074,Ozaukee,WI
53075,Sheboygan,WI
53076,Washington,WI
53078,Dodge,WI
53079,Fond du Lac,WI
53081,Sheboygan,WI
53082,Sheboygan,WI
53083,Sheboygan,WI
53085,Sheboygan,WI
53086,Washington,WI
53089,Waukesha,WI
53090,Washington,WI
53091,Dodge,WI
53092,Ozaukee,WI
53093,Sheboygan,WI
53094,Jefferson,WI
53095,Washington,WI
53098,Dodge,WI
53103,Waukesha,WI
53105,Racine,WI
53115,Walworth,WI
53118,Waukesha,WI
53119,Waukesha,WI
53121,Walworth,WI
53122,Waukesha,WI
53125,Walworth,WI
53127,Waukesha,WI
53129,Milwaukee,WI
53130,Milwaukee,WI
53146,Waukesha,WI
53147,Walworth,WI
53149,Waukesha,WI
53150,Waukesha,WI
53151,Waukesha,WI
53153,Waukesha,WI
53156,Jefferson,WI
53167,Racine,WI
53183,Waukesha,WI
53185,Racine,WI
53186,Waukesha,WI
53188,Waukesha,WI
53189,Waukesha,WI
53190,Walworth,WI
53191,Walworth,WI
53209,Milwaukee,WI
53210,Milwaukee,WI
53211,Milwaukee,WI
53213,Milwaukee,WI
53214,Milwaukee,WI
53217,Milwaukee,WI
53219,Milwaukee,WI
53220,Milwaukee,WI
53221,Milwaukee,WI
53222,Milwaukee,WI
53226,Milwaukee,WI
53227,Milwaukee,WI
53228,Milwaukee,WI
53523,Dane,WI
53527,Dane,WI
53531,Dane,WI
53532,Dane,WI
53538,Jefferson,WI
53545,Rock,WI
53546,Rock,WI
53547,Rock,WI
53548,Rock,WI
53549,Jefferson,WI
53551,Jefferson,WI
53557,Dodge,WI
53558,Dane,WI
53559,Dane,WI
53562,Dane,WI
53563,Rock,WI
53575,Dane,WI
53579,Dodge,WI
53589,Dane,WI
53590,Dane,WI
53594,Jefferson,WI
53598,Dane,WI
53704,Dane,WI
53705,Dane,WI
53711,Dane,WI
53713,Dane,WI
53714,Dane,WI
53716,Dane,WI
53717,Dane,WI
53718,Dane,WI
53719,Dane,WI
53901,Columbia,WI
53911,Columbia,WI
53916,Dodge,WI
53919,Fond du Lac,WI
53922,Dodge,WI
53923,Columbia,WI
53925,Columbia,WI
53926,Green Lake,WI
53931,Fond du Lac,WI
53932,Columbia,WI
53933,Dodge,WI
53939,Green Lake,WI
53946,Green Lake,WI
53947,Green Lake,WI
53954,Columbia,WI
53955,Columbia,WI
53956,Dodge,WI
53960,Columbia,WI
53963,Dodge,WI
54106,Outagamie,WI
54107,Shawano,WI
54110,Calumet,WI
54113,Outagamie,WI
54115,Brown,WI
54123,Calumet,WI
54126,Brown,WI
54129,Calumet,WI
54130,Outagamie,WI
54136,Outagamie,WI
54140,Outagamie,WI
54155,Brown,WI
54165,Outagamie,WI
54169,Calumet,WI
54170,Outagamie,WI
54180,Brown,WI
54207,Manitowoc,WI
54208,Brown,WI
54214,Manitowoc,WI
54216,Kewaunee,WI
54220,Manitowoc,WI
54221,Manitowoc,WI
54227,Manitowoc,WI
54228,Manitowoc,WI
54229,Brown,WI
54230,Manitowoc,WI
54232,Manitowoc,WI
54240,Manitowoc,WI
54241,Manitowoc,WI
54245,Manitowoc,WI
54247,Manitowoc,WI
54301,Brown,WI
54304,Brown,WI
54311,Brown,WI
54313,Brown,WI
54701,Eau Claire,WI
54703,Eau Claire,WI
54720,Eau Claire,WI
54722,Eau Claire,WI
54724,Chippewa,WI
54726,Chippewa,WI
54727,Chippewa,WI
54729,Chippewa,WI
54730,Dunn,WI
54732,Chippewa,WI
54736,Pepin,WI
54739,Dunn,WI
54742,Eau Claire,WI
54748,Chippewa,WI
54751,Dunn,WI
54768,Chippewa,WI
54771,Clark,WI
54901,Winnebago,WI
54902,Winnebago,WI
54904,Winnebago,WI
54911,Outagamie,WI
54913,Outagamie,WI
54914,Outagamie,WI
54915,Outagamie,WI
54922,Outagamie,WI
54923,Green Lake,WI
54929,Waupaca,WI
54932,Fond du Lac,WI
54935,Fond du Lac,WI
54937,Fond du Lac,WI
54940,Waupaca,WI
54942,Outagamie,WI
54944,Outagamie,WI
54947,Winnebago,WI
54952,Winnebago,WI
54956,Winnebago,WI
54961,Waupaca,WI
54963,Winnebago,WI
54964,Winnebago,WI
54971,Fond du Lac,WI
54974,Fond du Lac,WI
54979,Fond du Lac,WI
54980,Winnebago,WI
54986,Winnebago,WI
55016,Washington,MN
55042,Washington,MN
55046,Rice,MN
55049,Steele,MN
55052,Rice,MN
55060,Steele,MN
55071,Washington,MN
55076,Dakota,MN
55082,Washington,MN
55087,Rice,MN
55101,Ramsey,MN
55102,Ramsey,MN
55103,Ramsey,MN
55105,Ramsey,MN
55106,Ramsey,MN
55108,Ramsey,MN
55109,Ramsey,MN
55110,Ramsey,MN
55112,Ramsey,MN
55113,Ramsey,MN
55114,Ramsey,MN
55115,Washington,MN
55116,Ramsey,MN
55117,Ramsey,MN
55118,Dakota,MN
55119,Ramsey,MN
55120,Dakota,MN
55121,Dakota,MN
55124,Dakota,MN
55125,Washington,MN
55126,Ramsey,MN
55127,Ramsey,MN
55128,Washington,MN
55129,Washington,MN
55305,Hennepin,MN
55306,Dakota,MN
55308,Sherburne,MN
55309,Sherburne,MN
55311,Hennepin,MN
55313,Wright,MN
55317,Carver,MN
55318,Carver,MN
55319,Sherburne,MN
55320,Wright,MN
55328,Wright,MN
55331,Hennepin,MN
55337,Dakota,MN
55340,Hennepin,MN
55343,Hennepin,MN
55344,Hennepin,MN
55345,Hennepin,MN
55346,Hennepin,MN
55347,Hennepin,MN
55356,Hennepin,MN
55357,Hennepin,MN
55359,Hennepin,MN
55362,Wright,MN
55364,Hennepin,MN
55372,Scott,MN
55374,Hennepin,MN
55378,Scott,MN
55379,Scott,MN
55384,Hennepin,MN
55386,Carver,MN
55387,Carver,MN
55391,Hennepin,MN
55401,Hennepin,MN
55402,Hennepin,MN
55403,Hennepin,MN
55404,Hennepin,MN
55405,Hennepin,MN
55407,Hennepin,MN
55408,Hennepin,MN
55409,Hennepin,MN
55410,Hennepin,MN
55411,Hennepin,MN
55412,Hennepin,MN
55413,Hennepin,MN
55414,Hennepin,MN
55415,Hennepin,MN
55416,Hennepin,MN
55417,Hennepin,MN
55418,Hennepin,MN
55419,Hennepin,MN
55420,Hennepin,MN
55421,Anoka,MN
55422,Hennepin,MN
55423,Hennepin,MN
55424,Hennepin,MN
55425,Hennepin,MN
55426,Hennepin,MN
55427,Hennepin,MN
55428,Hennepin,MN
55429,Hennepin,MN
55430,Hennepin,MN
55431,Hennepin,MN
55435,Hennepin,MN
55436,Hennepin,MN
55437,Hennepin,MN
55438,Hennepin,MN
55439,Hennepin,MN
55441,Hennepin,MN
55442,Hennepin,MN
55446,Hennepin,MN
55447,Hennepin,MN
55454,Hennepin,MN
55455,Hennepin,MN
55901,Olmsted,MN
55902,Olmsted,MN
55904,Olmsted,MN
55906,Olmsted,MN
55912,Mower,MN
55918,Mower,MN
55920,Olmsted,MN
55926,Mower,MN
55929,Olmsted,MN
55933,Mower,MN
55934,Olmsted,MN
55940,Dodge,MN
55944,Dodge,MN
55960,Olmsted,MN
55967,Mower,MN
55973,Mower,MN
55976,Olmsted,MN
55982,Mower,MN
56001,Blue Earth,MN
56003,Nicollet,MN
56007,Freeborn,MN
56016,Freeborn,MN
56017,Le Sueur,MN
56021,Nicollet,MN
56023,Faribault,MN
56024,Blue Earth,MN
56026,Steele,MN
56028,Le Sueur,MN
56037,Blue Earth,MN
56045,Freeborn,MN
56048,Waseca,MN
56050,Le Sueur,MN
56052,Le Sueur,MN
56057,Le Sueur,MN
56058,Le Sueur,MN
56063,Blue Earth,MN
56065,Blue Earth,MN
56069,Le Sueur,MN
56071,Scott,MN
56072,Waseca,MN
56073,Brown,MN
56074,Nicollet,MN
56078,Blue Earth,MN
56080,Blue Earth,MN
56082,Nicollet,MN
56091,Waseca,MN
56093,Waseca,MN
56096,Le Sueur,MN
56301,Stearns,MN
56303,Stearns,MN
56304,Sherburne,MN
56307,Stearns,MN
56310,Stearns,MN
56320,Stearns,MN
56374,Stearns,MN
56377,Stearns,MN
56379,Benton,MN
56387,Stearns,MN
57003,Minnehaha,SD
57005,Minnehaha,SD
57013,Lincoln,SD
57015,Turner,SD
57020,Minnehaha,SD
57025,Union,SD
57030,Minnehaha,SD
57032,Lincoln,SD
57038,Union,SD
57039,Lincoln,SD
57049,Union,SD
57055,Minnehaha,SD
57064,Lincoln,SD
57068,Minnehaha,SD
57077,Lincoln,SD
57103,Minnehaha,SD
57104,Minnehaha,SD
57105,Minnehaha,SD
57106,Minnehaha,SD
57107,Minnehaha,SD
57108,Lincoln,SD
57110,Minnehaha,SD
57197,Minnehaha,SD
58201,Grand Forks,ND
58202,Grand Forks,ND
58203,Grand Forks,ND
58204,Grand Forks,ND
58205,Grand Forks,ND
58214,Grand Forks,ND
58228,Grand Forks,ND
58251,Grand Forks,ND
58258,Grand Forks,ND
58259,Nelson,ND
58266,Grand Forks,ND
58272,Nelson,ND
58301,Ramsey,ND
58313,Pierce,ND
58325,Ramsey,ND
58327,Ramsey,ND
58332,Benson,ND
58344,Nelson,ND
58346,Benson,ND
58351,Benson,ND
58362,Ramsey,ND
58368,Pierce,ND
58386,Benson,ND
58501,Burleigh,ND
58502,Burleigh,ND
58503,Burleigh,ND
58504,Burleigh,ND
58505,Burleigh,ND
58506,Burleigh,ND
58507,Burleigh,ND
58508,,
58554,Morton,ND
58563,Morton,ND
58701,Ward,ND
58703,Ward,ND
58707,Ward,ND
58718,Ward,ND
58722,Ward,ND
58733,Ward,ND
58741,McHenry,ND
58744,McHenry,ND
58755,Williams,ND
58768,McHenry,ND
58769,Mountrail,ND
58771,Mountrail,ND
58773,Burke,ND
58776,Mountrail,ND
58784,Mountrail,ND
58785,Ward,ND
58788,McHenry,ND
58794,Mountrail,ND
58795,Williams,ND
58801,Williams,ND
58830,Williams,ND
58843,Williams,ND
58849,Williams,ND
58852,Williams,ND
58853,Williams,ND
58856,Williams,ND
59001,Stillwater,MT
59002,Yellowstone,MT
59006,Yellowstone,MT
59007,Carbon,MT
59008,Carbon,MT
59010,Treasure,MT
59011,Sweet Grass,MT
59013,Carbon,MT
59014,Carbon,MT
59015,Yellowstone,MT
59016,Big Horn,MT
59019,Stillwater,MT
59022,Big Horn,MT
59024,Yellowstone,MT
59026,Carbon,MT
59028,Stillwater,MT
59029,Carbon,MT
59031,Big Horn,MT
59033,Sweet Grass,MT
59034,Big Horn,MT
59035,Big Horn,MT
59036,Wheatland,MT
59037,Yellowstone,MT
59038,Treasure,MT
59041,Carbon,MT
59044,Yellowstone,MT
59046,Golden Valley,MT
59050,Big Horn,MT
59055,Sweet Grass,MT
59057,Yellowstone,MT
59059,Musselshell,MT
59061,Stillwater,MT
59063,Stillwater,MT
59064,Yellowstone,MT
59066,Big Horn,MT
59067,Stillwater,MT
59068,Carbon,MT
59069,Stillwater,MT
59070,Carbon,MT
59071,Carbon,MT
59072,Musselshell,MT
59073,Musselshell,MT
59074,Golden Valley,MT
59075,Big Horn,MT
59078,Wheatland,MT
59079,Yellowstone,MT
59085,Wheatland,MT
59088,Yellowstone,MT
59089,Big Horn,MT
59101,Yellowstone,MT
59102,Yellowstone,MT
59103,Yellowstone,MT
59104,Yellowstone,MT
59105,Yellowstone,MT
59106,Yellowstone,MT
59107,Yellowstone,MT
59108,Yellowstone,MT
59111,Yellowstone,MT
59112,Yellowstone,MT
59114,Yellowstone,MT
59115,Yellowstone,MT
59116,Yellowstone,MT
59117,Yellowstone,MT
59401,Cascade,MT
59402,Cascade,MT
59404,Cascade,MT
59405,Cascade,MT
59414,Cascade,MT
59421,Cascade,MT
59440,Chouteau,MT
59443,Cascade,MT
59453,Wheatland,MT
59468,Teton,MT
59472,Cascade,MT
59477,Cascade,MT
59480,Cascade,MT
59483,Cascade,MT
59485,Cascade,MT
59487,Cascade,MT
59601,Lewis and Clark,MT
59602,Lewis and Clark,MT
59625,Lewis and Clark,MT
59626,Lewis and Clark,MT
59631,Jefferson,MT
59632,Jefferson,MT
59633,Lewis and Clark,MT
59634,Jefferson,MT
59635,Lewis and Clark,MT
59636,Lewis and Clark,MT
59638,Jefferson,MT
59639,Lewis and Clark,MT
59640,Lewis and Clark,MT
59641,Broadwater,MT
59644,Broadwater,MT
59647,Broadwater,MT
59648,Lewis and Clark,MT
59701,Silver Bow,MT
59713,Powell,MT
59722,Powell,MT
59728,Powell,MT
59731,Powell,MT
59733,Powell,MT
59748,Silver Bow,MT
59756,Deer Lodge,MT
59843,Powell,MT
60004,Cook,IL
60005,Cook,IL
60006,Cook,IL
60007,Cook,IL
60008,Cook,IL
60010,Lake,IL
60012,McHenry,IL
60013,McHenry,IL
60014,McHenry,IL
60015,Lake,IL
60016,Cook,IL
60025,Cook,IL
60029,Cook,IL
60030,Lake,IL
60031,Lake,IL
60035,Lake,IL
60044,Lake,IL
60045,Lake,IL
60047,Lake,IL
60048,Lake,IL
60050,McHenry,IL
60051,McHenry,IL
60053,Cook,IL
60056,Cook,IL
60060,Lake,IL
60061,Lake,IL
60062,Cook,IL
60067,Cook,IL
60068,Cook,IL
60069,Lake,IL
60074,Cook,IL
60076,Cook,IL
60077,Cook,IL
60089,Lake,IL
60098,McHenry,IL
60102,McHenry,IL
60103,DuPage,IL
60107,Cook,IL
60110,Kane,IL
60111,DeKalb,IL
60112,DeKalb,IL
60115,DeKalb,IL
60118,Kane,IL
60119,Kane,IL
60120,Kane,IL
60123,Kane,IL
60124,Kane,IL
60129,DeKalb,IL
60133,Cook,IL
60134,Kane,IL
60135,DeKalb,IL
60137,DuPage,IL
60140,Kane,IL
60142,McHenry,IL
60145,DeKalb,IL
60146,DeKalb,IL
60148,DuPage,IL
60150,DeKalb,IL
60151,Kane,IL
60169,Cook,IL
60172,DuPage,IL
60173,Cook,IL
60174,Kane,IL
60175,Kane,IL
60177,Kane,IL
60178,DeKalb,IL
60185,DuPage,IL
60187,DuPage,IL
60188,DuPage,IL
60189,DuPage,IL
60190,DuPage,IL
60192,Cook,IL
60193,Cook,IL
60194,Cook,IL
60195,Cook,IL
60201,Cook,IL
60202,Cook,IL
60302,Cook,IL
60305,Cook,IL
60402,Cook,IL
60403,Will,IL
60404,Will,IL
60422,Cook,IL
60423,Will,IL
60431,Will,IL
60435,Will,IL
60437,Grundy,IL
60439,Cook,IL
60440,Will,IL
60441,Will,IL
60446,Will,IL
60448,Will,IL
60451,Will,IL
60452,Cook,IL
60453,Cook,IL
60455,Cook,IL
60457,Cook,IL
60458,Cook,IL
60461,Cook,IL
60462,Cook,IL
60463,Cook,IL
60464,Cook,IL
60465,Cook,IL
60467,Cook,IL
60470,LaSalle,IL
60477,Cook,IL
60480,Cook,IL
60487,Cook,IL
60490,Will,IL
60491,Will,IL
60501,Cook,IL
60502,DuPage,IL
60504,DuPage,IL
60505,Kane,IL
60506,Kane,IL
60510,Kane,IL
60511,Kane,IL
60513,Cook,IL
60514,DuPage,IL
60515,DuPage,IL
60516,DuPage,IL
60518,LaSalle,IL
60520,DeKalb,IL
60521,DuPage,IL
60522,Dupage,IL
60523,DuPage,IL
60525,Cook,IL
60526,Cook,IL
60527,DuPage,IL
60530,Lee,IL
60531,LaSalle,IL
60534,Cook,IL
60538,Kendall,IL
60540,DuPage,IL
60541,Kendall,IL
60542,Kane,IL
60543,Kendall,IL
60544,Will,IL
60545,Kendall,IL
60546,Cook,IL
60548,DeKalb,IL
60549,LaSalle,IL
60550,DeKalb,IL
60551,LaSalle,IL
60552,LaSalle,IL
60553,Lee,IL
60554,Kane,IL
60556,DeKalb,IL
60558,Cook,IL
60559,DuPage,IL
60560,Kendall,IL
60561,DuPage,IL
60563,DuPage,IL
60564,Will,IL
60565,DuPage,IL
60585,Will,IL
60586,Will,IL
60601,Cook,IL
60602,Cook,IL
60603,Cook,IL
60604,Cook,IL
60606,Cook,IL
60610,Cook,IL
60611,Cook,IL
60612,Cook,IL
60614,Cook,IL
60622,Cook,IL
60630,Cook,IL
60631,Cook,IL
60641,Cook,IL
60642,Cook,IL
60646,Cook,IL
60654,Cook,IL
60656,Cook,IL
60657,Cook,IL
60661,Cook,IL
60706,Cook,IL
60707,Cook,IL
60712,Cook,IL
60714,Cook,IL
61006,Lee,IL
61007,Ogle,IL
61008,Boone,IL
61010,Ogle,IL
61015,Ogle,IL
61016,Winnebago,IL
61020,Ogle,IL
61021,Lee,IL
61030,Ogle,IL
61031,Lee,IL
61042,Lee,IL
61047,Ogle,IL
61049,Ogle,IL
61052,Ogle,IL
61054,Ogle,IL
61061,Ogle,IL
61064,Ogle,IL
61068,Ogle,IL
61071,Whiteside,IL
61072,Winnebago,IL
61073,Winnebago,IL
61080,Winnebago,IL
61081,Whiteside,IL
61084,Ogle,IL
61107,Winnebago,IL
61108,Winnebago,IL
61111,Winnebago,IL
61114,Winnebago,IL
61115,Winnebago,IL
61301,LaSalle,IL
61310,Lee,IL
61316,LaSalle,IL
61318,Lee,IL
61321,LaSalle,IL
61325,LaSalle,IL
61334,LaSalle,IL
61341,LaSalle,IL
61342,LaSalle,IL
61348,LaSalle,IL
61350,LaSalle,IL
61353,Lee,IL
61354,LaSalle,IL
61358,LaSalle,IL
61360,LaSalle,IL
61364,LaSalle,IL
61367,Lee,IL
61370,LaSalle,IL
61371,La Salle,IL
61372,LaSalle,IL
61373,LaSalle,IL
61377,Marshall,IL
61378,Lee,IL
61433,Fulton,IL
61517,Peoria,IL
61519,Fulton,IL
61520,Fulton,IL
61528,Peoria,IL
61529,Peoria,IL
61531,Fulton,IL
61533,Peoria,IL
61536,Peoria,IL
61547,Peoria,IL
61553,Fulton,IL
61554,Tazewell,IL
61559,Peoria,IL
61563,Fulton,IL
61569,Peoria,IL
61602,Peoria,IL
61603,Peoria,IL
61604,Peoria,IL
61605,Peoria,IL
61606,Peoria,IL
61607,Peoria,IL
61610,Tazewell,IL
61611,Tazewell,IL
61614,Peoria,IL
61615,Peoria,IL
61616,Peoria,IL
61639,Peoria,IL
61643,Peoria,IL
61920,Coles,IL
61928,Moultrie,IL
61931,Coles,IL
61938,Coles,IL
61951,Moultrie,IL
61957,Shelby,IL
62001,Madison,IL
62002,Madison,IL
62010,Madison,IL
62024,Madison,IL
62025,Madison,IL
62034,Madison,IL
62035,Madison,IL
62040,Madison,IL
62046,Madison,IL
62061,Madison,IL
62062,Madison,IL
62067,Madison,IL
62074,Madison,IL
62080,Fayette,IL
62086,Bond,IL
62097,Madison,IL
62208,St. Clair,IL
62220,St. Clair,IL
62221,St. Clair,IL
62223,St. Clair,IL
62226,St. Clair,IL
62232,St. Clair,IL
62234,Madison,IL
62236,Monroe,IL
62246,Bond,IL
62249,Madison,IL
62260,St. Clair,IL
62269,St. Clair,IL
62275,Bond,IL
62278,Randolph,IL
62281,Madison,IL
62294,Madison,IL
62298,Monroe,IL
62401,Effingham,IL
62411,Effingham,IL
62413,Crawford,IL
62414,Fayette,IL
62418,Fayette,IL
62420,Clark,IL
62422,Shelby,IL
62424,Effingham,IL
62425,Richland,IL
62426,Effingham,IL
62428,Cumberland,IL
62431,Shelby,IL
62432,Jasper,IL
62434,Clay,IL
62436,Cumberland,IL
62438,Shelby,IL
62440,Coles,IL
62442,Clark,IL
62443,Effingham,IL
62444,Shelby,IL
62445,Cumberland,IL
62447,Cumberland,IL
62448,Jasper,IL
62449,Crawford,IL
62450,Richland,IL
62454,Crawford,IL
62458,Fayette,IL
62459,Jasper,IL
62461,Effingham,IL
62462,Shelby,IL
62463,Shelby,IL
62465,Shelby,IL
62467,Effingham,IL
62468,Cumberland,IL
62469,Cumberland,IL
62473,Effingham,IL
62474,Clark,IL
62475,Jasper,IL
62479,Jasper,IL
62480,Jasper,IL
62481,Jasper,IL
62510,Christian,IL
62534,Shelby,IL
62536,Sangamon,IL
62553,Shelby,IL
62557,Christian,IL
62563,Sangamon,IL
62565,Shelby,IL
62571,Shelby,IL
62601,Morgan,IL
62613,Menard,IL
62625,Sangamon,IL
62629,Sangamon,IL
62634,Logan,IL
62650,Morgan,IL
62656,Logan,IL
62670,Sangamon,IL
62675,Menard,IL
62677,Sangamon,IL
62684,Sangamon,IL
62693,Sangamon,IL
62701,Sangamon,IL
62702,Sangamon,IL
62703,Sangamon,IL
62704,Sangamon,IL
62707,Sangamon,IL
62711,Sangamon,IL
62712,Sangamon,IL
62824,Clay,IL
62838,Fayette,IL
62839,Clay,IL
62854,Marion,IL
62858,Clay,IL
62868,Richland,IL
62879,Clay,IL
62880,Fayette,IL
62899,Clay,IL
63001,St. Louis,MO
63005,St. Louis,MO
63010,Jefferson,MO
63011,St. Louis,MO
63017,St. Louis,MO
63020,Jefferson,MO
63021,St. Louis,MO
63022,St. Louis,MO
63024,St. Louis,MO
63025,St. Louis,MO
63026,St. Louis,MO
63030,Washington,MO
63036,St. Francois,MO
63038,St. Louis,MO
63039,Franklin,MO
63040,St. Louis,MO
63042,St. Louis,MO
63043,St. Louis,MO
63044,St. Louis,MO
63049,Jefferson,MO
63055,Franklin,MO
63069,Franklin,MO
63071,Washington,MO
63073,Franklin,MO
63084,Franklin,MO
63087,St. Francois,MO
63088,St. Louis,MO
63089,Franklin,MO
63090,Franklin,MO
63105,St. Louis,MO
63109,St. Louis city,MO
63110,St. Louis city,MO
63117,St. Louis,MO
63119,St. Louis,MO
63122,St. Louis,MO
63123,St. Louis,MO
63124,St. Louis,MO
63125,St. Louis,MO
63126,St. Louis,MO
63127,St. Louis,MO
63128,St. Louis,MO
63129,St. Louis,MO
63130,St. Louis,MO
63131,St. Louis,MO
63132,St. Louis,MO
63139,St. Louis city,MO
63141,St. Louis,MO
63143,St. Louis,MO
63144,St. Louis,MO
63146,St. Louis,MO
63301,St. Charles,MO
63302,St. Charles,MO
63303,St. Charles,MO
63304,St. Charles,MO
63332,St. Charles,MO
63341,St. Charles,MO
63342,Warren,MO
63346,St. Charles,MO
63348,St. Charles,MO
63357,Warren,MO
63362,Lincoln,MO
63365,St. Charles,MO
63366,St. Charles,MO
63367,St. Charles,MO
63368,St. Charles,MO
63376,St. Charles,MO
63378,Warren,MO
63379,Lincoln,MO
63383,Warren,MO
63385,St. Charles,MO
63390,Warren,MO
63621,Iron,MO
63626,Washington,MO
63628,St. Francois,MO
63630,Washington,MO
63640,St. Francois,MO
63645,Madison,MO
63650,Iron,MO
63655,Madison,MO
63662,Bollinger,MO
63670,Ste. Genevieve,MO
63673,Ste. Genevieve,MO
63701,Cape Girardeau,MO
63703,Cape Girardeau,MO
63732,Perry,MO
63739,Cape Girardeau,MO
63743,Cape Girardeau,MO
63745,Cape Girardeau,MO
63746,Perry,MO
63747,Cape Girardeau,MO
63748,Perry,MO
63751,Bollinger,MO
63755,Cape Girardeau,MO
63766,Cape Girardeau,MO
63769,Cape Girardeau,MO
63770,Cape Girardeau,MO
63775,Perry,MO
63781,Bollinger,MO
63783,Perry,MO
64012,Cass,MO
64014,Jackson,MO
64030,Jackson,MO
64056,Jackson,MO
64057,Jackson,MO
64058,Jackson,MO
64064,Jackson,MO
64068,Clay,MO
64080,Cass,MO
64081,Jackson,MO
64086,Jackson,MO
64105,Jackson,MO
64106,Jackson,MO
64108,Jackson,MO
64111,Jackson,MO
64112,Jackson,MO
64113,Jackson,MO
64114,Jackson,MO
64116,Clay,MO
64117,Clay,MO
64118,Clay,MO
64119,Clay,MO
64139,Jackson,MO
64145,Jackson,MO
64146,Jackson,MO
64149,Jackson,MO
64151,Platte,MO
64152,Platte,MO
64153,Platte,MO
64154,Platte,MO
64155,Clay,MO
64156,Clay,MO
64157,Clay,MO
64158,Clay,MO
64161,Clay,MO
64163,Platte,MO
64164,Platte,MO
64165,Clay,MO
64166,Clay,MO
64167,Clay,MO
64748,Barton,MO
64755,Jasper,MO
64759,Barton,MO
64762,Barton,MO
64801,Jasper,MO
64804,Jasper,MO
64832,Jasper,MO
64833,Jasper,MO
64834,Jasper,MO
64835,Jasper,MO
64836,Jasper,MO
64840,Newton,MO
64844,Newton,MO
64848,Lawrence,MO
64850,Newton,MO
64855,Jasper,MO
64859,Jasper,MO
64862,Jasper,MO
64865,Newton,MO
64870,Jasper,MO
64873,Lawrence,MO
65010,Boone,MO
65039,Boone,MO
65101,Cole,MO
65109,Cole,MO
65201,Boone,MO
65202,Boone,MO
65203,Boone,MO
65211,Boone,MO
65616,Taney,MO
65619,Greene,MO
65654,Lawrence,MO
65669,Christian,MO
65672,Taney,MO
65682,Dade,MO
65707,Lawrence,MO
65708,Barry,MO
65712,Lawrence,MO
65714,Christian,MO
65721,Christian,MO
65723,Lawrence,MO
65738,Greene,MO
65754,Christian,MO
65756,Lawrence,MO
65771,Taney,MO
65802,Greene,MO
65803,Greene,MO
65804,Greene,MO
65807,Greene,MO
65808,Greene,MO
65809,Greene,MO
65810,Greene,MO
66006,Douglas,KS
66045,Douglas,KS
66046,Douglas,KS
66047,Douglas,KS
66049,Douglas,KS
66050,Douglas,KS
66054,Jefferson,KS
66066,Jefferson,KS
66067,Franklin,KS
66070,Jefferson,KS
66073,Jefferson,KS
66076,Franklin,KS
66085,Johnson,KS
66086,Leavenworth,KS
66103,Wyandotte,KS
66160,Wyandotte,KS
66202,Johnson,KS
66203,Johnson,KS
66204,Johnson,KS
66205,Johnson,KS
66206,Johnson,KS
66207,Johnson,KS
66208,Johnson,KS
66209,Johnson,KS
66210,Johnson,KS
66211,Johnson,KS
66212,Johnson,KS
66213,Johnson,KS
66214,Johnson,KS
66215,Johnson,KS
66216,Johnson,KS
66217,Johnson,KS
66219,Johnson,KS
66221,Johnson,KS
66223,Johnson,KS
66224,Johnson,KS
66402,Shawnee,KS
66409,Shawnee,KS
66413,Osage,KS
66414,Osage,KS
66420,Shawnee,KS
66429,Jefferson,KS
66431,Wabaunsee,KS
66451,Osage,KS
66507,Wabaunsee,KS
66512,Jefferson,KS
66523,Osage,KS
66524,Osage,KS
66528,Osage,KS
66533,Shawnee,KS
66536,Pottawatomie,KS
66537,Osage,KS
66539,Shawnee,KS
66542,Shawnee,KS
66543,Osage,KS
66546,Shawnee,KS
66601,Shawnee,KS
66603,Shawnee,KS
66604,Shawnee,KS
66605,Shawnee,KS
66606,Shawnee,KS
66607,Shawnee,KS
66608,Shawnee,KS
66609,Shawnee,KS
66610,Shawnee,KS
66611,Shawnee,KS
66612,Shawnee,KS
66614,Shawnee,KS
66615,Shawnee,KS
66616,Shawnee,KS
66617,Shawnee,KS
66618,Shawnee,KS
66619,Shawnee,KS
66620,Shawnee,KS
66621,Shawnee,KS
66622,Shawnee,KS
66624,Shawnee,KS
66625,Shawnee,KS
66626,Shawnee,KS
66629,Shawnee,KS
66636,Shawnee,KS
66647,Shawnee,KS
66667,Shawnee,KS
66675,Shawnee,KS
66683,Shawnee,KS
66699,Shawnee,KS
67002,Butler,KS
67017,Butler,KS
67037,Sedgwick,KS
67052,Sedgwick,KS
67055,Sedgwick,KS
67060,Sedgwick,KS
67067,Sedgwick,KS
67101,Sedgwick,KS
67133,Butler,KS
67147,Sedgwick,KS
67204,Sedgwick,KS
67205,Sedgwick,KS
67206,Sedgwick,KS
67207,Sedgwick,KS
67208,Sedgwick,KS
67209,Sedgwick,KS
67212,Sedgwick,KS
67217,Sedgwick,KS
67223,Sedgwick,KS
67226,Sedgwick,KS
67227,Sedgwick,KS
67228,Sedgwick,KS
67230,Sedgwick,KS
67232,Sedgwick,KS
67235,Sedgwick,KS
68005,Sarpy,NE
68010,Douglas,NE
68046,Sarpy,NE
68048,Cass,NE
68056,Sarpy,NE
68103,Douglas,NE
68105,Douglas,NE
68106,Douglas,NE
68107,Douglas,NE
68108,Douglas,NE
68109,Douglas,NE
68113,Sarpy,NE
68114,Douglas,NE
68117,Douglas,NE
68123,Sarpy,NE
68124,Douglas,NE
68127,Douglas,NE
68128,Sarpy,NE
68131,Douglas,NE
68132,Douglas,NE
68133,Sarpy,NE
68134,Douglas,NE
68137,Douglas,NE
68139,Douglas,NE
68144,Douglas,NE
68145,Douglas,NE
68147,Sarpy,NE
68154,Douglas,NE
68157,Sarpy,NE
68164,Douglas,NE
68172,Douglas,NE
68175,Douglas,NE
68176,Douglas,NE
68180,Douglas,NE
68182,Douglas,NE
68197,Douglas,NE
68198,Douglas,NE
68501,Lancaster,NE
68502,Lancaster,NE
68503,Lancaster,NE
68504,Lancaster,NE
68505,Lancaster,NE
68506,Lancaster,NE
68507,Lancaster,NE
68508,Lancaster,NE
68510,Lancaster,NE
68521,Lancaster,NE
68522,Lancaster,NE
68588,Lancaster,NE
68731,Dakota,NE
68743,Dakota,NE
68770,Dixon,NE
68776,Dakota,NE
70001,Jefferson Parish,LA
70002,Jefferson Parish,LA
70005,Jefferson Parish,LA
70006,Jefferson Parish,LA
70062,Jefferson Parish,LA
70065,Jefferson Parish,LA
70115,Orleans Parish,LA
70118,Orleans Parish,LA
70121,Jefferson Parish,LA
70123,Jefferson Parish,LA
70124,Orleans Parish,LA
70420,St. Tammany Parish,LA
70433,St. Tammany Parish,LA
70435,St. Tammany Parish,LA
70445,St. Tammany Parish,LA
70447,St. Tammany Parish,LA
70448,St. Tammany Parish,LA
70458,St. Tammany Parish,LA
70460,St. Tammany Parish,LA
70471,St. Tammany Parish,LA
71901,Garland,AR
71909,Garland,AR
71949,Garland,AR
71956,Garland,AR
72002,Saline,AR
72015,Saline,AR
72016,Perry,AR
72019,Saline,AR
72022,Saline,AR
72023,Lonoke,AR
72032,Faulkner,AR
72034,Faulkner,AR
72035,Faulkner,AR
72058,Faulkner,AR
72070,Perry,AR
72076,Pulaski,AR
72099,Pulaski,AR
72103,Saline,AR
72106,Faulkner,AR
72113,Pulaski,AR
72116,Pulaski,AR
72118,Pulaski,AR
72120,Pulaski,AR
72126,Perry,AR
72135,Pulaski,AR
72173,Faulkner,AR
72199,Pulaski,AR
72202,Pulaski,AR
72205,Pulaski,AR
72207,Pulaski,AR
72211,Pulaski,AR
72212,Pulaski,AR
72223,Pulaski,AR
72227,Pulaski,AR
72401,Craighead,AR
72404,Craighead,AR
72405,,
72450,Greene,AR
72701,Washington,AR
72703,Washington,AR
72712,Benton,AR
72714,Benton,AR
72715,Benton,AR
72745,Benton,AR
72756,Benton,AR
72758,Benton,AR
72762,Washington,AR
72764,Washington,AR
72774,Washington,AR
72901,Sebastian,AR
72903,Sebastian,AR
72904,Sebastian,AR
72908,Sebastian,AR
72916,Sebastian,AR
72934,Crawford,AR
72952,Crawford,AR
72956,Crawford,AR
73003,Oklahoma,OK
73008,Oklahoma,OK
73010,McClain,OK
73012,Oklahoma,OK
73013,Oklahoma,OK
73017,Caddo,OK
73018,Grady,OK
73020,Oklahoma,OK
73025,Oklahoma,OK
73027,Payne,OK
73029,Caddo,OK
73034,Oklahoma,OK
73036,Canadian,OK
73044,Logan,OK
73049,Oklahoma,OK
73059,Grady,OK
73064,Canadian,OK
73065,McClain,OK
73066,Oklahoma,OK
73069,Cleveland,OK
73071,Cleveland,OK
73072,Cleveland,OK
73089,Grady,OK
73090,Canadian,OK
73099,Canadian,OK
73102,Oklahoma,OK
73103,Oklahoma,OK
73104,Oklahoma,OK
73105,Oklahoma,OK
73106,Oklahoma,OK
73107,Oklahoma,OK
73108,Oklahoma,OK
73109,Oklahoma,OK
73110,Oklahoma,OK
73111,Oklahoma,OK
73112,Oklahoma,OK
73114,Oklahoma,OK
73115,Oklahoma,OK
73116,Oklahoma,OK
73117,Oklahoma,OK
73118,Oklahoma,OK
73119,Oklahoma,OK
73120,Oklahoma,OK
73121,Oklahoma,OK
73122,Oklahoma,OK
73128,Canadian,OK
73129,Oklahoma,OK
73130,Oklahoma,OK
73131,Oklahoma,OK
73132,Oklahoma,OK
73134,Oklahoma,OK
73135,Oklahoma,OK
73139,Oklahoma,OK
73141,Oklahoma,OK
73142,Oklahoma,OK
73145,Oklahoma,OK
73149,Oklahoma,OK
73150,Oklahoma,OK
73151,Oklahoma,OK
73159,Oklahoma,OK
73160,Cleveland,OK
73162,Oklahoma,OK
73165,Cleveland,OK
73169,Oklahoma,OK
73170,Cleveland,OK
73173,Cleveland,OK
73179,Oklahoma,OK
73195,Oklahoma,OK
73344,Travis,TX
73501,Comanche,OK
73503,Comanche,OK
73505,Comanche,OK
73507,Comanche,OK
73531,Cotton,OK
73538,Comanche,OK
73541,Comanche,OK
73562,Cotton,OK
73568,Cotton,OK
73572,Cotton,OK
74002,Osage,OK
74003,Osage,OK
74006,Washington,OK
74008,Tulsa,OK
74011,Tulsa,OK
74012,Tulsa,OK
74022,Washington,OK
74027,Nowata,OK
74029,Washington,OK
74037,Tulsa,OK
74048,Nowata,OK
74051,Washington,OK
74055,Tulsa,OK
74061,Washington,OK
74070,Osage,OK
74074,Payne,OK
74075,Payne,OK
74078,Payne,OK
74083,Nowata,OK
74105,Tulsa,OK
74112,Tulsa,OK
74114,Tulsa,OK
74116,Tulsa,OK
74119,Tulsa,OK
74120,Tulsa,OK
74128,Tulsa,OK
74129,Tulsa,OK
74132,Tulsa,OK
74133,Tulsa,OK
74134,Tulsa,OK
74135,Tulsa,OK
74136,Tulsa,OK
74137,Tulsa,OK
74145,Tulsa,OK
74146,Tulsa,OK
74801,Pottawatomie,OK
74804,Pottawatomie,OK
74857,Cleveland,OK
75001,Dallas,TX
75002,Collin,TX
75006,Dallas,TX
75007,Denton,TX
75009,Collin,TX
75010,Denton,TX
75013,Collin,TX
75019,Dallas,TX
75021,Grayson,TX
75022,Denton,TX
75023,Collin,TX
75024,Collin,TX
75025,Collin,TX
75026,Collin,TX
75028,Denton,TX
75032,Rockwall,TX
75034,Denton,TX
75035,Collin,TX
75038,Dallas,TX
75039,Dallas,TX
75040,Dallas,TX
75041,Dallas,TX
75042,Dallas,TX
75043,Dallas,TX
75044,Dallas,TX
75048,Dallas,TX
75050,Dallas,TX
75051,Dallas,TX
75052,Dallas,TX
75054,Tarrant,TX
75056,Denton,TX
75057,Denton,TX
75058,Grayson,TX
75060,Dallas,TX
75061,Dallas,TX
75062,Dallas,TX
75063,Dallas,TX
75065,Denton,TX
75067,Denton,TX
75069,Collin,TX
75070,Collin,TX
75071,Collin,TX
75072,,
75074,Collin,TX
75075,Collin,TX
75077,Denton,TX
75078,Collin,TX
75080,Dallas,TX
75081,Dallas,TX
75082,Collin,TX
75086,Collin,TX
75087,Rockwall,TX
75088,Dallas,TX
75090,Grayson,TX
75092,Grayson,TX
75093,Collin,TX
75094,Collin,TX
75098,Collin,TX
75104,Dallas,TX
75115,Dallas,TX
75116,Dallas,TX
75123,Dallas,TX
75134,Dallas,TX
75137,Dallas,TX
75138,Dallas,TX
75146,Dallas,TX
75154,Ellis,TX
75165,Ellis,TX
75167,Ellis,TX
75168,Ellis,TX
75189,Rockwall,TX
75201,Dallas,TX
75204,Dallas,TX
75205,Dallas,TX
75206,Dallas,TX
75209,Dallas,TX
75214,Dallas,TX
75218,Dallas,TX
75219,Dallas,TX
75225,Dallas,TX
75229,Dallas,TX
75230,Dallas,TX
75231,Dallas,TX
75232,Dallas,TX
75234,Dallas,TX
75237,Dallas,TX
75238,Dallas,TX
75240,Dallas,TX
75243,Dallas,TX
75244,Dallas,TX
75248,Dallas,TX
75249,Dallas,TX
75251,Dallas,TX
75252,Collin,TX
75254,Dallas,TX
75287,Denton,TX
75376,Dallas,TX
75407,Collin,TX
75409,Collin,TX
75414,Grayson,TX
75418,Fannin,TX
75424,Collin,TX
75439,Fannin,TX
75442,Collin,TX
75454,Collin,TX
75459,Grayson,TX
75474,Hunt,TX
75479,Fannin,TX
75495,Grayson,TX
75601,Gregg,TX
75602,Gregg,TX
75603,Gregg,TX
75604,Gregg,TX
75605,Gregg,TX
75647,Gregg,TX
75652,Rusk,TX
75653,Rusk,TX
75654,Rusk,TX
75662,Gregg,TX
75680,Rusk,TX
75684,Rusk,TX
75687,Rusk,TX
75689,Rusk,TX
75701,Smith,TX
75702,Smith,TX
75703,Smith,TX
75704,Smith,TX
75706,Smith,TX
75762,Smith,TX
75766,Cherokee,TX
75771,Smith,TX
75773,Wood,TX
75785,Cherokee,TX
75789,Smith,TX
75791,Smith,TX
75901,Angelina,TX
75904,Angelina,TX
75925,Cherokee,TX
75961,Nacogdoches,TX
75962,Nacogdoches,TX
75963,Nacogdoches,TX
75964,Nacogdoches,TX
75965,Nacogdoches,TX
75969,Angelina,TX
75976,Cherokee,TX
76001,Tarrant,TX
76002,Tarrant,TX
76006,Tarrant,TX
76008,Parker,TX
76009,Johnson,TX
76011,Tarrant,TX
76012,Tarrant,TX
76013,Tarrant,TX
76015,Tarrant,TX
76016,Tarrant,TX
76017,Tarrant,TX
76020,Tarrant,TX
76021,Tarrant,TX
76022,Tarrant,TX
76028,Johnson,TX
76031,Johnson,TX
76033,Johnson,TX
76034,Tarrant,TX
76035,Parker,TX
76036,Tarrant,TX
76039,Tarrant,TX
76040,Tarrant,TX
76043,Somervell,TX
76044,Johnson,TX
76048,Hood,TX
76049,Hood,TX
76050,Johnson,TX
76051,Tarrant,TX
76052,Tarrant,TX
76053,Tarrant,TX
76054,Tarrant,TX
76055,Hill,TX
76058,Johnson,TX
76059,Johnson,TX
76060,Tarrant,TX
76063,Tarrant,TX
76065,Ellis,TX
76066,Parker,TX
76085,Parker,TX
76086,Parker,TX
76087,Parker,TX
76088,Parker,TX
76092,Tarrant,TX
76093,Johnson,TX
76102,Tarrant,TX
76103,Tarrant,TX
76104,Tarrant,TX
76107,Tarrant,TX
76108,Tarrant,TX
76109,Tarrant,TX
76111,Tarrant,TX
76112,Tarrant,TX
76114,Tarrant,TX
76116,Tarrant,TX
76117,Tarrant,TX
76118,Tarrant,TX
76126,Tarrant,TX
76132,Tarrant,TX
76133,Tarrant,TX
76135,Tarrant,TX
76137,Tarrant,TX
76148,Tarrant,TX
76177,Tarrant,TX
76180,Tarrant,TX
76182,Tarrant,TX
76201,Denton,TX
76205,Denton,TX
76207,Denton,TX
76208,Denton,TX
76209,Denton,TX
76210,Denton,TX
76226,Denton,TX
76227,Denton,TX
76233,Grayson,TX
76234,Wise,TX
76244,Tarrant,TX
76246,Wise,TX
76247,Denton,TX
76248,Tarrant,TX
76249,Denton,TX
76258,Denton,TX
76259,Denton,TX
76262,Denton,TX
76264,Grayson,TX
76267,Wise,TX
76271,Grayson,TX
76273,Grayson,TX
76301,Wichita,TX
76302,Wichita,TX
76305,Wichita,TX
76306,Wichita,TX
76308,Wichita,TX
76309,Wichita,TX
76310,Wichita,TX
76401,Erath,TX
76433,Erath,TX
76462,Hood,TX
76476,Hood,TX
76490,Parker,TX
76501,Bell,TX
76502,Bell,TX
76503,Bell,TX
76504,Bell,TX
76505,Bell,TX
76508,Bell,TX
76513,Bell,TX
76522,Coryell,TX
76524,McLennan,TX
76525,Coryell,TX
76527,Williamson,TX
76539,Lampasas,TX
76541,Bell,TX
76542,Bell,TX
76543,Bell,TX
76544,Bell,TX
76548,Bell,TX
76549,Bell,TX
76550,Lampasas,TX
76557,McLennan,TX
76559,Bell,TX
76567,Milam,TX
76571,Bell,TX
76577,Milam,TX
76621,Hill,TX
76622,Hill,TX
76624,McLennan,TX
76627,Hill,TX
76628,Hill,TX
76630,McLennan,TX
76631,Hill,TX
76633,McLennan,TX
76636,Hill,TX
76638,McLennan,TX
76640,McLennan,TX
76643,McLennan,TX
76645,Hill,TX
76648,Hill,TX
76650,Hill,TX
76654,McLennan,TX
76655,McLennan,TX
76657,McLennan,TX
76660,Hill,TX
76664,McLennan,TX
76666,Hill,TX
76673,Hill,TX
76676,Hill,TX
76682,McLennan,TX
76684,McLennan,TX
76689,Bosque,TX
76691,McLennan,TX
76692,Hill,TX
76701,McLennan,TX
76702,Mclennan,TX
76703,Mclennan,TX
76704,McLennan,TX
76705,McLennan,TX
76706,McLennan,TX
76707,McLennan,TX
76708,McLennan,TX
76710,McLennan,TX
76711,McLennan,TX
76712,McLennan,TX
76714,Mclennan,TX
76715,Mclennan,TX
76716,Mclennan,TX
76795,Mclennan,TX
76797,Mclennan,TX
76798,McLennan,TX
76799,Mclennan,TX
76821,Runnels,TX
76831,Llano,TX
76832,San Saba,TX
76853,Lampasas,TX
76861,Runnels,TX
76865,Runnels,TX
76875,Runnels,TX
76877,San Saba,TX
76885,Llano,TX
76901,Tom Green,TX
76903,Tom Green,TX
76904,Tom Green,TX
76905,Tom Green,TX
76933,Coke,TX
77002,Harris,TX
77005,Harris,TX
77006,Harris,TX
77007,Harris,TX
77008,Harris,TX
77014,Harris,TX
77018,Harris,TX
77019,Harris,TX
77024,Harris,TX
77025,Harris,TX
77027,Harris,TX
77030,Harris,TX
77031,Harris,TX
77034,Harris,TX
77035,Harris,TX
77036,Harris,TX
77037,Harris,TX
77038,Harris,TX
77040,Harris,TX
77041,Harris,TX
77042,Harris,TX
77043,Harris,TX
77044,Harris,TX
77054,Harris,TX
77055,Harris,TX
77056,Harris,TX
77057,Harris,TX
77058,Harris,TX
77059,Harris,TX
77062,Harris,TX
77063,Harris,TX
77064,Harris,TX
77065,Harris,TX
77066,Harris,TX
77068,Harris,TX
77069,Harris,TX
77070,Harris,TX
77071,Harris,TX
77072,Harris,TX
77074,Harris,TX
77077,Harris,TX
77079,Harris,TX
77080,Harris,TX
77081,Harris,TX
77082,Harris,TX
77083,Harris,TX
77084,Harris,TX
77085,Harris,TX
77086,Harris,TX
77088,Harris,TX
77089,Harris,TX
77090,Harris,TX
77091,Harris,TX
77092,Harris,TX
77094,Harris,TX
77095,Harris,TX
77096,Harris,TX
77098,Harris,TX
77099,Harris,TX
77206,Harris,TX
77231,Harris,TX
77235,Harris,TX
77238,Harris,TX
77268,Harris,TX
77271,Harris,TX
77291,Harris,TX
77292,Harris,TX
77304,Montgomery,TX
77338,Harris,TX
77339,Harris,TX
77340,Walker,TX
77345,Harris,TX
77346,Harris,TX
77354,Montgomery,TX
77355,Montgomery,TX
77356,Montgomery,TX
77365,Montgomery,TX
77373,Harris,TX
77375,Harris,TX
77379,Harris,TX
77380,Montgomery,TX
77381,Montgomery,TX
77382,Montgomery,TX
77384,Montgomery,TX
77385,Montgomery,TX
77386,Montgomery,TX
77388,Harris,TX
77389,Harris,TX
77396,Harris,TX
77401,Harris,TX
77406,Fort Bend,TX
77407,Fort Bend,TX
77417,Fort Bend,TX
77418,Austin,TX
77420,Wharton,TX
77422,Brazoria,TX
77423,Waller,TX
77426,Washington,TX
77429,Harris,TX
77430,Brazoria,TX
77433,Harris,TX
77434,Colorado,TX
77435,Wharton,TX
77437,Wharton,TX
77441,Fort Bend,TX
77442,Colorado,TX
77445,Waller,TX
77449,Harris,TX
77450,Harris,TX
77454,Wharton,TX
77455,Wharton,TX
77459,Fort Bend,TX
77461,Fort Bend,TX
77466,Waller,TX
77469,Fort Bend,TX
77471,Fort Bend,TX
77474,Austin,TX
77477,Fort Bend,TX
77478,Fort Bend,TX
77479,Fort Bend,TX
77484,Waller,TX
77485,Austin,TX
77486,Brazoria,TX
77488,Wharton,TX
77489,Fort Bend,TX
77492,Waller,TX
77493,Harris,TX
77494,Fort Bend,TX
77497,Fort Bend,TX
77498,Fort Bend,TX
77504,Harris,TX
77505,Harris,TX
77506,Harris,TX
77507,Harris,TX
77510,Galveston,TX
77511,Brazoria,TX
77514,Chambers,TX
77515,Brazoria,TX
77517,Galveston,TX
77520,Harris,TX
77521,Harris,TX
77523,Chambers,TX
77531,Brazoria,TX
77532,Harris,TX
77534,Brazoria,TX
77536,Harris,TX
77538,Liberty,TX
77539,Galveston,TX
77541,Brazoria,TX
77545,Fort Bend,TX
77546,Galveston,TX
77550,Galveston,TX
77551,Galveston,TX
77554,Galveston,TX
77563,Galveston,TX
77565,Galveston,TX
77566,Brazoria,TX
77568,Galveston,TX
77573,Galveston,TX
77577,Brazoria,TX
77578,Brazoria,TX
77581,Brazoria,TX
77583,Brazoria,TX
77584,Brazoria,TX
77586,Harris,TX
77588,Brazoria,TX
77590,Galveston,TX
77591,Galveston,TX
77597,Chambers,TX
77598,Harris,TX
77627,Jefferson,TX
77701,Jefferson,TX
77702,Jefferson,TX
77703,Jefferson,TX
77705,Jefferson,TX
77706,Jefferson,TX
77707,Jefferson,TX
77708,Jefferson,TX
77713,Jefferson,TX
77802,Brazos,TX
77803,Brazos,TX
77807,Brazos,TX
77808,Brazos,TX
77830,Grimes,TX
77831,Grimes,TX
77833,Washington,TX
77835,Washington,TX
77840,Brazos,TX
77841,Brazos,TX
77842,Brazos,TX
77844,Brazos,TX
77845,Brazos,TX
77861,Grimes,TX
77868,Grimes,TX
77873,Grimes,TX
77879,Burleson,TX
77880,Washington,TX
77901,Victoria,TX
77902,Victoria,TX
77903,Victoria,TX
77904,Victoria,TX
77905,Victoria,TX
77954,DeWitt,TX
77957,Jackson,TX
77962,Jackson,TX
77964,Lavaca,TX
77968,Victoria,TX
77974,Victoria,TX
77975,Lavaca,TX
77984,Lavaca,TX
77995,Lavaca,TX
78006,Kendall,TX
78010,Kerr,TX
78013,Kendall,TX
78015,Bexar,TX
78023,Bexar,TX
78027,Kendall,TX
78028,Kerr,TX
78070,Comal,TX
78108,Guadalupe,TX
78109,Bexar,TX
78123,Guadalupe,TX
78124,Guadalupe,TX
78130,Comal,TX
78132,Comal,TX
78133,Comal,TX
78150,Bexar,TX
78154,Guadalupe,TX
78155,Guadalupe,TX
78163,Comal,TX
78209,Bexar,TX
78213,Bexar,TX
78215,Bexar,TX
78216,Bexar,TX
78217,Bexar,TX
78218,Bexar,TX
78229,Bexar,TX
78230,Bexar,TX
78231,Bexar,TX
78232,Bexar,TX
78233,Bexar,TX
78234,Bexar,TX
78238,Bexar,TX
78240,Bexar,TX
78247,Bexar,TX
78248,Bexar,TX
78249,Bexar,TX
78253,Bexar,TX
78254,Bexar,TX
78255,Bexar,TX
78256,Bexar,TX
78257,Bexar,TX
78258,Bexar,TX
78259,Bexar,TX
78260,Bexar,TX
78261,Bexar,TX
78266,Comal,TX
78284,Bexar,TX
78336,San Patricio,TX
78362,San Patricio,TX
78373,Nueces,TX
78374,San Patricio,TX
78382,Aransas,TX
78401,Nueces,TX
78402,Nueces,TX
78404,Nueces,TX
78405,Nueces,TX
78406,Nueces,TX
78407,Nueces,TX
78408,Nueces,TX
78409,Nueces,TX
78410,Nueces,TX
78411,Nueces,TX
78412,Nueces,TX
78413,Nueces,TX
78414,Nueces,TX
78418,Nueces,TX
78602,Bastrop,TX
78605,Burnet,TX
78606,Blanco,TX
78607,Llano,TX
78608,Burnet,TX
78609,Llano,TX
78610,Hays,TX
78611,Burnet,TX
78612,Bastrop,TX
78613,Williamson,TX
78614,Gonzales,TX
78616,Caldwell,TX
78619,Hays,TX
78620,Hays,TX
78623,Comal,TX
78624,Gillespie,TX
78626,Williamson,TX
78628,Williamson,TX
78629,Gonzales,TX
78630,Williamson,TX
78632,Gonzales,TX
78633,Williamson,TX
78634,Williamson,TX
78635,Blanco,TX
78636,Blanco,TX
78638,Guadalupe,TX
78639,Llano,TX
78640,Hays,TX
78641,Williamson,TX
78642,Williamson,TX
78643,Llano,TX
78644,Caldwell,TX
78645,Travis,TX
78648,Caldwell,TX
78650,Bastrop,TX
78652,Travis,TX
78653,Travis,TX
78654,Burnet,TX
78655,Caldwell,TX
78656,Caldwell,TX
78657,Llano,TX
78659,Bastrop,TX
78660,Travis,TX
78662,Bastrop,TX
78663,Blanco,TX
78664,Williamson,TX
78665,Williamson,TX
78666,Hays,TX
78669,Travis,TX
78671,Gillespie,TX
78672,Llano,TX
78675,Gillespie,TX
78676,Hays,TX
78680,Williamson,TX
78681,Williamson,TX
78682,Williamson,TX
78683,Williamson,TX
78691,Travis,TX
78701,Travis,TX
78703,Travis,TX
78704,Travis,TX
78705,Travis,TX
78709,Travis,TX
78710,Travis,TX
78715,Travis,TX
78717,Williamson,TX
78722,Travis,TX
78723,Travis,TX
78724,Travis,TX
78726,Travis,TX
78727,Travis,TX
78728,Travis,TX
78729,Williamson,TX
78730,Travis,TX
78731,Travis,TX
78732,Travis,TX
78733,Travis,TX
78734,Travis,TX
78735,Travis,TX
78736,Travis,TX
78737,Hays,TX
78738,Travis,TX
78739,Travis,TX
78744,Travis,TX
78745,Travis,TX
78746,Travis,TX
78747,Travis,TX
78748,Travis,TX
78749,Travis,TX
78750,Travis,TX
78751,Travis,TX
78752,Travis,TX
78753,Travis,TX
78754,Travis,TX
78756,Travis,TX
78757,Travis,TX
78758,Travis,TX
78759,Travis,TX
78931,Austin,TX
78932,Fayette,TX
78933,Colorado,TX
78934,Colorado,TX
78935,Colorado,TX
78938,Fayette,TX
78940,Fayette,TX
78941,Fayette,TX
78942,Lee,TX
78944,Austin,TX
78945,Fayette,TX
78946,Lee,TX
78949,Fayette,TX
78950,Austin,TX
78953,Bastrop,TX
78954,Fayette,TX
78956,Fayette,TX
78957,Bastrop,TX
78959,Gonzales,TX
78962,Colorado,TX
78963,Fayette,TX
79007,Hutchinson,TX
79009,Parmer,TX
79015,Randall,TX
79035,Parmer,TX
79039,Carson,TX
79041,Hale,TX
79045,Deaf Smith,TX
79065,Gray,TX
79068,Carson,TX
79072,Hale,TX
79080,Carson,TX
79083,Hutchinson,TX
79085,Castro,TX
79092,Oldham,TX
79097,Carson,TX
79098,Oldham,TX
79103,Potter,TX
79106,Potter,TX
79107,Potter,TX
79108,Potter,TX
79109,Randall,TX
79110,Randall,TX
79111,Potter,TX
79118,Randall,TX
79119,Randall,TX
79121,Randall,TX
79124,Potter,TX
79235,Floyd,TX
79311,Hale,TX
79322,Crosby,TX
79325,Parmer,TX
79329,Lubbock,TX
79336,Hockley,TX
79339,Lamb,TX
79343,Crosby,TX
79356,Garza,TX
79364,Lubbock,TX
79373,Lynn,TX
79401,Lubbock,TX
79404,Lubbock,TX
79407,Lubbock,TX
79410,Lubbock,TX
79412,Lubbock,TX
79413,Lubbock,TX
79414,Lubbock,TX
79416,Lubbock,TX
79423,Lubbock,TX
79424,Lubbock,TX
79541,Taylor,TX
79562,Taylor,TX
79566,Taylor,TX
79567,Runnels,TX
79601,Taylor,TX
79602,Taylor,TX
79605,Taylor,TX
79606,Taylor,TX
79607,Taylor,TX
79701,Midland,TX
79703,Midland,TX
79705,Midland,TX
79706,Midland,TX
79707,Midland,TX
79741,Ector,TX
79758,Ector,TX
79761,Ector,TX
79762,Ector,TX
79763,Ector,TX
79764,Ector,TX
79765,Ector,TX
79766,Ector,TX
79902,El Paso,TX
79904,El Paso,TX
79905,El Paso,TX
79906,El Paso,TX
79908,El Paso,TX
79911,El Paso,TX
79912,El Paso,TX
79916,El Paso,TX
79918,El Paso,TX
79922,El Paso,TX
79924,El Paso,TX
79925,El Paso,TX
79930,El Paso,TX
79935,El Paso,TX
79936,El Paso,TX
80002,Jefferson,CO
80003,Jefferson,CO
80004,Jefferson,CO
80005,Jefferson,CO
80007,Jefferson,CO
80010,Arapahoe,CO
80011,Arapahoe,CO
80012,Arapahoe,CO
80013,Arapahoe,CO
80014,Arapahoe,CO
80015,Arapahoe,CO
80017,Arapahoe,CO
80020,Broomfield,CO
80021,Jefferson,CO
80022,Adams,CO
80023,Broomfield,CO
80025,Boulder,CO
80026,Boulder,CO
80027,Boulder,CO
80030,Adams,CO
80031,Adams,CO
80033,Jefferson,CO
80045,Adams,CO
80104,Douglas,CO
80107,Elbert,CO
80108,Douglas,CO
80109,Douglas,CO
80110,Arapahoe,CO
80111,Arapahoe,CO
80112,Arapahoe,CO
80113,Arapahoe,CO
80116,Douglas,CO
80120,Arapahoe,CO
80121,Arapahoe,CO
80122,Arapahoe,CO
80123,Jefferson,CO
80124,Douglas,CO
80125,Douglas,CO
80126,Douglas,CO
80127,Jefferson,CO
80128,Jefferson,CO
80129,Douglas,CO
80130,Douglas,CO
80134,Douglas,CO
80135,Douglas,CO
80138,Douglas,CO
80202,Denver,CO
80204,Denver,CO
80206,Denver,CO
80207,Denver,CO
80209,Denver,CO
80210,Denver,CO
80211,Denver,CO
80214,Jefferson,CO
80215,Jefferson,CO
80218,Denver,CO
80219,Denver,CO
80220,Denver,CO
80221,Adams,CO
80222,Denver,CO
80223,Denver,CO
80224,Denver,CO
80226,Jefferson,CO
80227,Jefferson,CO
80228,Jefferson,CO
80229,Adams,CO
80230,Denver,CO
80231,Denver,CO
80232,Jefferson,CO
80233,Adams,CO
80234,Adams,CO
80235,Jefferson,CO
80236,Denver,CO
80237,Denver,CO
80238,Denver,CO
80241,Adams,CO
80246,Denver,CO
80247,Arapahoe,CO
80260,Adams,CO
80301,Boulder,CO
80302,Boulder,CO
80303,Boulder,CO
80304,Boulder,CO
80305,Boulder,CO
80306,Boulder,CO
80307,Boulder,CO
80308,Boulder,CO
80309,Boulder,CO
80310,Boulder,CO
80314,Boulder,CO
80401,Jefferson,CO
80421,Park,CO
80424,Summit,CO
80433,Jefferson,CO
80435,Summit,CO
80439,Jefferson,CO
80442,Grand,CO
80446,Grand,CO
80451,Grand,CO
80455,Boulder,CO
80459,Grand,CO
80465,Jefferson,CO
80466,Boulder,CO
80468,Grand,CO
80470,Jefferson,CO
80471,Boulder,CO
80477,Routt,CO
80478,Grand,CO
80481,Boulder,CO
80482,Grand,CO
80487,Routt,CO
80488,Routt,CO
80498,Summit,CO
80501,Boulder,CO
80502,Boulder,CO
80503,Boulder,CO
80504,Boulder,CO
80510,Boulder,CO
80513,Larimer,CO
80514,Weld,CO
80516,Weld,CO
80523,Larimer,CO
80524,Larimer,CO
80525,Larimer,CO
80526,Larimer,CO
80527,Larimer,CO
80528,Larimer,CO
80530,Weld,CO
80533,Boulder,CO
80534,Weld,CO
80537,Larimer,CO
80538,Larimer,CO
80540,Boulder,CO
80542,Weld,CO
80543,Weld,CO
80544,Boulder,CO
80547,Larimer,CO
80550,Weld,CO
80553,Larimer,CO
80601,Adams,CO
80602,Adams,CO
80603,Weld,CO
80621,Weld,CO
80631,Weld,CO
80632,Weld,CO
80633,Weld,CO
80634,Weld,CO
80640,Adams,CO
80642,Weld,CO
80643,Weld,CO
80644,Weld,CO
80645,Weld,CO
80651,Weld,CO
80809,El Paso,CO
80829,El Paso,CO
80903,El Paso,CO
80904,El Paso,CO
80905,El Paso,CO
80906,El Paso,CO
80907,El Paso,CO
80909,El Paso,CO
80910,El Paso,CO
80911,El Paso,CO
80917,El Paso,CO
80918,El Paso,CO
80919,El Paso,CO
80920,El Paso,CO
80921,El Paso,CO
80924,El Paso,CO
81001,Pueblo,CO
81002,Pueblo,CO
81003,Pueblo,CO
81004,Pueblo,CO
81005,Pueblo,CO
81006,Pueblo,CO
81007,Pueblo,CO
81008,Pueblo,CO
81009,Pueblo,CO
81010,Pueblo,CO
81011,Pueblo,CO
81012,Pueblo,CO
81019,Pueblo,CO
81020,Las Animas,CO
81022,Pueblo,CO
81023,Pueblo,CO
81024,Las Animas,CO
81025,Pueblo,CO
81027,Las Animas,CO
81030,Otero,CO
81033,Crowley,CO
81034,Crowley,CO
81038,Bent,CO
81039,Otero,CO
81040,Huerfano,CO
81041,Prowers,CO
81043,Prowers,CO
81044,Bent,CO
81046,Las Animas,CO
81047,Prowers,CO
81049,Las Animas,CO
81050,Otero,CO
81052,Prowers,CO
81054,Bent,CO
81055,Huerfano,CO
81057,Bent,CO
81058,Otero,CO
81059,Las Animas,CO
81062,Crowley,CO
81063,Crowley,CO
81064,Baca,CO
81067,Otero,CO
81069,Pueblo,CO
81076,Crowley,CO
81077,Otero,CO
81081,Las Animas,CO
81082,Las Animas,CO
81084,Baca,CO
81089,Huerfano,CO
81091,Las Animas,CO
81092,Prowers,CO
81101,Alamosa,CO
81122,La Plata,CO
81137,San Juan,CO
81147,Archuleta,CO
81212,Fremont,CO
81215,Fremont,CO
81221,Fremont,CO
81222,Fremont,CO
81223,Fremont,CO
81224,Gunnison,CO
81225,Gunnison,CO
81226,Fremont,CO
81230,Gunnison,CO
81233,Fremont,CO
81235,Hinsdale,CO
81240,Fremont,CO
81244,Fremont,CO
81252,Custer,CO
81253,Custer,CO
81290,Fremont,CO
81301,La Plata,CO
81303,La Plata,CO
81321,Montezuma,CO
81401,Montrose,CO
81413,Delta,CO
81416,Delta,CO
81418,Delta,CO
81501,Mesa,CO
81503,Mesa,CO
81504,Mesa,CO
81505,Mesa,CO
81506,Mesa,CO
81507,Mesa,CO
81520,Mesa,CO
81521,Mesa,CO
81526,Mesa,CO
81601,Garfield,CO
81611,Pitkin,CO
81621,Eagle,CO
81623,Garfield,CO
81624,Mesa,CO
81625,Moffat,CO
81630,Mesa,CO
81631,Eagle,CO
81635,Garfield,CO
81637,Eagle,CO
81639,Routt,CO
81647,Garfield,CO
81650,Garfield,CO
81652,Garfield,CO
81657,Eagle,CO
81874,,
82001,Laramie,WY
82002,Laramie,WY
82003,Laramie,WY
82005,Laramie,WY
82006,Laramie,WY
82007,Laramie,WY
82009,Laramie,WY
82010,Laramie,WY
82051,Albany,WY
82052,Albany,WY
82059,Laramie,WY
82061,Laramie,WY
82063,Albany,WY
82070,Albany,WY
82072,Albany,WY
82073,Albany,WY
82201,Platte,WY
82210,Platte,WY
82213,Platte,WY
82214,Platte,WY
82601,Natrona,WY
82602,Natrona,WY
82605,Natrona,WY
82609,Natrona,WY
82633,Converse,WY
82636,Natrona,WY
82644,Natrona,WY
83201,Bannock,ID
83202,Bannock,ID
83204,Bannock,ID
83221,Bingham,ID
83262,Bingham,ID
83401,Bonneville,ID
83402,Bonneville,ID
83404,Bonneville,ID
83406,Bonneville,ID
83440,Madison,ID
83442,Jefferson,ID
83605,Canyon,ID
83606,Canyon,ID
83616,Ada,ID
83642,Ada,ID
83646,Ada,ID
83651,Canyon,ID
83652,Canyon,ID
83653,Canyon,ID
83669,Ada,ID
83680,Ada,ID
83686,Canyon,ID
83687,Canyon,ID
83701,Ada,ID
83702,Ada,ID
83704,Ada,ID
83706,Ada,ID
83707,Ada,ID
83709,Ada,ID
83711,Ada,ID
83712,Ada,ID
83719,Ada,ID
83722,Ada,ID
83724,Ada,ID
83726,Ada,ID
83728,Ada,ID
83729,Ada,ID
83731,Ada,ID
83732,Ada,ID
83735,Ada,ID
83756,Ada,ID
83799,Ada,ID
84003,Utah,UT
84004,Utah,UT
84006,Salt Lake,UT
84009,Salt Lake,UT
84010,Davis,UT
84014,Davis,UT
84020,Salt Lake,UT
84037,Davis,UT
84040,Davis,UT
84041,Davis,UT
84042,Utah,UT
84043,Utah,UT
84044,Salt Lake,UT
84047,Salt Lake,UT
84050,Morgan,UT
84054,Davis,UT
84057,Utah,UT
84058,Utah,UT
84059,Utah,UT
84062,Utah,UT
84065,Salt Lake,UT
84070,Salt Lake,UT
84084,Salt Lake,UT
84088,Salt Lake,UT
84092,Salt Lake,UT
84093,Salt Lake,UT
84094,Salt Lake,UT
84095,Salt Lake,UT
84096,Salt Lake,UT
84097,Utah,UT
84102,Salt Lake,UT
84103,Salt Lake,UT
84104,Salt Lake,UT
84106,Salt Lake,UT
84107,Salt Lake,UT
84108,Salt Lake,UT
84109,Salt Lake,UT
84112,Salt Lake,UT
84115,Salt Lake,UT
84116,Salt Lake,UT
84117,Salt Lake,UT
84118,Salt Lake,UT
84119,Salt Lake,UT
84121,Salt Lake,UT
84123,Salt Lake,UT
84124,Salt Lake,UT
84132,Salt Lake,UT
84148,Salt Lake,UT
84244,Weber,UT
84310,Weber,UT
84317,Weber,UT
84401,Weber,UT
84402,Weber,UT
84403,Weber,UT
84404,Weber,UT
84405,Weber,UT
84409,Weber,UT
84414,Weber,UT
84601,Utah,UT
84603,Utah,UT
84604,Utah,UT
84701,Sevier,UT
84713,Beaver,UT
84720,Iron,UT
84737,Washington,UT
84738,Washington,UT
84741,Kane,UT
84745,Washington,UT
84765,Washington,UT
84770,Washington,UT
84780,Washington,UT
84790,Washington,UT
85003,Maricopa,AZ
85004,Maricopa,AZ
85006,Maricopa,AZ
85008,Maricopa,AZ
85012,Maricopa,AZ
85013,Maricopa,AZ
85014,Maricopa,AZ
85016,Maricopa,AZ
85018,Maricopa,AZ
85020,Maricopa,AZ
85022,Maricopa,AZ
85024,Maricopa,AZ
85027,Maricopa,AZ
85028,Maricopa,AZ
85032,Maricopa,AZ
85037,Maricopa,AZ
85040,Maricopa,AZ
85041,Maricopa,AZ
85042,Maricopa,AZ
85044,Maricopa,AZ
85045,Maricopa,AZ
85048,Maricopa,AZ
85050,Maricopa,AZ
85053,Maricopa,AZ
85054,Maricopa,AZ
85066,Maricopa,AZ
85083,Maricopa,AZ
85085,Maricopa,AZ
85086,Maricopa,AZ
85087,Maricopa,AZ
85118,Pinal,AZ
85119,Pinal,AZ
85120,Pinal,AZ
85122,Pinal,AZ
85123,Pinal,AZ
85128,Pinal,AZ
85131,Pinal,AZ
85132,Pinal,AZ
85138,Pinal,AZ
85139,Pinal,AZ
85140,Pinal,AZ
85141,Pinal,AZ
85142,Maricopa,AZ
85143,Pinal,AZ
85145,Pinal,AZ
85172,Pinal,AZ
85191,Pinal,AZ
85193,Pinal,AZ
85194,Pinal,AZ
85201,Maricopa,AZ
85202,Maricopa,AZ
85203,Maricopa,AZ
85204,Maricopa,AZ
85205,Maricopa,AZ
85206,Maricopa,AZ
85207,Maricopa,AZ
85208,Maricopa,AZ
85209,Maricopa,AZ
85210,Maricopa,AZ
85212,Maricopa,AZ
85213,Maricopa,AZ
85215,Maricopa,AZ
85224,Maricopa,AZ
85225,Maricopa,AZ
85226,Maricopa,AZ
85233,Maricopa,AZ
85234,Maricopa,AZ
85236,Maricopa,AZ
85244,Maricopa,AZ
85246,Maricopa,AZ
85248,Maricopa,AZ
85249,Maricopa,AZ
85250,Maricopa,AZ
85251,Maricopa,AZ
85252,Maricopa,AZ
85253,Maricopa,AZ
85254,Maricopa,AZ
85255,Maricopa,AZ
85256,Maricopa,AZ
85257,Maricopa,AZ
85258,Maricopa,AZ
85259,Maricopa,AZ
85260,Maricopa,AZ
85261,Maricopa,AZ
85262,Maricopa,AZ
85263,Maricopa,AZ
85264,Maricopa,AZ
85266,Maricopa,AZ
85267,Maricopa,AZ
85268,Maricopa,AZ
85269,Maricopa,AZ
85271,Maricopa,AZ
85281,Maricopa,AZ
85282,Maricopa,AZ
85283,Maricopa,AZ
85284,Maricopa,AZ
85286,Maricopa,AZ
85295,Maricopa,AZ
85296,Maricopa,AZ
85297,Maricopa,AZ
85298,Maricopa,AZ
85302,Maricopa,AZ
85303,Maricopa,AZ
85304,Maricopa,AZ
85305,Maricopa,AZ
85306,Maricopa,AZ
85307,Maricopa,AZ
85308,Maricopa,AZ
85310,Maricopa,AZ
85322,Maricopa,AZ
85323,Maricopa,AZ
85326,Maricopa,AZ
85331,Maricopa,AZ
85335,Maricopa,AZ
85337,Maricopa,AZ
85338,Maricopa,AZ
85339,Maricopa,AZ
85340,Maricopa,AZ
85342,Maricopa,AZ
85343,Maricopa,AZ
85345,Maricopa,AZ
85351,Maricopa,AZ
85353,Maricopa,AZ
85354,Maricopa,AZ
85355,Maricopa,AZ
85360,Mohave,AZ
85361,Maricopa,AZ
85373,Maricopa,AZ
85374,Maricopa,AZ
85375,Maricopa,AZ
85378,Maricopa,AZ
85379,Maricopa,AZ
85381,Maricopa,AZ
85382,Maricopa,AZ
85383,Maricopa,AZ
85387,Maricopa,AZ
85388,Maricopa,AZ
85392,Maricopa,AZ
85395,Maricopa,AZ
85396,Maricopa,AZ
85541,Gila,AZ
85554,Gila,AZ
85614,Pima,AZ
85616,Cochise,AZ
85629,Pima,AZ
85635,Cochise,AZ
85641,Pima,AZ
85653,Pima,AZ
85658,Pima,AZ
85704,Pima,AZ
85705,Pima,AZ
85706,Pima,AZ
85709,Pima,AZ
85710,Pima,AZ
85711,Pima,AZ
85712,Pima,AZ
85713,Pima,AZ
85714,Pima,AZ
85715,Pima,AZ
85716,Pima,AZ
85718,Pima,AZ
85735,Pima,AZ
85737,Pima,AZ
85739,Pinal,AZ
85741,Pima,AZ
85742,Pima,AZ
85743,Pima,AZ
85745,Pima,AZ
85746,Pima,AZ
85747,Pima,AZ
85748,Pima,AZ
85749,Pima,AZ
85750,Pima,AZ
85755,Pima,AZ
85901,Navajo,AZ
85923,Navajo,AZ
85928,Navajo,AZ
85929,Navajo,AZ
85931,Coconino,AZ
85933,Navajo,AZ
85934,Navajo,AZ
85935,Navajo,AZ
85937,Navajo,AZ
85939,Navajo,AZ
85941,Apache,AZ
85942,Navajo,AZ
86001,Coconino,AZ
86004,Coconino,AZ
86005,Coconino,AZ
86015,Coconino,AZ
86018,Coconino,AZ
86024,Coconino,AZ
86029,Navajo,AZ
86032,Navajo,AZ
86035,Coconino,AZ
86038,Coconino,AZ
86040,Coconino,AZ
86046,Coconino,AZ
86047,Navajo,AZ
86301,Yavapai,AZ
86303,Yavapai,AZ
86305,Yavapai,AZ
86314,Yavapai,AZ
86315,Yavapai,AZ
86321,Yavapai,AZ
86322,Yavapai,AZ
86323,Yavapai,AZ
86324,Yavapai,AZ
86325,Yavapai,AZ
86326,Yavapai,AZ
86327,Yavapai,AZ
86334,Yavapai,AZ
86335,Yavapai,AZ
86336,Yavapai,AZ
86337,Yavapai,AZ
86351,Yavapai,AZ
86401,Mohave,AZ
86402,Mohave,AZ
86403,Mohave,AZ
86404,Mohave,AZ
86405,Mohave,AZ
86406,Mohave,AZ
86409,Mohave,AZ
86411,Mohave,AZ
86412,Mohave,AZ
86413,Mohave,AZ
86426,Mohave,AZ
86427,Mohave,AZ
86429,Mohave,AZ
86430,Mohave,AZ
86433,Mohave,AZ
86434,Mohave,AZ
86436,Mohave,AZ
86437,Mohave,AZ
86438,Mohave,AZ
86439,Mohave,AZ
86440,Mohave,AZ
86441,Mohave,AZ
86442,Mohave,AZ
86443,Mohave,AZ
86444,Mohave,AZ
86445,Mohave,AZ
87004,Sandoval,NM
87041,Sandoval,NM
87048,Sandoval,NM
87052,Sandoval,NM
87083,Sandoval,NM
87102,Bernalillo,NM
87106,Bernalillo,NM
87107,Bernalillo,NM
87109,Bernalillo,NM
87110,Bernalillo,NM
87111,Bernalillo,NM
87113,Bernalillo,NM
87114,Bernalillo,NM
87120,Bernalillo,NM
87122,Bernalillo,NM
87124,Sandoval,NM
87144,Sandoval,NM
87401,San Juan,NM
87402,San Juan,NM
87410,San Juan,NM
87413,San Juan,NM
87415,San Juan,NM
87417,San Juan,NM
87419,San Juan,NM
87501,Santa Fe,NM
87505,Santa Fe,NM
87506,Santa Fe,NM
87507,Santa Fe,NM
87508,Santa Fe,NM
87522,Rio Arriba,NM
87527,Rio Arriba,NM
87531,Rio Arriba,NM
87532,Santa Fe,NM
87535,Santa Fe,NM
87537,Rio Arriba,NM
87553,Taos,NM
87557,Taos,NM
87566,Rio Arriba,NM
87567,Santa Fe,NM
87571,Taos,NM
87573,San Miguel,NM
87715,Mora,NM
88001,Dona Ana,NM
88002,Dona Ana,NM
88003,Dona Ana,NM
88005,Dona Ana,NM
88007,Dona Ana,NM
88008,Dona Ana,NM
88011,Dona Ana,NM
88012,Dona Ana,NM
88021,Dona Ana,NM
88044,Dona Ana,NM
88047,Dona Ana,NM
88048,Dona Ana,NM
88063,Dona Ana,NM
88072,Dona Ana,NM
88081,Otero,NM
88101,Curry,NM
88118,Roosevelt,NM
88120,Curry,NM
88124,Curry,NM
88135,Curry,NM
88201,Chaves,NM
88203,Chaves,NM
88210,Eddy,NM
88220,Eddy,NM
88230,Chaves,NM
88232,Chaves,NM
88250,Eddy,NM
88253,Chaves,NM
88310,Otero,NM
88317,Otero,NM
88330,Otero,NM
88337,Otero,NM
88339,Otero,NM
88340,Otero,NM
88344,Otero,NM
88347,Otero,NM
88351,Lincoln,NM
88354,Otero,NM
88888,,
89009,Clark,NV
89011,Clark,NV
89012,Clark,NV
89013,Esmeralda,NV
89014,Clark,NV
89015,Clark,NV
89016,Clark,NV
89027,Clark,NV
89052,Clark,NV
89074,Clark,NV
89084,Clark,NV
89086,Clark,NV
89102,Clark,NV
89103,Clark,NV
89106,Clark,NV
89108,Clark,NV
89113,Clark,NV
89117,Clark,NV
89118,Clark,NV
89119,Clark,NV
89120,Clark,NV
89123,Clark,NV
89127,Clark,NV
89128,Clark,NV
89129,Clark,NV
89130,Clark,NV
89131,Clark,NV
89134,Clark,NV
89135,Clark,NV
89136,Clark,NV
89138,Clark,NV
89139,Clark,NV
89141,Clark,NV
89144,Clark,NV
89145,Clark,NV
89146,Clark,NV
89147,Clark,NV
89148,Clark,NV
89149,Clark,NV
89155,Clark,NV
89403,Lyon,NV
89410,Douglas,NV
89413,Douglas,NV
89423,Douglas,NV
89429,Lyon,NV
89434,Washoe,NV
89447,Lyon,NV
89448,Douglas,NV
89451,Washoe,NV
89501,Washoe,NV
89502,Washoe,NV
89503,Washoe,NV
89509,Washoe,NV
89510,Washoe,NV
89511,Washoe,NV
89519,Washoe,NV
89521,Washoe,NV
89701,Carson City,NV
89703,Carson City,NV
89705,Douglas,NV
89706,Carson City,NV
90004,Los Angeles,CA
90008,Los Angeles,CA
90024,Los Angeles,CA
90025,Los Angeles,CA
90027,Los Angeles,CA
90031,Los Angeles,CA
90032,Los Angeles,CA
90035,Los Angeles,CA
90036,Los Angeles,CA
90039,Los Angeles,CA
90043,Los Angeles,CA
90045,Los Angeles,CA
90046,Los Angeles,CA
90048,Los Angeles,CA
90049,Los Angeles,CA
90056,Los Angeles,CA
90064,Los Angeles,CA
90065,Los Angeles,CA
90066,Los Angeles,CA
90067,Los Angeles,CA
90068,Los Angeles,CA
90069,Los Angeles,CA
90073,Los Angeles,CA
90077,Los Angeles,CA
90095,Los Angeles,CA
90210,Los Angeles,CA
90211,Los Angeles,CA
90212,Los Angeles,CA
90241,Los Angeles,CA
90242,Los Angeles,CA
90245,Los Angeles,CA
90247,Los Angeles,CA
90248,Los Angeles,CA
90249,Los Angeles,CA
90254,Los Angeles,CA
90260,Los Angeles,CA
90263,Los Angeles,CA
90265,Los Angeles,CA
90266,Los Angeles,CA
90272,Los Angeles,CA
90274,Los Angeles,CA
90275,Los Angeles,CA
90277,Los Angeles,CA
90278,Los Angeles,CA
90290,Los Angeles,CA
90292,Los Angeles,CA
90293,Los Angeles,CA
90301,Los Angeles,CA
90401,Los Angeles,CA
90402,Los Angeles,CA
90403,Los Angeles,CA
90404,Los Angeles,CA
90405,Los Angeles,CA
90501,Los Angeles,CA
90502,Los Angeles,CA
90503,Los Angeles,CA
90504,Los Angeles,CA
90505,Los Angeles,CA
90602,Los Angeles,CA
90603,Los Angeles,CA
90604,Los Angeles,CA
90605,Los Angeles,CA
90620,Orange,CA
90623,Orange,CA
90630,Orange,CA
90631,Orange,CA
90638,Los Angeles,CA
90670,Los Angeles,CA
90703,Los Angeles,CA
90706,Los Angeles,CA
90707,Los Angeles,CA
90710,Los Angeles,CA
90712,Los Angeles,CA
90715,Los Angeles,CA
90716,Los Angeles,CA
90717,Los Angeles,CA
90720,Orange,CA
90731,Los Angeles,CA
90732,Los Angeles,CA
90740,Orange,CA
90745,Los Angeles,CA
90746,Los Angeles,CA
90747,Los Angeles,CA
90801,Los Angeles,CA
90803,Los Angeles,CA
90804,Los Angeles,CA
90806,Los Angeles,CA
90808,Los Angeles,CA
90813,Los Angeles,CA
90814,Los Angeles,CA
90815,Los Angeles,CA
90822,Los Angeles,CA
90840,Los Angeles,CA
91001,Los Angeles,CA
91006,Los Angeles,CA
91007,Los Angeles,CA
91008,Los Angeles,CA
91010,Los Angeles,CA
91011,Los Angeles,CA
91016,Los Angeles,CA
91020,Los Angeles,CA
91023,Los Angeles,CA
91024,Los Angeles,CA
91030,Los Angeles,CA
91040,Los Angeles,CA
91101,Los Angeles,CA
91103,Los Angeles,CA
91104,Los Angeles,CA
91105,Los Angeles,CA
91106,Los Angeles,CA
91107,Los Angeles,CA
91108,Los Angeles,CA
91201,Los Angeles,CA
91202,Los Angeles,CA
91203,Los Angeles,CA
91204,Los Angeles,CA
91205,Los Angeles,CA
91206,Los Angeles,CA
91207,Los Angeles,CA
91208,Los Angeles,CA
91214,Los Angeles,CA
91301,Los Angeles,CA
91302,Los Angeles,CA
91303,Los Angeles,CA
91304,Los Angeles,CA
91306,Los Angeles,CA
91307,Los Angeles,CA
91311,Los Angeles,CA
91316,Los Angeles,CA
91320,Ventura,CA
91321,Los Angeles,CA
91324,Los Angeles,CA
91325,Los Angeles,CA
91326,Los Angeles,CA
91330,Los Angeles,CA
91335,Los Angeles,CA
91343,Los Angeles,CA
91344,Los Angeles,CA
91350,Los Angeles,CA
91351,Los Angeles,CA
91354,Los Angeles,CA
91355,Los Angeles,CA
91356,Los Angeles,CA
91360,Ventura,CA
91361,Ventura,CA
91362,Ventura,CA
91364,Los Angeles,CA
91367,Los Angeles,CA
91377,Ventura,CA
91384,Los Angeles,CA
91387,Los Angeles,CA
91401,Los Angeles,CA
91403,Los Angeles,CA
91406,Los Angeles,CA
91423,Los Angeles,CA
91436,Los Angeles,CA
91501,Los Angeles,CA
91502,Los Angeles,CA
91504,Los Angeles,CA
91505,Los Angeles,CA
91506,Los Angeles,CA
91602,Los Angeles,CA
91604,Los Angeles,CA
91605,Los Angeles,CA
91606,Los Angeles,CA
91607,Los Angeles,CA
91608,Los Angeles,CA
91701,San Bernardino,CA
91702,Los Angeles,CA
91708,San Bernardino,CA
91709,San Bernardino,CA
91710,San Bernardino,CA
91711,Los Angeles,CA
91722,Los Angeles,CA
91723,Los Angeles,CA
91724,Los Angeles,CA
91730,San Bernardino,CA
91737,San Bernardino,CA
91739,San Bernardino,CA
91740,Los Angeles,CA
91741,Los Angeles,CA
91750,Los Angeles,CA
91752,Riverside,CA
91759,San Bernardino,CA
91762,San Bernardino,CA
91764,San Bernardino,CA
91765,Los Angeles,CA
91767,Los Angeles,CA
91773,Los Angeles,CA
91784,San Bernardino,CA
91786,San Bernardino,CA
91788,Los Angeles,CA
91789,Los Angeles,CA
91790,Los Angeles,CA
91791,Los Angeles,CA
91902,San Diego,CA
91908,San Diego,CA
91909,San Diego,CA
91910,San Diego,CA
91911,San Diego,CA
91912,San Diego,CA
91914,San Diego,CA
91921,San Diego,CA
91941,San Diego,CA
91942,San Diego,CA
91943,San Diego,CA
91944,San Diego,CA
91945,San Diego,CA
91946,San Diego,CA
91950,San Diego,CA
91951,San Diego,CA
91976,San Diego,CA
91977,San Diego,CA
91979,San Diego,CA
92007,San Diego,CA
92008,San Diego,CA
92009,San Diego,CA
92014,San Diego,CA
92018,San Diego,CA
92019,San Diego,CA
92020,San Diego,CA
92021,San Diego,CA
92024,San Diego,CA
92025,San Diego,CA
92029,San Diego,CA
92033,San Diego,CA
92037,San Diego,CA
92040,San Diego,CA
92046,San Diego,CA
92052,San Diego,CA
92056,San Diego,CA
92064,San Diego,CA
92067,San Diego,CA
92068,San Diego,CA
92069,San Diego,CA
92075,San Diego,CA
92078,San Diego,CA
92079,San Diego,CA
92083,San Diego,CA
92085,San Diego,CA
92091,San Diego,CA
92096,San Diego,CA
92101,San Diego,CA
92103,San Diego,CA
92104,San Diego,CA
92106,San Diego,CA
92107,San Diego,CA
92108,San Diego,CA
92109,San Diego,CA
92110,San Diego,CA
92111,San Diego,CA
92114,San Diego,CA
92115,San Diego,CA
92116,San Diego,CA
92117,San Diego,CA
92118,San Diego,CA
92119,San Diego,CA
92120,San Diego,CA
92121,San Diego,CA
92122,San Diego,CA
92126,San Diego,CA
92127,San Diego,CA
92128,San Diego,CA
92129,San Diego,CA
92130,San Diego,CA
92131,San Diego,CA
92139,San Diego,CA
92149,San Diego,CA
92159,San Diego,CA
92160,San Diego,CA
92174,San Diego,CA
92198,San Diego,CA
92201,Riverside,CA
92203,Riverside,CA
92210,Riverside,CA
92211,Riverside,CA
92220,Riverside,CA
92223,Riverside,CA
92234,Riverside,CA
92240,Riverside,CA
92253,Riverside,CA
92260,Riverside,CA
92262,Riverside,CA
92263,Riverside,CA
92264,Riverside,CA
92270,Riverside,CA
92320,Riverside,CA
92322,San Bernardino,CA
92324,San Bernardino,CA
92325,San Bernardino,CA
92346,San Bernardino,CA
92350,San Bernardino,CA
92354,San Bernardino,CA
92373,San Bernardino,CA
92374,San Bernardino,CA
92377,San Bernardino,CA
92404,San Bernardino,CA
92405,San Bernardino,CA
92407,San Bernardino,CA
92408,San Bernardino,CA
92501,Riverside,CA
92503,Riverside,CA
92504,Riverside,CA
92505,Riverside,CA
92506,Riverside,CA
92507,Riverside,CA
92509,Riverside,CA
92543,Riverside,CA
92544,Riverside,CA
92545,Riverside,CA
92546,Riverside,CA
92562,Riverside,CA
92563,Riverside,CA
92564,Riverside,CA
92584,Riverside,CA
92585,Riverside,CA
92586,Riverside,CA
92587,Riverside,CA
92589,Riverside,CA
92590,Riverside,CA
92591,Riverside,CA
92592,Riverside,CA
92593,Riverside,CA
92596,Riverside,CA
92626,Orange,CA
92627,Orange,CA
92629,Orange,CA
92637,Orange,CA
92646,Orange,CA
92647,Orange,CA
92648,Orange,CA
92649,Orange,CA
92651,Orange,CA
92652,Orange,CA
92653,Orange,CA
92654,Orange,CA
92657,Orange,CA
92658,Orange,CA
92660,Orange,CA
92663,Orange,CA
92673,Orange,CA
92675,Orange,CA
92677,Orange,CA
92683,Orange,CA
92693,Orange,CA
92701,Orange,CA
92703,Orange,CA
92706,Orange,CA
92708,Orange,CA
92712,Orange,CA
92802,Orange,CA
92805,Orange,CA
92806,Orange,CA
92812,Orange,CA
92815,Orange,CA
92825,Orange,CA
92831,Orange,CA
92832,Orange,CA
92833,Orange,CA
92835,Orange,CA
92840,Orange,CA
92841,Orange,CA
92842,Orange,CA
92844,Orange,CA
92845,Orange,CA
92850,Orange,CA
92856,Orange,CA
92861,Orange,CA
92865,Orange,CA
92866,Orange,CA
92867,Orange,CA
92868,Orange,CA
92870,Orange,CA
92880,Riverside,CA
92881,Riverside,CA
92882,Riverside,CA
92883,Riverside,CA
93001,Ventura,CA
93003,Ventura,CA
93004,Ventura,CA
93010,Ventura,CA
93012,Ventura,CA
93013,Santa Barbara,CA
93015,Ventura,CA
93021,Ventura,CA
93022,Ventura,CA
93023,Ventura,CA
93030,Ventura,CA
93036,Ventura,CA
93040,Ventura,CA
93060,Ventura,CA
93063,Ventura,CA
93065,Ventura,CA
93066,Ventura,CA
93101,Santa Barbara,CA
93103,Santa Barbara,CA
93105,Santa Barbara,CA
93108,Santa Barbara,CA
93109,Santa Barbara,CA
93110,Santa Barbara,CA
93111,Santa Barbara,CA
93117,Santa Barbara,CA
93230,Kings,CA
93247,Tulare,CA
93257,Tulare,CA
93274,Tulare,CA
93277,Tulare,CA
93291,Tulare,CA
93292,Tulare,CA
93401,San Luis Obispo,CA
93402,San Luis Obispo,CA
93405,San Luis Obispo,CA
93420,San Luis Obispo,CA
93422,San Luis Obispo,CA
93427,Santa Barbara,CA
93436,Santa Barbara,CA
93441,Santa Barbara,CA
93446,San Luis Obispo,CA
93449,San Luis Obispo,CA
93453,San Luis Obispo,CA
93455,Santa Barbara,CA
93458,Santa Barbara,CA
93460,Santa Barbara,CA
93463,Santa Barbara,CA
93465,San Luis Obispo,CA
93610,Madera,CA
93612,Fresno,CA
93614,Madera,CA
93626,Fresno,CA
93630,Fresno,CA
93636,Madera,CA
93637,Madera,CA
93638,Madera,CA
93650,Fresno,CA
93653,Madera,CA
93704,Fresno,CA
93710,Fresno,CA
93711,Fresno,CA
93720,Fresno,CA
93722,Fresno,CA
93723,Fresno,CA
93726,Fresno,CA
93901,Monterey,CA
93907,Monterey,CA
93908,Monterey,CA
93923,Monterey,CA
93924,Monterey,CA
93933,Monterey,CA
93940,Monterey,CA
93950,Monterey,CA
93953,Monterey,CA
93955,Monterey,CA
94010,San Mateo,CA
94022,Santa Clara,CA
94024,Santa Clara,CA
94025,San Mateo,CA
94027,San Mateo,CA
94028,San Mateo,CA
94030,San Mateo,CA
94035,Santa Clara,CA
94039,Santa Clara,CA
94040,Santa Clara,CA
94041,Santa Clara,CA
94043,Santa Clara,CA
94061,San Mateo,CA
94062,San Mateo,CA
94063,San Mateo,CA
94065,San Mateo,CA
94066,San Mateo,CA
94085,Santa Clara,CA
94086,Santa Clara,CA
94087,Santa Clara,CA
94089,Santa Clara,CA
94301,Santa Clara,CA
94303,San Mateo,CA
94304,Santa Clara,CA
94305,Santa Clara,CA
94306,Santa Clara,CA
94310,,
94401,San Mateo,CA
94402,San Mateo,CA
94403,San Mateo,CA
94404,San Mateo,CA
94501,Alameda,CA
94505,Contra Costa,CA
94506,Contra Costa,CA
94507,Contra Costa,CA
94509,Contra Costa,CA
94513,Contra Costa,CA
94514,Contra Costa,CA
94518,Contra Costa,CA
94519,Contra Costa,CA
94520,Contra Costa,CA
94521,Contra Costa,CA
94523,Contra Costa,CA
94525,Contra Costa,CA
94526,Contra Costa,CA
94528,Contra Costa,CA
94530,Contra Costa,CA
94531,Contra Costa,CA
94536,Alameda,CA
94538,Alameda,CA
94539,Alameda,CA
94547,Contra Costa,CA
94549,Contra Costa,CA
94550,Alameda,CA
94551,Alameda,CA
94555,Alameda,CA
94563,Contra Costa,CA
94564,Contra Costa,CA
94566,Alameda,CA
94568,Alameda,CA
94572,Contra Costa,CA
94583,Contra Costa,CA
94588,Alameda,CA
94591,Solano,CA
94595,Contra Costa,CA
94596,Contra Costa,CA
94598,Contra Costa,CA
94602,Alameda,CA
94609,Alameda,CA
94610,Alameda,CA
94611,Alameda,CA
94612,Alameda,CA
94618,Alameda,CA
94705,Alameda,CA
94706,Alameda,CA
94707,Alameda,CA
94708,Alameda,CA
94803,Contra Costa,CA
94901,Marin,CA
94903,Marin,CA
94904,Marin,CA
94912,Marin,CA
94913,Marin,CA
94914,Marin,CA
94915,Marin,CA
94920,Marin,CA
94924,Marin,CA
94925,Marin,CA
94929,Marin,CA
94930,Marin,CA
94933,Marin,CA
94937,Marin,CA
94938,Marin,CA
94939,Marin,CA
94940,Marin,CA
94941,Marin,CA
94942,Marin,CA
94945,Marin,CA
94946,Marin,CA
94947,Marin,CA
94948,Marin,CA
94949,Marin,CA
94950,Marin,CA
94956,Marin,CA
94957,Marin,CA
94960,Marin,CA
94963,Marin,CA
94964,Marin,CA
94965,Marin,CA
94966,Marin,CA
94970,Marin,CA
94971,Marin,CA
94973,Marin,CA
94974,Marin,CA
94976,Marin,CA
94977,Marin,CA
94978,Marin,CA
94979,Marin,CA
94998,Marin,CA
95003,Santa Cruz,CA
95004,Monterey,CA
95008,Santa Clara,CA
95010,Santa Cruz,CA
95012,Monterey,CA
95013,Santa Clara,CA
95014,Santa Clara,CA
95015,Santa Clara,CA
95018,Santa Cruz,CA
95019,Santa Cruz,CA
95020,Santa Clara,CA
95023,San Benito,CA
95030,Santa Clara,CA
95032,Santa Clara,CA
95033,Santa Cruz,CA
95035,Santa Clara,CA
95037,Santa Clara,CA
95039,Monterey,CA
95042,Santa Clara,CA
95045,San Benito,CA
95046,Santa Clara,CA
95050,Santa Clara,CA
95051,Santa Clara,CA
95054,Santa Clara,CA
95060,Santa Cruz,CA
95062,Santa Cruz,CA
95065,Santa Cruz,CA
95066,Santa Cruz,CA
95070,Santa Clara,CA
95071,Santa Clara,CA
95073,Santa Cruz,CA
95076,Santa Cruz,CA
95117,Santa Clara,CA
95118,Santa Clara,CA
95119,Santa Clara,CA
95120,Santa Clara,CA
95123,Santa Clara,CA
95124,Santa Clara,CA
95125,Santa Clara,CA
95126,Santa Clara,CA
95128,Santa Clara,CA
95129,Santa Clara,CA
95135,Santa Clara,CA
95138,Santa Clara,CA
95139,Santa Clara,CA
95141,Santa Clara,CA
95150,Santa Clara,CA
95153,Santa Clara,CA
95154,Santa Clara,CA
95155,Santa Clara,CA
95158,Santa Clara,CA
95159,Santa Clara,CA
95160,Santa Clara,CA
95203,San Joaquin,CA
95204,San Joaquin,CA
95205,San Joaquin,CA
95207,San Joaquin,CA
95209,San Joaquin,CA
95210,San Joaquin,CA
95212,San Joaquin,CA
95215,San Joaquin,CA
95219,San Joaquin,CA
95240,San Joaquin,CA
95242,San Joaquin,CA
95304,San Joaquin,CA
95333,Merced,CA
95340,Merced,CA
95343,Merced,CA
95348,Merced,CA
95365,Merced,CA
95376,San Joaquin,CA
95501,Humboldt,CA
95503,Humboldt,CA
95519,Humboldt,CA
95521,Humboldt,CA
95540,Humboldt,CA
95570,Humboldt,CA
95601,Amador,CA
95602,Placer,CA
95603,Placer,CA
95608,Sacramento,CA
95610,Sacramento,CA
95619,El Dorado,CA
95621,Sacramento,CA
95623,El Dorado,CA
95624,Sacramento,CA
95628,Sacramento,CA
95629,Amador,CA
95630,Sacramento,CA
95636,El Dorado,CA
95640,Amador,CA
95642,Amador,CA
95648,Placer,CA
95650,Placer,CA
95652,Sacramento,CA
95655,Sacramento,CA
95658,Placer,CA
95660,Sacramento,CA
95661,Placer,CA
95662,Sacramento,CA
95663,Placer,CA
95665,Amador,CA
95667,El Dorado,CA
95669,Amador,CA
95670,Sacramento,CA
95672,El Dorado,CA
95677,Placer,CA
95678,Placer,CA
95682,El Dorado,CA
95683,Sacramento,CA
95684,El Dorado,CA
95685,Amador,CA
95689,Amador,CA
95699,Amador,CA
95709,El Dorado,CA
95726,El Dorado,CA
95742,Sacramento,CA
95746,Placer,CA
95747,Placer,CA
95762,El Dorado,CA
95765,Placer,CA
95811,Sacramento,CA
95814,Sacramento,CA
95815,Sacramento,CA
95816,Sacramento,CA
95818,Sacramento,CA
95819,Sacramento,CA
95821,Sacramento,CA
95822,Sacramento,CA
95825,Sacramento,CA
95827,Sacramento,CA
95829,Sacramento,CA
95830,Sacramento,CA
95831,Sacramento,CA
95838,Sacramento,CA
95841,Sacramento,CA
95864,Sacramento,CA
96001,Shasta,CA
96002,Shasta,CA
96003,Shasta,CA
96007,Shasta,CA
96019,Shasta,CA
96021,Tehama,CA
96022,Tehama,CA
96025,Siskiyou,CA
96034,Siskiyou,CA
96047,Shasta,CA
96051,Shasta,CA
96055,Tehama,CA
96057,Siskiyou,CA
96059,Tehama,CA
96062,Shasta,CA
96067,Siskiyou,CA
96069,Shasta,CA
96073,Shasta,CA
96080,Tehama,CA
96088,Shasta,CA
96094,Siskiyou,CA
96096,Shasta,CA
96097,Siskiyou,CA
96701,Honolulu,HI
96717,Honolulu,HI
96730,Honolulu,HI
96731,Honolulu,HI
96734,Honolulu,HI
96744,Honolulu,HI
96762,Honolulu,HI
96782,Honolulu,HI
96795,Honolulu,HI
96863,Honolulu,HI
97001,Wasco,OR
97002,Marion,OR
97005,Washington,OR
97006,Washington,OR
97007,Washington,OR
97008,Washington,OR
97009,Clackamas,OR
97013,Clackamas,OR
97015,Clackamas,OR
97026,Marion,OR
97027,Clackamas,OR
97030,Multnomah,OR
97032,Marion,OR
97034,Clackamas,OR
97035,Clackamas,OR
97037,Wasco,OR
97045,Clackamas,OR
97055,Clackamas,OR
97057,Wasco,OR
97062,Washington,OR
97068,Clackamas,OR
97070,Clackamas,OR
97071,Marion,OR
97075,Washington,OR
97076,Washington,OR
97077,Washington,OR
97080,Multnomah,OR
97086,Clackamas,OR
97089,Clackamas,OR
97101,Yamhill,OR
97114,Yamhill,OR
97115,Yamhill,OR
97123,Washington,OR
97124,Washington,OR
97127,Yamhill,OR
97128,Yamhill,OR
97132,Yamhill,OR
97137,Marion,OR
97140,Washington,OR
97201,Multnomah,OR
97202,Multnomah,OR
97203,Multnomah,OR
97204,Multnomah,OR
97205,Multnomah,OR
97206,Multnomah,OR
97207,Multnomah,OR
97209,Multnomah,OR
97210,Multnomah,OR
97211,Multnomah,OR
97212,Multnomah,OR
97213,Multnomah,OR
97214,Multnomah,OR
97215,Multnomah,OR
97216,Multnomah,OR
97217,Multnomah,OR
97218,Multnomah,OR
97219,Multnomah,OR
97220,Multnomah,OR
97221,Multnomah,OR
97222,Clackamas,OR
97223,Washington,OR
97224,Washington,OR
97225,Washington,OR
97227,Multnomah,OR
97229,Washington,OR
97230,Multnomah,OR
97231,Multnomah,OR
97232,Multnomah,OR
97236,Multnomah,OR
97240,Multnomah,OR
97242,Multnomah,OR
97266,Multnomah,OR
97267,Clackamas,OR
97268,Multnomah,OR
97269,Multnomah,OR
97280,Multnomah,OR
97281,Multnomah,OR
97282,Multnomah,OR
97286,Multnomah,OR
97290,Multnomah,OR
97291,Multnomah,OR
97296,Multnomah,OR
97298,Multnomah,OR
97301,Marion,OR
97302,Marion,OR
97303,Marion,OR
97304,Polk,OR
97305,Marion,OR
97306,Marion,OR
97317,Marion,OR
97321,Linn,OR
97322,Linn,OR
97330,Benton,OR
97333,Benton,OR
97338,Polk,OR
97351,Polk,OR
97352,Marion,OR
97361,Polk,OR
97370,Benton,OR
97371,Polk,OR
97377,Linn,OR
97389,Linn,OR
97401,Lane,OR
97402,Lane,OR
97405,Lane,OR
97413,Lane,OR
97443,Douglas,OR
97463,Lane,OR
97477,Lane,OR
97478,Lane,OR
97484,Douglas,OR
97501,Jackson,OR
97502,Jackson,OR
97504,Jackson,OR
97520,Jackson,OR
97524,Jackson,OR
97526,Josephine,OR
97527,Josephine,OR
97530,Jackson,OR
97535,Jackson,OR
97540,Jackson,OR
97624,Klamath,OR
97627,Klamath,OR
97630,Lake,OR
97636,Lake,OR
97637,Lake,OR
97638,Lake,OR
97640,Lake,OR
97701,Deschutes,OR
97702,Deschutes,OR
97707,Deschutes,OR
97711,Jefferson,OR
97712,Deschutes,OR
97730,Jefferson,OR
97731,Klamath,OR
97733,Klamath,OR
97734,Jefferson,OR
97735,Lake,OR
97737,Klamath,OR
97739,Deschutes,OR
97741,Jefferson,OR
97750,Wheeler,OR
97751,Crook,OR
97752,Crook,OR
97753,Crook,OR
97754,Crook,OR
97756,Deschutes,OR
97759,Deschutes,OR
97760,Jefferson,OR
97761,Jefferson,OR
98001,King,WA
98003,King,WA
98004,King,WA
98005,King,WA
98006,King,WA
98007,King,WA
98008,King,WA
98010,King,WA
98011,King,WA
98012,Snohomish,WA
98014,King,WA
98019,King,WA
98020,Snohomish,WA
98021,Snohomish,WA
98022,King,WA
98023,King,WA
98024,King,WA
98026,Snohomish,WA
98027,King,WA
98028,King,WA
98029,King,WA
98030,King,WA
98031,King,WA
98033,King,WA
98034,King,WA
98036,Snohomish,WA
98037,Snohomish,WA
98038,King,WA
98039,King,WA
98040,King,WA
98042,King,WA
98043,Snohomish,WA
98045,King,WA
98047,King,WA
98051,King,WA
98052,King,WA
98053,King,WA
98055,King,WA
98056,King,WA
98057,King,WA
98058,King,WA
98059,King,WA
98065,King,WA
98068,Kittitas,WA
98070,King,WA
98072,King,WA
98074,King,WA
98075,King,WA
98077,King,WA
98092,King,WA
98101,King,WA
98102,King,WA
98103,King,WA
98104,King,WA
98105,King,WA
98106,King,WA
98107,King,WA
98108,King,WA
98109,King,WA
98110,Kitsap,WA
98112,King,WA
98115,King,WA
98116,King,WA
98117,King,WA
98118,King,WA
98119,King,WA
98121,King,WA
98122,King,WA
98125,King,WA
98126,King,WA
98133,King,WA
98134,King,WA
98136,King,WA
98144,King,WA
98146,King,WA
98155,King,WA
98166,King,WA
98168,King,WA
98177,King,WA
98178,King,WA
98188,King,WA
98198,King,WA
98199,King,WA
98201,Snohomish,WA
98203,Snohomish,WA
98204,Snohomish,WA
98205,Snohomish,WA
98206,Snohomish,WA
98207,Snohomish,WA
98208,Snohomish,WA
98213,Snohomish,WA
98220,Whatcom,WA
98221,Skagit,WA
98223,Snohomish,WA
98225,Whatcom,WA
98226,Whatcom,WA
98227,Whatcom,WA
98228,Whatcom,WA
98229,Whatcom,WA
98230,Whatcom,WA
98231,Whatcom,WA
98232,Skagit,WA
98233,Skagit,WA
98235,Skagit,WA
98236,Island,WA
98237,Skagit,WA
98238,Skagit,WA
98239,Island,WA
98240,Whatcom,WA
98243,San Juan,WA
98244,Whatcom,WA
98245,San Juan,WA
98247,Whatcom,WA
98248,Whatcom,WA
98249,Island,WA
98250,San Juan,WA
98253,Island,WA
98255,Skagit,WA
98257,Skagit,WA
98258,Snohomish,WA
98260,Island,WA
98261,San Juan,WA
98262,Whatcom,WA
98263,Skagit,WA
98264,Whatcom,WA
98266,Whatcom,WA
98267,Skagit,WA
98270,Snohomish,WA
98271,Snohomish,WA
98272,Snohomish,WA
98273,Skagit,WA
98274,Skagit,WA
98275,Snohomish,WA
98276,Whatcom,WA
98277,Island,WA
98278,Island,WA
98279,San Juan,WA
98280,San Juan,WA
98281,Whatcom,WA
98282,Island,WA
98283,Skagit,WA
98284,Skagit,WA
98286,San Juan,WA
98290,Snohomish,WA
98291,Snohomish,WA
98294,Snohomish,WA
98295,Whatcom,WA
98296,Snohomish,WA
98297,San Juan,WA
98310,Kitsap,WA
98311,Kitsap,WA
98312,Kitsap,WA
98321,Pierce,WA
98327,Pierce,WA
98332,Pierce,WA
98335,Pierce,WA
98354,Pierce,WA
98366,Kitsap,WA
98367,Kitsap,WA
98370,Kitsap,WA
98371,Pierce,WA
98372,Pierce,WA
98373,Pierce,WA
98374,Pierce,WA
98375,Pierce,WA
98383,Kitsap,WA
98388,Pierce,WA
98391,Pierce,WA
98402,Pierce,WA
98404,Pierce,WA
98405,Pierce,WA
98406,Pierce,WA
98407,Pierce,WA
98408,Pierce,WA
98409,Pierce,WA
98416,Pierce,WA
98421,Pierce,WA
98424,Pierce,WA
98443,Pierce,WA
98445,Pierce,WA
98465,Pierce,WA
98466,Pierce,WA
98467,Pierce,WA
98498,Pierce,WA
98499,Pierce,WA
98501,Thurston,WA
98502,Thurston,WA
98503,Thurston,WA
98506,Thurston,WA
98512,Thurston,WA
98513,Thurston,WA
98516,Thurston,WA
98607,Clark,WA
98612,Wahkiakum,WA
98624,Pacific,WA
98625,Cowlitz,WA
98631,Pacific,WA
98632,Cowlitz,WA
98638,Pacific,WA
98640,Pacific,WA
98647,Wahkiakum,WA
98660,Clark,WA
98661,Clark,WA
98662,Clark,WA
98663,Clark,WA
98664,Clark,WA
98665,Clark,WA
98666,Clark,WA
98668,Clark,WA
98674,Cowlitz,WA
98682,Clark,WA
98683,Clark,WA
98684,Clark,WA
98686,Clark,WA
98687,Clark,WA
98801,Chelan,WA
98802,Douglas,WA
98812,Okanogan,WA
98813,Douglas,WA
98815,Chelan,WA
98816,Chelan,WA
98821,Chelan,WA
98822,Chelan,WA
98823,Grant,WA
98826,Chelan,WA
98830,Douglas,WA
98831,Chelan,WA
98836,Chelan,WA
98837,Grant,WA
98843,Douglas,WA
98845,Douglas,WA
98846,Okanogan,WA
98847,Chelan,WA
98848,Grant,WA
98850,Douglas,WA
98851,Grant,WA
98858,Douglas,WA
98901,Yakima,WA
98902,Yakima,WA
98903,Yakima,WA
98908,Yakima,WA
98922,Kittitas,WA
98923,Yakima,WA
98926,Kittitas,WA
98937,Yakima,WA
98942,Yakima,WA
98946,Kittitas,WA
98947,Yakima,WA
99023,Spokane,WA
99037,Spokane,WA
99115,Grant,WA
99202,Spokane,WA
99204,Spokane,WA
99205,Spokane,WA
99206,Spokane,WA
99208,Spokane,WA
99209,Spokane,WA
99211,Spokane,WA
99212,Spokane,WA
99213,Spokane,WA
99214,Spokane,WA
99215,Spokane,WA
99216,Spokane,WA
99218,Spokane,WA
99220,Spokane,WA
99228,Spokane,WA
99252,Spokane,WA
99258,Spokane,WA
99301,Franklin,WA
99320,Benton,WA
99323,Walla Walla,WA
99324,Walla Walla,WA
99330,Franklin,WA
99336,Benton,WA
99337,Benton,WA
99338,Benton,WA
99345,Benton,WA
99346,Benton,WA
99348,Walla Walla,WA
99350,Benton,WA
99352,Benton,WA
99353,Benton,WA
99360,Walla Walla,WA
99362,Walla Walla,WA
99363,Walla Walla,WA
99501,Anchorage Municipality,AK
99502,Anchorage Municipality,AK
99503,Anchorage Municipality,AK
99504,Anchorage Municipality,AK
99505,Anchorage Municipality,AK
99506,Anchorage Municipality,AK
99507,Anchorage Municipality,AK
99508,Anchorage Municipality,AK
99509,Municipality of Anchorage,AK
99510,North Slope,AK
99511,Municipality of Anchorage,AK
99514,Municipality of Anchorage,AK
99515,Anchorage Municipality,AK
99516,Anchorage Municipality,AK
99517,Anchorage Municipality,AK
99518,Anchorage Municipality,AK
99520,Municipality of Anchorage,AK
99521,Municipality of Anchorage,AK
99522,Municipality of Anchorage,AK
99523,Municipality of Anchorage,AK
99524,Municipality of Anchorage,AK
99540,Anchorage Municipality,AK
99556,Kenai Peninsula,AK
99567,Anchorage Municipality,AK
99568,Kenai Peninsula,AK
99572,Kenai Peninsula,AK
99577,Anchorage Municipality,AK
99587,Anchorage Municipality,AK
99603,Kenai Peninsula,AK
99610,Kenai Peninsula,AK
99611,Kenai Peninsula,AK
99623,,AK
99629,Matanuska-Susitna,AK
99631,Kenai Peninsula,AK
99635,Kenai Peninsula,AK
99639,Kenai Peninsula,AK
99645,Matanuska-Susitna,AK
99654,Matanuska-Susitna,AK
99663,Kenai Peninsula,AK
99664,Kenai Peninsula,AK
99667,Matanuska-Susitna,AK
99669,Kenai Peninsula,AK
99672,Kenai Peninsula,AK
99674,Matanuska-Susitna,AK
99676,Matanuska-Susitna,AK
99677,Valdez-Cordova Census Area,AK
99682,Kenai Peninsula,AK
99683,Matanuska-Susitna,AK
99687,Matanuska-Susitna,AK
99688,Matanuska-Susitna,AK
99694,Matanuska-Susitna,AK
